{"version": 0.6, "generator": "Overpass API 0.7.61.5 4133829e", "osm3s": {"timestamp_osm_base": "2023-08-24T15:41:15Z", "copyright": "The data included in this document is from www.openstreetmap.org. The data is made available under ODbL."}, "elements": [{"type": "node", "id": 1767253040, "lat": 27.6367561, "lon": 85.5246034, "tags": {"amenity": "school", "name": "\u0928\u0947\u092a\u093e\u0932 \u092c\u0928\u0947\u092a\u093e \u092a\u094b\u0932\u093f\u091f\u0947\u0915\u094d\u0928\u093f\u0915 \u0938\u0902\u0938\u094d\u0925\u093e\u0928", "name:en": "Nepal Banepa Polytechnice institute", "name:ne": "\u0928\u0947\u092a\u093e\u0932 \u092c\u0928\u0947\u092a\u093e \u092a\u094b\u0932\u093f\u091f\u0947\u0915\u094d\u0928\u093f\u0915 \u0938\u0902\u0938\u094d\u0925\u093e\u0928"}}, {"type": "node", "id": 1767319463, "lat": 27.6323551, "lon": 85.5200926, "tags": {"addr:hamlet": "Bankhyo-6", "amenity": "school", "name": "\u091a\u0948\u0924\u0928\u094d\u092f \u0909\u091a\u094d\u091a \u092e\u093e\u0927\u094d\u092f\u092e\u093f\u0915 \u0935\u093f\u0926\u094d\u092f\u093e\u0932\u092f", "name:en": "Chaitanya Higher Secondary School", "name:ne": "\u091a\u0948\u0924\u0928\u094d\u092f \u0909\u091a\u094d\u091a \u092e\u093e\u0927\u094d\u092f\u092e\u093f\u0915 \u0935\u093f\u0926\u094d\u092f\u093e\u0932\u092f", "operator:type": "government"}}, {"type": "node", "id": 1768225328, "lat": 27.6301874, "lon": 85.5271823, "tags": {"amenity": "school", "name": "\u0915\u093e\u092d\u094d\u0930\u0947 \u0935\u093f\u0926\u094d\u092f\u093e\u0932\u092f", "name:en": "Kavre School", "name:ne": "\u0915\u093e\u092d\u094d\u0930\u0947 \u0935\u093f\u0926\u094d\u092f\u093e\u0932\u092f"}}, {"type": "node", "id": 1768227833, "lat": 27.6305106, "lon": 85.5257982, "tags": {"addr:street": "Bhimsen Marga", "amenity": "school", "email": "pragatiprabhatacademy@gmail.com", "name": "\u092a\u094d\u0930\u0917\u0924\u093f \u092a\u094d\u0930\u092d\u093e\u0924 \u090f\u0915\u0947\u0921\u0947\u092e\u0940", "name:en": "Pragati Prabhat Academy", "name:ne": "\u092a\u094d\u0930\u0917\u0924\u093f \u092a\u094d\u0930\u092d\u093e\u0924 \u090f\u0915\u0947\u0921\u0947\u092e\u0940", "opening_hours": "Su- Fr 09:30-16:00", "phone": "11660257"}}, {"type": "node", "id": 1768227841, "lat": 27.6311997, "lon": 85.5254496, "tags": {"amenity": "school", "name": "Innovative Academy"}}, {"type": "node", "id": 1772139973, "lat": 27.6297937, "lon": 85.5344696, "tags": {"addr:street": "Budol M.", "amenity": "school", "fixme": "check", "name": "\u0915\u093e\u092d\u094d\u0930\u0947 \u0909\u091a\u094d\u091a \u092e\u093e\u0926\u094d\u092f\u092e\u093f\u0915 \u092c\u093f\u0926\u094d\u092f\u093e\u0932\u092f", "name:en": "Kavre Higher Secondary School", "name:ne": "\u0915\u093e\u092d\u094d\u0930\u0947 \u0909\u091a\u094d\u091a \u092e\u093e\u0926\u094d\u092f\u092e\u093f\u0915 \u092c\u093f\u0926\u094d\u092f\u093e\u0932\u092f"}}, {"type": "node", "id": 1833834753, "lat": 27.6345455, "lon": 85.5164963, "tags": {"amenity": "school", "name": "\u0917\u094d\u092f\u093e\u0928\u0915\u0941\u0928\u091c", "name:en": "Gyankunja", "name:ne": "\u0917\u094d\u092f\u093e\u0928\u0915\u0941\u0928\u091c"}}, {"type": "node", "id": 1833834823, "lat": 27.6318507, "lon": 85.5251821, "tags": {"amenity": "school", "name": "\u091c\u094d\u092f\u094b\u0924\u093f \u090f\u0915\u0947\u0921\u0947\u092e\u0940", "name:en": "Jyoti Academy", "name:ne": "\u091c\u094d\u092f\u094b\u0924\u093f \u090f\u0915\u0947\u0921\u0947\u092e\u0940"}}, {"type": "node", "id": 1833834953, "lat": 27.6305205, "lon": 85.5286411, "tags": {"addr:street": "Bhimsensthan", "amenity": "school", "email": "just4u.pritamgans@gmail.com", "name": "Samata School", "name:en": "Samata Sikshya Niketan", "opening_hours": "Su- Fr 09:30-16:00", "phone": "11663118"}}, {"type": "node", "id": 1833834960, "lat": 27.6314948, "lon": 85.5277667, "tags": {"amenity": "school", "name": "\u0936\u094d\u0930\u0940 \u092b\u0941\u0932\u091a\u094b\u0915\u0940 \u0928\u0930\u094d\u0938\u093f\u0919 \u0915\u094d\u092f\u093e\u092e\u094d\u092a\u0938", "name:en": "Shri Phulchoki Nursing Campus", "name:ne": "\u0936\u094d\u0930\u0940 \u092b\u0941\u0932\u091a\u094b\u0915\u0940 \u0928\u0930\u094d\u0938\u093f\u0919 \u0915\u094d\u092f\u093e\u092e\u094d\u092a\u0938"}}, {"type": "node", "id": 1833834961, "lat": 27.6333531, "lon": 85.5171563, "tags": {"amenity": "school", "name": "\u0938\u093f\u0926\u094d\u0927\u093e\u0930\u094d\u0925 \u0935\u093f\u0926\u094d\u092f\u093e\u0932\u092f", "name:en": "Siddhartha School", "name:ne": "\u0938\u093f\u0926\u094d\u0927\u093e\u0930\u094d\u0925 \u0935\u093f\u0926\u094d\u092f\u093e\u0932\u092f"}}, {"type": "node", "id": 1833840823, "lat": 27.6359597, "lon": 85.5304031, "tags": {"amenity": "school", "name": "\u091f\u094d\u0930\u093f\u0917\u0928 \u090f\u0915\u0947\u0921\u0947\u092e\u0940", "name:en": "Trigun Academy", "name:ne": "\u091f\u094d\u0930\u093f\u0917\u0928 \u090f\u0915\u0947\u0921\u0947\u092e\u0940"}}, {"type": "node", "id": 2048106035, "lat": 27.6143127, "lon": 85.53262, "tags": {"amenity": "school", "name": "\u0917\u094b\u0932\u094d\u0938\u093f\u0921\u0947\u0928 \u0938\u093f\u0926\u094d\u0927\u093e\u0930\u094d\u0925 \u090f\u0915\u0947\u0921\u0947\u092e\u0940", "name:en": "Golden Siddhartha Academy", "name:ne": "\u0917\u094b\u0932\u094d\u0938\u093f\u0921\u0947\u0928 \u0938\u093f\u0926\u094d\u0927\u093e\u0930\u094d\u0925 \u090f\u0915\u0947\u0921\u0947\u092e\u0940"}}, {"type": "node", "id": 3485485698, "lat": 27.6322042, "lon": 85.5276755, "tags": {"amenity": "school", "name": "\u0908\u090f\u0938\u090f \u092e\u0947\u092e\u094b\u0930\u093f\u092f\u0932 \u0938\u094d\u0915\u0942\u0932", "name:en": "ESA Memorial School", "name:ne": "\u0908\u090f\u0938\u090f \u092e\u0947\u092e\u094b\u0930\u093f\u092f\u0932 \u0938\u094d\u0915\u0942\u0932"}}, {"type": "node", "id": 4469804590, "lat": 27.6193915, "lon": 85.5379062, "tags": {"amenity": "school", "email": "mic.som@ku.edu.np", "name": " \u0938\u0942\u091a\u0928\u093e \u0924\u0925\u093e \u0938\u091e\u094d\u091a\u093e\u0930 \u0935\u093f\u092d\u093e\u0917", "name:en": "Department of Management Informatics and Communication", "name:ne": " \u0938\u0942\u091a\u0928\u093e \u0924\u0925\u093e \u0938\u091e\u094d\u091a\u093e\u0930 \u0935\u093f\u092d\u093e\u0917", "website": "https://web.ku.edu.np/domic"}}, {"type": "node", "id": 4519068291, "lat": 27.6308657, "lon": 85.5268759, "tags": {"amenity": "school", "name": "\u0915\u093e\u092d\u094d\u0930\u0947 \u0909\u091a\u094d\u091a \u092e\u093e\u0927\u094d\u092f\u092e\u093f\u0915 \u0935\u093f\u0926\u094d\u092f\u093e\u0932\u092f (\u092c\u0928\u0947\u092a\u093e \u0936\u093e\u0916\u093e)", "name:en": "Kavre Higher Secondary School (Banepa Wing)", "name:ne": "\u0915\u093e\u092d\u094d\u0930\u0947 \u0909\u091a\u094d\u091a \u092e\u093e\u0927\u094d\u092f\u092e\u093f\u0915 \u0935\u093f\u0926\u094d\u092f\u093e\u0932\u092f (\u092c\u0928\u0947\u092a\u093e \u0936\u093e\u0916\u093e)"}}, {"type": "node", "id": 4533687792, "lat": 27.6323085, "lon": 85.5144574, "tags": {"amenity": "school", "name": "\u0930\u093e\u0937\u094d\u091f\u094d\u0930\u093f\u092f \u0938\u094d\u0935\u093e\u0938\u094d\u0925\u094d\u092f \u0938\u0902\u0938\u094d\u0925\u093e", "name:en": "National health foundation", "name:ne": "\u0930\u093e\u0937\u094d\u091f\u094d\u0930\u093f\u092f \u0938\u094d\u0935\u093e\u0938\u094d\u0925\u094d\u092f \u0938\u0902\u0938\u094d\u0925\u093e"}}, {"type": "node", "id": 4538317790, "lat": 27.6429374, "lon": 85.4834913, "tags": {"amenity": "school", "name": "\u0928\u0947\u092a\u093e\u0932 \u092a\u094d\u0930\u0939\u0930\u0940 \u0935\u093f\u0926\u094d\u092f\u093e\u0932\u092f", "name:en": "Nepal Police School", "name:ne": "\u0928\u0947\u092a\u093e\u0932 \u092a\u094d\u0930\u0939\u0930\u0940 \u0935\u093f\u0926\u094d\u092f\u093e\u0932\u092f"}}, {"type": "node", "id": 4566817689, "lat": 27.6390968, "lon": 85.5170305, "tags": {"addr:postcode": "45209", "addr:street": "Bhaktapur-Nala-Banepa road", "amenity": "school", "name": "\u092c\u0928\u0947\u092a\u093e \u0928\u093f\u0937\u094d\u091f \u0938\u094d\u0915\u0942\u0932/\u0915\u0932\u0947\u091c", "name:en": "Banepa NIST School/College", "name:ne": "\u092c\u0928\u0947\u092a\u093e \u0928\u093f\u0937\u094d\u091f \u0938\u094d\u0915\u0942\u0932/\u0915\u0932\u0947\u091c"}}, {"type": "node", "id": 4595611790, "lat": 27.6189173, "lon": 85.5380309, "tags": {"addr:housenumber": "12", "addr:street": "KU road", "amenity": "school", "name": "\u092b\u093e\u0930\u094d\u092e\u0947\u0938\u0940 \u0935\u093f\u092d\u093e\u0917", "name:en": "Department of Pharmacy", "name:ne": "\u092b\u093e\u0930\u094d\u092e\u0947\u0938\u0940 \u0935\u093f\u092d\u093e\u0917"}}, {"type": "node", "id": 4595626489, "lat": 27.6192952, "lon": 85.5393685, "tags": {"addr:street": "KU road", "amenity": "school", "name": "Biotechnology building"}}, {"type": "node", "id": 4639101589, "lat": 27.617463, "lon": 85.53895, "tags": {"addr:street": "KU road", "amenity": "school", "name": "\u092a\u0930\u0940\u0915\u094d\u0937\u093e \u0928\u093f\u092f\u0928\u094d\u0924\u094d\u0930\u0915\u0915\u094b \u0915\u093e\u0930\u094d\u092f\u093e\u0932\u092f", "name:en": "Office of Examination Controller", "name:ne": "\u092a\u0930\u0940\u0915\u094d\u0937\u093e \u0928\u093f\u092f\u0928\u094d\u0924\u094d\u0930\u0915\u0915\u094b \u0915\u093e\u0930\u094d\u092f\u093e\u0932\u092f"}}, {"type": "node", "id": 4646996393, "lat": 27.6352435, "lon": 85.523101, "tags": {"addr:housenumber": "005", "addr:street": "Rajdas Sadak", "amenity": "school", "name": "\u0928\u0947\u092a\u093e\u0932 \u092c\u0928\u0947\u092a\u093e \u092a\u094b\u0932\u093f\u091f\u0947\u0915\u094d\u0928\u093f\u0915 \u0907\u0928\u094d\u0938\u094d\u091f\u093f\u091a\u094d\u092f\u0941\u091f (\u0907\u0928\u094d\u091c\u093f\u0928\u093f\u092f\u0930\u093f\u0919 \u0915\u0932\u0947\u091c)", "name:en": "Nepal Banepa Polytechnic Institute (Engineering Collage)", "name:ne": "\u0928\u0947\u092a\u093e\u0932 \u092c\u0928\u0947\u092a\u093e \u092a\u094b\u0932\u093f\u091f\u0947\u0915\u094d\u0928\u093f\u0915 \u0907\u0928\u094d\u0938\u094d\u091f\u093f\u091a\u094d\u092f\u0941\u091f (\u0907\u0928\u094d\u091c\u093f\u0928\u093f\u092f\u0930\u093f\u0919 \u0915\u0932\u0947\u091c)", "opening_hours": "Mo-Sa 10:00-16:00", "website": "http://www.nbpi.edu.np"}}, {"type": "node", "id": 4803688223, "lat": 27.6247764, "lon": 85.5493382, "tags": {"addr:hamlet": "Cholamath-6", "amenity": "school", "name": "\u0936\u094d\u0930\u0940 \u092a\u091e\u094d\u091a\u0915\u0928\u094d\u092f\u093e \u092a\u094d\u0930\u093e\u0925\u092e\u093f\u0915 \u0935\u093f\u0926\u094d\u092f\u093e\u0932\u092f", "name:en": "Shri panchakanya primary school", "name:ne": "\u0936\u094d\u0930\u0940 \u092a\u091e\u094d\u091a\u0915\u0928\u094d\u092f\u093e \u092a\u094d\u0930\u093e\u0925\u092e\u093f\u0915 \u0935\u093f\u0926\u094d\u092f\u093e\u0932\u092f", "operator:type": "government"}}, {"type": "node", "id": 4804962824, "lat": 27.6140274, "lon": 85.5577064, "tags": {"addr:city": "Dhulikhel", "addr:housenumber": "07", "amenity": "school", "name": "\u0927\u0941\u0932\u093f\u0916\u0947\u0932 \u0939\u093e\u0908 \u0938\u094d\u0915\u0942\u0932", "name:en": "Dhulikhel High School", "name:ne": "\u0927\u0941\u0932\u093f\u0916\u0947\u0932 \u0939\u093e\u0908 \u0938\u094d\u0915\u0942\u0932"}}, {"type": "node", "id": 4806919624, "lat": 27.6254463, "lon": 85.5480237, "tags": {"amenity": "school", "name": "\u0939\u093f\u092e\u093e\u0932\u092f \u0905\u0928\u094d\u0924\u0930\u094d\u0930\u093e\u0937\u094d\u091f\u094d\u0930\u093f\u092f \u092c\u094b\u0930\u094d\u0921\u093f\u0902\u0917 \u0938\u094d\u0915\u0942\u0932", "name:en": "Himalayan international boarding school", "name:ne": "\u0939\u093f\u092e\u093e\u0932\u092f \u0905\u0928\u094d\u0924\u0930\u094d\u0930\u093e\u0937\u094d\u091f\u094d\u0930\u093f\u092f \u092c\u094b\u0930\u094d\u0921\u093f\u0902\u0917 \u0938\u094d\u0915\u0942\u0932"}}, {"type": "node", "id": 4881216921, "lat": 27.6135426, "lon": 85.5353265, "tags": {"addr:housenumber": "3", "addr:postcode": "012", "amenity": "school", "name": "\u0936\u094d\u0930\u0940\u0916\u0923\u094d\u0921\u092a\u0941\u0930 \u0939\u093e\u0908 \u0938\u094d\u0915\u0942\u0932", "name:en": "shrikhadpur high school", "name:ne": "\u0936\u094d\u0930\u0940\u0916\u0923\u094d\u0921\u092a\u0941\u0930 \u0939\u093e\u0908 \u0938\u094d\u0915\u0942\u0932", "opening_hours": "Su-Fr 09:00-16:00", "operator": "government", "phone": "011661312"}}, {"type": "node", "id": 4996463224, "lat": 27.6345043, "lon": 85.5225556, "tags": {"addr:hamlet": "Bholakhatole-2", "amenity": "school", "name": "\u092c\u0928\u0947\u092a\u093e \u092a\u094d\u0930\u093e\u0925\u092e\u093f\u0915 \u0935\u093f\u0926\u094d\u092f\u093e\u0932\u092f", "name:en": "Banepa Primary School", "name:ne": "\u092c\u0928\u0947\u092a\u093e \u092a\u094d\u0930\u093e\u0925\u092e\u093f\u0915 \u0935\u093f\u0926\u094d\u092f\u093e\u0932\u092f", "operator:type": "government"}}, {"type": "node", "id": 5002863299, "lat": 27.6274184, "lon": 85.5565303, "tags": {"addr:hamlet": "Nayabasti-6", "amenity": "school", "name": "\u0936\u094d\u0930\u0940 \u0915\u093e\u0932\u093f\u0926\u0947\u0935\u0940 \u092a\u094d\u0930\u093e\u0925\u092e\u093f\u0915 \u0935\u093f\u0926\u094d\u092f\u093e\u0932\u092f", "name:en": "Shri Kalidevi Primary School", "name:ne": "\u0936\u094d\u0930\u0940 \u0915\u093e\u0932\u093f\u0926\u0947\u0935\u0940 \u092a\u094d\u0930\u093e\u0925\u092e\u093f\u0915 \u0935\u093f\u0926\u094d\u092f\u093e\u0932\u092f", "operator:type": "government"}}, {"type": "node", "id": 5002876135, "lat": 27.6350964, "lon": 85.5481415, "tags": {"addr:hamlet": "Kuttal-6", "amenity": "school", "name": "\u0936\u094d\u0930\u0940 \u092e\u0923\u094d\u0921\u0932\u0940 \u0926\u0947\u0935\u0940 \u092a\u094d\u0930\u093e\u0925\u092e\u093f\u0915 \u0935\u093f\u0926\u094d\u092f\u093e\u0932\u092f", "name:en": "Shri Mandali Devi Primary School", "name:ne": "\u0936\u094d\u0930\u0940 \u092e\u0923\u094d\u0921\u0932\u0940 \u0926\u0947\u0935\u0940 \u092a\u094d\u0930\u093e\u0925\u092e\u093f\u0915 \u0935\u093f\u0926\u094d\u092f\u093e\u0932\u092f", "operator:type": "government"}}, {"type": "node", "id": 5002877114, "lat": 27.6188852, "lon": 85.5535289, "tags": {"addr:hamlet": "Watole-2", "amenity": "school", "name": "\u0936\u094d\u0930\u0940 \u0939\u0930\u093f \u0938\u093f\u0926\u094d\u0927\u093f \u0928\u093f\u092e\u094d\u0928 \u092e\u093e\u0927\u094d\u092f\u092e\u093f\u0915 \u0935\u093f\u0926\u094d\u092f\u093e\u0932\u092f", "name:en": "Shri Hari Siddhi Lower Secondary School", "name:ne": "\u0936\u094d\u0930\u0940 \u0939\u0930\u093f \u0938\u093f\u0926\u094d\u0927\u093f \u0928\u093f\u092e\u094d\u0928 \u092e\u093e\u0927\u094d\u092f\u092e\u093f\u0915 \u0935\u093f\u0926\u094d\u092f\u093e\u0932\u092f", "operator:type": "government"}}, {"type": "node", "id": 5002881389, "lat": 27.6160069, "lon": 85.5346566, "tags": {"addr:hamlet": "Srikhandapur-8", "amenity": "school", "name": "\u0936\u094d\u0930\u0940 \u0936\u094d\u0930\u0940\u0916\u0923\u094d\u0921\u092a\u0941\u0930 \u092a\u094d\u0930\u093e\u0925\u092e\u093f\u0915 \u0935\u093f\u0926\u094d\u092f\u093e\u0932\u092f", "name:en": "Shri Srikhandapur Primary School", "name:ne": "\u0936\u094d\u0930\u0940 \u0936\u094d\u0930\u0940\u0916\u0923\u094d\u0921\u092a\u0941\u0930 \u092a\u094d\u0930\u093e\u0925\u092e\u093f\u0915 \u0935\u093f\u0926\u094d\u092f\u093e\u0932\u092f", "operator:type": "government"}}, {"type": "node", "id": 5002894210, "lat": 27.6221163, "lon": 85.5380783, "tags": {"addr:hamlet": "Bakhundole-7", "amenity": "school", "name": "\u0936\u094d\u0930\u0940 \u0938\u0947\u0924\u0940\u0926\u0947\u0935\u0940 \u092a\u094d\u0930\u093e\u0925\u092e\u093f\u0915 \u0935\u093f\u0926\u094d\u092f\u093e\u0932\u092f", "name:en": "Shree Setidevi Primary School", "name:ne": "\u0936\u094d\u0930\u0940 \u0938\u0947\u0924\u0940\u0926\u0947\u0935\u0940 \u092a\u094d\u0930\u093e\u0925\u092e\u093f\u0915 \u0935\u093f\u0926\u094d\u092f\u093e\u0932\u092f", "operator:type": "government"}}, {"type": "node", "id": 5002899341, "lat": 27.6152573, "lon": 85.5611758, "tags": {"addr:hamlet": "Addabazar-2", "amenity": "school", "name": "\u0936\u094d\u0930\u0940 \u092c\u093e\u0932\u092e\u0928\u094d\u0926\u093f\u0930 \u0928\u093f\u092e\u094d\u0928 \u092e\u093e\u0927\u094d\u092f\u092e\u093f\u0915 \u0935\u093f\u0926\u094d\u092f\u093e\u0932\u092f", "name:en": "Shri Balmandir Lower Secondary School", "name:ne": "\u0936\u094d\u0930\u0940 \u092c\u093e\u0932\u092e\u0928\u094d\u0926\u093f\u0930 \u0928\u093f\u092e\u094d\u0928 \u092e\u093e\u0927\u094d\u092f\u092e\u093f\u0915 \u0935\u093f\u0926\u094d\u092f\u093e\u0932\u092f", "operator:type": "government"}}, {"type": "node", "id": 5002908883, "lat": 27.6068238, "lon": 85.5386889, "tags": {"addr:hamlet": "Shrikhandapur-8", "amenity": "school", "name": "\u0936\u094d\u0930\u0940 \u0936\u094d\u0930\u0940\u0916\u0923\u094d\u0921\u092a\u0941\u0930 \u0909\u091a\u094d\u091a \u092e\u093e\u0927\u094d\u092f\u092e\u093f\u0915 \u0935\u093f\u0926\u094d\u092f\u093e\u0932\u092f", "name:en": "Shri Shrikhandapur Higher Secondary School", "name:ne": "\u0936\u094d\u0930\u0940 \u0936\u094d\u0930\u0940\u0916\u0923\u094d\u0921\u092a\u0941\u0930 \u0909\u091a\u094d\u091a \u092e\u093e\u0927\u094d\u092f\u092e\u093f\u0915 \u0935\u093f\u0926\u094d\u092f\u093e\u0932\u092f", "operator:type": "government"}}, {"type": "node", "id": 5002913411, "lat": 27.6174872, "lon": 85.551725, "tags": {"addr:hamlet": "Chhochhetole-5", "amenity": "school", "name": "\u0936\u094d\u0930\u0940 \u092a\u0942\u0930\u094d\u0923 \u0938\u0902\u091c\u0940\u0935\u0928\u0940 \u0932\u0919\u094d\u0916\u093e\u0928\u092e\u093e\u0908 \u0909\u091a\u094d\u091a \u092e\u093e\u0927\u094d\u092f\u092e\u093f\u0915 \u0935\u093f\u0926\u094d\u092f\u093e\u0932\u092f", "name:en": "Shri Purna Sanjiwani Lankhanamai Higher Secondary School", "name:ne": "\u0936\u094d\u0930\u0940 \u092a\u0942\u0930\u094d\u0923 \u0938\u0902\u091c\u0940\u0935\u0928\u0940 \u0932\u0919\u094d\u0916\u093e\u0928\u092e\u093e\u0908 \u0909\u091a\u094d\u091a \u092e\u093e\u0927\u094d\u092f\u092e\u093f\u0915 \u0935\u093f\u0926\u094d\u092f\u093e\u0932\u092f", "operator:type": "government"}}, {"type": "node", "id": 5002915207, "lat": 27.6213443, "lon": 85.5557945, "tags": {"addr:hamlet": "Naya Gaun-6", "amenity": "school", "name": "\u0924\u093e\u0936\u0940 \u091b\u094d\u200d\u092f\u094b\u0932\u093f\u0919\u094d \u0917\u094b\u0928\u094d\u092a\u093e \u0935\u093f\u0926\u094d\u092f\u093e\u0932\u092f", "name:en": "Tashi Chhyoiling Gonpa School", "name:ne": "\u0924\u093e\u0936\u0940 \u091b\u094d\u200d\u092f\u094b\u0932\u093f\u0919\u094d \u0917\u094b\u0928\u094d\u092a\u093e \u0935\u093f\u0926\u094d\u092f\u093e\u0932\u092f", "operator:type": "government"}}, {"type": "node", "id": 5006640747, "lat": 27.602631, "lon": 85.5616877, "tags": {"addr:hamlet": "Ranachhap-3", "amenity": "school", "name": "\u0928\u0935 \u091c\u094d\u092f\u094b\u0924\u093f \u092a\u094d\u0930\u093e\u0925\u092e\u093f\u0915 \u0935\u093f\u0926\u094d\u092f\u093e\u0932\u092f", "name:en": "Nava Jyoti Primary School", "name:ne": "\u0928\u0935 \u091c\u094d\u092f\u094b\u0924\u093f \u092a\u094d\u0930\u093e\u0925\u092e\u093f\u0915 \u0935\u093f\u0926\u094d\u092f\u093e\u0932\u092f", "operator:type": "government"}}, {"type": "node", "id": 5009064866, "lat": 27.6097118, "lon": 85.494851, "tags": {"addr:hamlet": "Ganesh Sthan-5", "amenity": "school", "name": "\u092a\u091e\u094d\u091a\u0915\u0928\u094d\u092f\u093e \u092a\u094d\u0930\u093e \u0935\u0940", "name:en": "Panchakanya Pra Vi", "name:ne": "\u092a\u091e\u094d\u091a\u0915\u0928\u094d\u092f\u093e \u092a\u094d\u0930\u093e \u0935\u0940", "operator:type": "government"}}, {"type": "node", "id": 5009071795, "lat": 27.6104404, "lon": 85.4843551, "tags": {"addr:hamlet": "Baun Gaun-7", "amenity": "school", "name": "\u091a\u0928\u094d\u0926\u094d\u0930 \u091c\u094d\u092f\u094b\u0924\u093f \u092a\u094d\u0930\u093e \u092c\u093f", "name:en": "Chandra Jyoti Pra Vi", "name:ne": "\u091a\u0928\u094d\u0926\u094d\u0930 \u091c\u094d\u092f\u094b\u0924\u093f \u092a\u094d\u0930\u093e \u092c\u093f", "operator:type": "government"}}, {"type": "node", "id": 5009076786, "lat": 27.6149259, "lon": 85.4934159, "tags": {"addr:hamlet": "Bansdole-1", "amenity": "school", "name": "\u0917\u0923\u0947\u0936 \u092d\u093e\u0930\u0924\u0940 \u092e\u093e \u092c\u093f", "name:en": "Ganesh Bharati Ma Vi", "name:ne": "\u0917\u0923\u0947\u0936 \u092d\u093e\u0930\u0924\u0940 \u092e\u093e \u092c\u093f", "operator:type": "government"}}, {"type": "node", "id": 5009084129, "lat": 27.6234794, "lon": 85.4839576, "tags": {"addr:hamlet": "Naya Basti-1", "amenity": "school", "name": "\u092c\u093f\u0926\u094d\u092f\u093e \u091c\u094d\u092f\u094b\u0924\u093f \u092a\u094d\u0930\u093e. \u092c\u093f", "name:en": "Bidya Jyoti Pra Vi", "name:ne": "\u092c\u093f\u0926\u094d\u092f\u093e \u091c\u094d\u092f\u094b\u0924\u093f \u092a\u094d\u0930\u093e. \u092c\u093f", "operator:type": "government"}}, {"type": "node", "id": 5009300750, "lat": 27.6677507, "lon": 85.5277571, "tags": {"addr:hamlet": "Chunatal-7", "amenity": "school", "name": "Shree Arunodaya Pra V", "operator:type": "government"}}, {"type": "node", "id": 5009306164, "lat": 27.6571077, "lon": 85.5263913, "tags": {"addr:hamlet": "Tushal-6", "amenity": "school", "name": "Shri Subha Chamunda Ma V", "operator:type": "government"}}, {"type": "node", "id": 5009307580, "lat": 27.650354, "lon": 85.5357036, "tags": {"addr:hamlet": "Sumara-9", "amenity": "school", "name": "Pravat Pra Vi", "operator:type": "government"}}, {"type": "node", "id": 5009310567, "lat": 27.6654206, "lon": 85.5325686, "tags": {"addr:hamlet": "Kankre-8", "amenity": "school", "name": "Nanda Devi Pra V", "operator:type": "government"}}, {"type": "node", "id": 5009322662, "lat": 27.654469, "lon": 85.5413888, "tags": {"addr:hamlet": "Tan Chwok-9", "amenity": "school", "name": "Pema Chheilng Pra Vi", "operator:type": "government"}}, {"type": "node", "id": 5009326212, "lat": 27.6522554, "lon": 85.5100349, "tags": {"addr:hamlet": "Yapa Tole-1", "amenity": "school", "name": "Chandeshwari Uchha Ma V", "operator:type": "government"}}, {"type": "node", "id": 5009354968, "lat": 27.6325569, "lon": 85.4995604, "tags": {"addr:hamlet": "Bahundanda - 8", "amenity": "school", "name": "\u091c\u0928\u091c\u094d\u092f\u094b\u0924\u093f \u092e\u093e\u0927\u094d\u092f\u092e\u093f\u0915 \u0935\u093f\u0926\u094d\u092f\u093e\u0932\u092f", "name:en": "Janajyoti Secondary School", "name:ne": "\u091c\u0928\u091c\u094d\u092f\u094b\u0924\u093f \u092e\u093e\u0927\u094d\u092f\u092e\u093f\u0915 \u0935\u093f\u0926\u094d\u092f\u093e\u0932\u092f", "operator:type": "government"}}, {"type": "node", "id": 5009354969, "lat": 27.6094, "lon": 85.5081, "tags": {"addr:municipality": "panauti_municipality", "addr:province": "bagmati", "amenity": "school", "contact:phone": "Salle - 5", "name": "\u0938\u0941\u0928\u094d\u0926\u0930\u0940 \u092e\u093e\u0908 \u092a\u094d\u0930\u093e\u0925\u092e\u093f\u0915 \u0935\u093f\u0926\u094d\u092f\u093e\u0932\u092f", "name:en": "Shree Sundari Mai Primary School", "name:ne": "\u0938\u0941\u0928\u094d\u0926\u0930\u0940 \u092e\u093e\u0908 \u092a\u094d\u0930\u093e\u0925\u092e\u093f\u0915 \u0935\u093f\u0926\u094d\u092f\u093e\u0932\u092f", "operator:type": "government"}}, {"type": "node", "id": 5009354970, "lat": 27.6448975, "lon": 85.5069247, "tags": {"addr:hamlet": "Thapagaon - 2", "amenity": "school", "name": "\u0927\u0930\u094d\u092e \u091c\u094d\u092f\u094b\u0924\u093f \u092a\u094d\u0930\u093e\u0925\u092e\u093f\u0915 \u0935\u093f\u0926\u094d\u092f\u093e\u0932\u092f", "name:en": "Dharma Jyoti Primary School", "name:ne": "\u0927\u0930\u094d\u092e \u091c\u094d\u092f\u094b\u0924\u093f \u092a\u094d\u0930\u093e\u0925\u092e\u093f\u0915 \u0935\u093f\u0926\u094d\u092f\u093e\u0932\u092f", "operator:type": "government"}}, {"type": "node", "id": 5010788304, "lat": 27.6421216, "lon": 85.4813264, "tags": {"addr:hamlet": "Sanga-2", "addr:housenumber": "NASHIKASTHAN SANGA", "amenity": "school", "name": "\u0928\u0947\u092a\u093e\u0932 \u092a\u094d\u0930\u0939\u0930\u0940 \u0909\u091a\u094d\u091a \u092e\u093e\u0927\u094d\u092f\u092e\u093f\u0915 \u092c\u094b\u0930\u094d\u0921\u093f\u0919 \u0938\u094d\u0915\u0941\u0932", "name:en": "Nepal Police Higher Secondary Boarding School", "name:ne": "\u0928\u0947\u092a\u093e\u0932 \u092a\u094d\u0930\u0939\u0930\u0940 \u0909\u091a\u094d\u091a \u092e\u093e\u0927\u094d\u092f\u092e\u093f\u0915 \u092c\u094b\u0930\u094d\u0921\u093f\u0919 \u0938\u094d\u0915\u0941\u0932", "note": "ITS A POLICE SCHOOL", "office": "educational_institution", "operator:type": "government"}}, {"type": "node", "id": 5010821090, "lat": 27.6191927, "lon": 85.5234268, "tags": {"addr:hamlet": "Dhaneshwor-2", "addr:municipality": "panauti_municipality", "addr:province": "bagmati", "amenity": "school", "name": "\u0927\u0928\u0947\u0936\u094d\u0935\u0930 \u092e\u0939\u093e\u0926\u0947\u0935 \u092a\u094d\u0930\u093e. \u092c\u093f.", "name:en": "Shree Dhaneshwor Mahadev Basic School", "name:ne": "\u0927\u0928\u0947\u0936\u094d\u0935\u0930 \u092e\u0939\u093e\u0926\u0947\u0935 \u092a\u094d\u0930\u093e. \u092c\u093f.", "operator:type": "government"}}, {"type": "node", "id": 5013247222, "lat": 27.6432013, "lon": 85.5396347, "tags": {"addr:hamlet": "Opi-7", "amenity": "school", "name": "\u0936\u094d\u0930\u0940 \u0917\u0902\u0917\u093e\u0926\u0947\u0935\u0940 \u092e\u093e\u0927\u094d\u092f\u092e\u093f\u0915 \u0935\u093f\u0926\u094d\u092f\u093e\u0932\u092f", "name:en": "Shree Gangadevi Secondary School", "name:ne": "\u0936\u094d\u0930\u0940 \u0917\u0902\u0917\u093e\u0926\u0947\u0935\u0940 \u092e\u093e\u0927\u094d\u092f\u092e\u093f\u0915 \u0935\u093f\u0926\u094d\u092f\u093e\u0932\u092f", "operator:type": "government"}}, {"type": "node", "id": 5021304222, "lat": 27.6760522, "lon": 85.4993021, "tags": {"addr:hamlet": "Dulal Gaun-5", "amenity": "school", "name": "\u092e\u0939\u093e\u0928\u0915\u0932 \u092a\u094d\u0930\u093e\u0925\u092e\u093f\u0915 \u0935\u093f\u0926\u094d\u092f\u093e\u0932\u092f", "name:en": "Mahankal Primary School", "name:ne": "\u092e\u0939\u093e\u0928\u0915\u0932 \u092a\u094d\u0930\u093e\u0925\u092e\u093f\u0915 \u0935\u093f\u0926\u094d\u092f\u093e\u0932\u092f", "operator:type": "government"}}, {"type": "node", "id": 5021324844, "lat": 27.6572951, "lon": 85.4986276, "tags": {"addr:hamlet": "Tukucha-2", "amenity": "school", "name": "\u0936\u094d\u0930\u0940 \u0907\u0928\u094d\u0926\u094d\u0930 \u0936\u094b\u092d\u093e \u0926\u0947\u0935\u0940 \u0928\u093f\u092e\u094d\u0928 \u092e\u093e\u0927\u094d\u092f\u092e\u093f\u0915 \u0935\u093f\u0926\u094d\u092f\u093e\u0932\u092f", "name:en": "Shree Indra Shova Devi Lower Secondary School", "name:ne": "\u0936\u094d\u0930\u0940 \u0907\u0928\u094d\u0926\u094d\u0930 \u0936\u094b\u092d\u093e \u0926\u0947\u0935\u0940 \u0928\u093f\u092e\u094d\u0928 \u092e\u093e\u0927\u094d\u092f\u092e\u093f\u0915 \u0935\u093f\u0926\u094d\u092f\u093e\u0932\u092f", "operator:type": "government"}}, {"type": "node", "id": 5021336706, "lat": 27.6731607, "lon": 85.5164054, "tags": {"amenity": "school", "name": "Shree Ratna Chundeshwor Secondary School"}}, {"type": "node", "id": 5107724121, "lat": 27.6291691, "lon": 85.5192346, "tags": {"addr:street": "Punyamati Marga", "amenity": "school", "name": "\u0932\u093f\u0928 \u0905\u0928\u094d\u0924\u0930\u094d\u0930\u093e\u0937\u094d\u091f\u094d\u0930\u093f\u092f \u092c\u094b\u0930\u094d\u0921\u093f\u0919 \u0938\u094d\u0915\u0942\u0932", "name:en": "Lin International Boarding School", "name:ne": "\u0932\u093f\u0928 \u0905\u0928\u094d\u0924\u0930\u094d\u0930\u093e\u0937\u094d\u091f\u094d\u0930\u093f\u092f \u092c\u094b\u0930\u094d\u0921\u093f\u0919 \u0938\u094d\u0915\u0942\u0932", "opening_hours": "Sun- Fr 09:30-16:00", "phone": "11663778"}}, {"type": "node", "id": 5153025022, "lat": 27.6910272, "lon": 85.4908454, "tags": {"amenity": "school", "name": "\u0938\u0930\u0938\u094d\u0935\u0924\u0940 \u092e\u093e\u0927\u094d\u092f\u092e\u093f\u0915 \u0935\u093f\u0926\u094d\u092f\u093e\u0932\u092f", "name:en": "Saraswoti Secondary School", "name:ne": "\u0938\u0930\u0938\u094d\u0935\u0924\u0940 \u092e\u093e\u0927\u094d\u092f\u092e\u093f\u0915 \u0935\u093f\u0926\u094d\u092f\u093e\u0932\u092f"}}, {"type": "node", "id": 5227840224, "lat": 27.6153563, "lon": 85.5614079, "tags": {"amenity": "school", "name": "\u092c\u093e\u0932 \u092e\u0928\u094d\u0926\u093f\u0930 \u092c\u093f\u0927\u093e\u0932\u092f", "name:en": "\u092c\u093e\u0932 \u092e\u0928\u094d\u0926\u093f\u0930 \u092c\u093f\u0927\u093e\u0932\u092f", "name:ne": "\u092c\u093e\u0932 \u092e\u0928\u094d\u0926\u093f\u0930 \u092c\u093f\u0927\u093e\u0932\u092f"}}, {"type": "node", "id": 5479582621, "lat": 27.6788266, "lon": 85.477628, "tags": {"addr:housenumber": "11", "addr:postcode": "12345", "addr:street": "BHAKTAPUR NALA ROAD(GANESHMAN MARGA)", "amenity": "school", "name:en": "Aarakshan national school", "opening_hours": "Su-Fr 00:00-24:00", "phone": "9841243750"}}, {"type": "node", "id": 5479582622, "lat": 27.6787758, "lon": 85.4776936, "tags": {"addr:housenumber": "11", "addr:postcode": "1234", "addr:street": "sudal bus park", "amenity": "school", "name": "\u0906\u0930\u0915\u094d\u0937\u0923 \u0930\u093e\u0937\u094d\u091f\u094d\u0930\u093f\u092f \u0935\u093f\u0926\u094d\u092f\u093e\u0932\u092f", "name:en": "Aarakshan national school", "name:ne": "\u0906\u0930\u0915\u094d\u0937\u0923 \u0930\u093e\u0937\u094d\u091f\u094d\u0930\u093f\u092f \u0935\u093f\u0926\u094d\u092f\u093e\u0932\u092f", "opening_hours": "Su-Fr 00:00-24:00", "phone": "9841243750"}}, {"type": "node", "id": 5686531010, "lat": 27.6790884, "lon": 85.5142503, "tags": {"amenity": "school", "name": "Swet Baraha uchha ma vi"}}, {"type": "node", "id": 6516254698, "lat": 27.6304335, "lon": 85.5351033, "tags": {"amenity": "school", "email": "kabhresecondaryschool@gmail.com", "name": "\u0915\u093e\u092d\u094d\u0930\u0947 \u092e\u093e\u0927\u094d\u092f\u092e\u093f\u0915 \u0935\u093f\u0926\u094d\u092f\u093e\u0932\u092f", "name:en": "Kabhre Secondary School", "name:ne": "\u0915\u093e\u092d\u094d\u0930\u0947 \u092e\u093e\u0927\u094d\u092f\u092e\u093f\u0915 \u0935\u093f\u0926\u094d\u092f\u093e\u0932\u092f", "phone": "011662038"}}, {"type": "node", "id": 6894961885, "lat": 27.649556, "lon": 85.5348755, "tags": {"amenity": "school", "name": "\u092a\u094d\u0930\u092d\u093e\u0924 \u0906\u0927\u093e\u0930\u092d\u0942\u0924 \u0935\u093f\u0926\u094d\u092f\u093e\u0932\u092f", "name:en": "Pravat basic school", "name:ne": "\u092a\u094d\u0930\u092d\u093e\u0924 \u0906\u0927\u093e\u0930\u092d\u0942\u0924 \u0935\u093f\u0926\u094d\u092f\u093e\u0932\u092f", "opening_hours": "Su-Th 09:30-16:00; Fr 09:30-14:10"}}, {"type": "node", "id": 8353679017, "lat": 27.6572334, "lon": 85.4629083, "tags": {"addr:street": "Araniko Highway", "amenity": "school", "email": "deujagaunschool@gmail.com", "name": "\u0936\u094d\u0930\u0940 \u0926\u0947\u0909\u091c\u093e\u0917\u093e\u0909\u0901 \u0906\u0927\u093e\u0930\u092d\u0942\u0924 \u0935\u093f\u0926\u094d\u092f\u093e\u0932\u092f", "name:en": "Shri DeujaGaun Basic School", "name:ne": "\u0936\u094d\u0930\u0940 \u0926\u0947\u0909\u091c\u093e\u0917\u093e\u0909\u0901 \u0906\u0927\u093e\u0930\u092d\u0942\u0924 \u0935\u093f\u0926\u094d\u092f\u093e\u0932\u092f", "opening_hours": "Su-Fr 10:00-04:00", "phone": "984-1042535"}}, {"type": "node", "id": 9524047000, "lat": 27.6095225, "lon": 85.5375293, "tags": {"addr:municipality": "panauti_municipality", "addr:province": "bagmati", "amenity": "school", "name": "\u0936\u094d\u0930\u0940 \u0936\u0947\u0935\u0924 \u0917\u0923\u0947\u0936 \u0935\u093f\u0926\u094d\u092f\u093e\u0932\u092f", "name:en": "shree shewt ganesh school", "name:ne": "\u0936\u094d\u0930\u0940 \u0936\u0947\u0935\u0924 \u0917\u0923\u0947\u0936 \u0935\u093f\u0926\u094d\u092f\u093e\u0932\u092f"}}, {"type": "node", "id": 9524684234, "lat": 27.6154216, "lon": 85.5279149, "tags": {"addr:municipality": "panauti_municipality", "addr:province": "bagmati", "amenity": "school", "name": "\u090f\u0938\u0913\u090f\u0938 \u091a\u093f\u0932\u094d\u0921\u094d\u0930\u0947\u0928 ", "name:en": "SoS Children Village", "name:ne": "\u090f\u0938\u0913\u090f\u0938 \u091a\u093f\u0932\u094d\u0921\u094d\u0930\u0947\u0928 "}}, {"type": "node", "id": 9524684235, "lat": 27.6134024, "lon": 85.5285571, "tags": {"addr:municipality": "panauti_municipality", "addr:province": "bagmati", "amenity": "school", "name": "\u0938\u093e\u0928\u094d\u0924\u0932\u092e \u090f\u0915\u0947\u0921\u0947\u092e\u0940", "name:en": "Santalum Academy", "name:ne": "\u0938\u093e\u0928\u094d\u0924\u0932\u092e \u090f\u0915\u0947\u0921\u0947\u092e\u0940"}}, {"type": "node", "id": 9958642497, "lat": 27.6304897, "lon": 85.5284888, "tags": {"amenity": "school", "name": "\u0938\u092e\u0924\u093e \u0935\u093f\u0926\u094d\u092f\u093e\u0932\u092f", "name:en": "Samata school", "name:ne": "\u0938\u092e\u0924\u093e \u0935\u093f\u0926\u094d\u092f\u093e\u0932\u092f"}}, {"type": "node", "id": 9960904375, "lat": 27.6351916, "lon": 85.519966, "tags": {"amenity": "school", "name": "\u092c\u0939\u093f\u0930\u093e \u0935\u093f\u0926\u094d\u092f\u093e\u0932\u092f", "name:en": "Bahira school", "name:ne": "\u092c\u0939\u093f\u0930\u093e \u0935\u093f\u0926\u094d\u092f\u093e\u0932\u092f"}}, {"type": "node", "id": 9960918477, "lat": 27.6302234, "lon": 85.5198151, "tags": {"amenity": "school", "name": "\u0905\u0930\u094d\u0915\u093f\u0921 \u0938\u094d\u0915\u0941\u0932", "name:en": "Orchid school", "name:ne": "\u0905\u0930\u094d\u0915\u093f\u0921 \u0938\u094d\u0915\u0941\u0932"}}, {"type": "node", "id": 9960922137, "lat": 27.6351518, "lon": 85.5229788, "tags": {"amenity": "school"}}, {"type": "node", "id": 9960922607, "lat": 27.6361166, "lon": 85.5241442, "tags": {"amenity": "school", "name": "\u090f\u0928.\u092c\u0940.\u092a\u0940.\u0906\u0908. \u0936\u093f\u0915\u094d\u0937\u0923 \u092c\u094d\u0932\u0915 \u090f", "name:en": "NBPI teaching block A", "name:ne": "\u090f\u0928.\u092c\u0940.\u092a\u0940.\u0906\u0908. \u0936\u093f\u0915\u094d\u0937\u0923 \u092c\u094d\u0932\u0915 \u090f"}}, {"type": "node", "id": 9960932350, "lat": 27.63521, "lon": 85.5225979, "tags": {"amenity": "school"}}, {"type": "node", "id": 10229715394, "lat": 27.630332, "lon": 85.5429011, "tags": {"addr:street": "Gosaithan", "amenity": "school", "email": "nsgurukul@gmail.com", "name": "\u0936\u094d\u0930\u0940 \u0928\u0948\u092e\u093f\u0936\u0930\u0923\u094d\u092f \u0938\u0902\u0938\u094d\u0915\u0943\u0924 \u0917\u0941\u0930\u0941\u0915\u0941\u0932\u092e", "name:en": "Shree Naimisharanya Sanskrit Gurukulam", "name:ne": "\u0936\u094d\u0930\u0940 \u0928\u0948\u092e\u093f\u0936\u0930\u0923\u094d\u092f \u0938\u0902\u0938\u094d\u0915\u0943\u0924 \u0917\u0941\u0930\u0941\u0915\u0941\u0932\u092e", "phone": "011-491466"}}, {"type": "node", "id": 10229715395, "lat": 27.6137612, "lon": 85.4930218, "tags": {"addr:street": "Mahendrajyoti, Bashdol", "amenity": "school", "name": "\u0928\u093e\u0907\u091f\u093f\u0919\u094d\u0917\u0932 \u090f\u0915\u0947\u0921\u0947\u092e\u0940 \u0935\u093f\u0926\u094d\u092f\u093e\u0932\u092f", "name:en": "Nightingale Academy School", "name:ne": "\u0928\u093e\u0907\u091f\u093f\u0919\u094d\u0917\u0932 \u090f\u0915\u0947\u0921\u0947\u092e\u0940 \u0935\u093f\u0926\u094d\u092f\u093e\u0932\u092f"}}, {"type": "node", "id": 10229715396, "lat": 27.6688236, "lon": 85.5019459, "tags": {"addr:street": "Tukucha", "amenity": "school", "name": "Shree Sapneswor Secondary School"}}, {"type": "node", "id": 10229715397, "lat": 27.65642, "lon": 85.5169086, "tags": {"addr:street": "Shera", "amenity": "school", "name": "Lincoln International School"}}, {"type": "node", "id": 10229715398, "lat": 27.6527455, "lon": 85.5101027, "tags": {"addr:street": "Nala", "amenity": "school", "name": "Shree Chandeswari Secondary School"}}, {"type": "node", "id": 10229715399, "lat": 27.6410722, "lon": 85.4788485, "tags": {"addr:street": "Sanga", "amenity": "school", "name": "\u0917\u094d\u0930\u0947\u0938\u0932\u094d\u092f\u093e\u0923\u094d\u0921 \u0938\u094d\u0915\u0942\u0932", "name:en": "Graceland School", "name:ne": "\u0917\u094d\u0930\u0947\u0938\u0932\u094d\u092f\u093e\u0923\u094d\u0921 \u0938\u094d\u0915\u0942\u0932", "phone": "11662931"}}, {"type": "node", "id": 10229715400, "lat": 27.6406981, "lon": 85.4808025, "tags": {"addr:street": "Sanga", "amenity": "school", "name": "\u0938\u093e\u0919\u094d\u0917\u093e \u0905\u0902\u0917\u094d\u0930\u0947\u091c\u0940 \u092e\u093e\u0927\u094d\u092f\u092e\u093f\u0915 \u0935\u093f\u0926\u094d\u092f\u093e\u0932\u092f", "name:en": "Sanga English Medium Secondary School", "name:ne": "\u0938\u093e\u0919\u094d\u0917\u093e \u0905\u0902\u0917\u094d\u0930\u0947\u091c\u0940 \u092e\u093e\u0927\u094d\u092f\u092e\u093f\u0915 \u0935\u093f\u0926\u094d\u092f\u093e\u0932\u092f"}}, {"type": "node", "id": 10229715401, "lat": 27.6365677, "lon": 85.4897754, "tags": {"addr:street": "Bhaisipati", "amenity": "school", "name": "\u092c\u093f\u0915\u091f\u0947\u0936\u094d\u0935\u0930 \u0905\u0902\u0917\u094d\u0930\u0947\u091c\u0940 \u092e\u093e\u0927\u094d\u092f\u092e\u093f\u0915 \u0935\u093f\u0926\u094d\u092f\u093e\u0932\u092f", "name:en": "Bikateshwor English Secondary School", "name:ne": "\u092c\u093f\u0915\u091f\u0947\u0936\u094d\u0935\u0930 \u0905\u0902\u0917\u094d\u0930\u0947\u091c\u0940 \u092e\u093e\u0927\u094d\u092f\u092e\u093f\u0915 \u0935\u093f\u0926\u094d\u092f\u093e\u0932\u092f"}}, {"type": "node", "id": 10229715402, "lat": 27.6317242, "lon": 85.5063763, "tags": {"addr:street": "Janagal", "amenity": "school", "name": "\u0928\u093e\u0907\u091f\u093f\u0919\u094d\u0917\u0932 \u090f\u0915\u0947\u0921\u0947\u092e\u0940", "name:en": "Nightingale Academy", "name:ne": "\u0928\u093e\u0907\u091f\u093f\u0919\u094d\u0917\u0932 \u090f\u0915\u0947\u0921\u0947\u092e\u0940", "phone": "11661771"}}, {"type": "node", "id": 10229715403, "lat": 27.6233834, "lon": 85.519966, "tags": {"amenity": "school", "name": "\u0906\u0926\u0930\u094d\u0936 \u0935\u093f\u0926\u094d\u092f\u093e \u092e\u0928\u094d\u0926\u093f\u0930 (\u090f\u092c\u0940\u090f\u092e) \u0935\u093f\u0926\u094d\u092f\u093e\u0932\u092f", "name:en": "Aadhrasha Vidhya Mandir (Abm) School", "name:ne": "\u0906\u0926\u0930\u094d\u0936 \u0935\u093f\u0926\u094d\u092f\u093e \u092e\u0928\u094d\u0926\u093f\u0930 (\u090f\u092c\u0940\u090f\u092e) \u0935\u093f\u0926\u094d\u092f\u093e\u0932\u092f"}}, {"type": "node", "id": 10229715404, "lat": 27.6323118, "lon": 85.50241, "tags": {"addr:street": "Janagal", "amenity": "school", "name": "\u092c\u0928\u0947\u092a\u093e \u092e\u094b\u091f\u0930 \u0921\u094d\u0930\u093e\u0907\u092d\u093f\u0919 \u0907\u0928\u094d\u0938\u094d\u091f\u093f\u091a\u094d\u092f\u0941\u091f \u092a\u094d\u0930\u093e. \u0932\u093f.", "name:en": "Banepa Motor Driving Institute Pvt. Ltd.", "name:ne": "\u092c\u0928\u0947\u092a\u093e \u092e\u094b\u091f\u0930 \u0921\u094d\u0930\u093e\u0907\u092d\u093f\u0919 \u0907\u0928\u094d\u0938\u094d\u091f\u093f\u091a\u094d\u092f\u0941\u091f \u092a\u094d\u0930\u093e. \u0932\u093f."}}, {"type": "node", "id": 10229715405, "lat": 27.636923, "lon": 85.5131256, "tags": {"addr:street": "Reshma Marg", "amenity": "school", "name": "\u0928\u092f\u093e\u0901 \u092e\u094b\u0921\u0947\u0932 \u090f\u0915\u0947\u0921\u0947\u092e\u0940", "name:en": "New Model Academy", "name:ne": "\u0928\u092f\u093e\u0901 \u092e\u094b\u0921\u0947\u0932 \u090f\u0915\u0947\u0921\u0947\u092e\u0940", "phone": "011-665291"}}, {"type": "node", "id": 10229715406, "lat": 27.6322398, "lon": 85.5184738, "tags": {"amenity": "school", "name": "\u0935\u093e\u0932 \u0935\u093e\u091f\u093f\u0915\u093e \u0935\u093f\u0926\u094d\u092f\u093e \u092e\u0928\u094d\u0926\u093f\u0930 \u092e\u093e\u0927\u094d\u092f\u092e\u093f\u0915 \u0935\u093f\u0926\u094d\u092f\u093e\u0932\u092f", "name:en": "Val Vatika Vidhya Mandir Secondary School", "name:ne": "\u0935\u093e\u0932 \u0935\u093e\u091f\u093f\u0915\u093e \u0935\u093f\u0926\u094d\u092f\u093e \u092e\u0928\u094d\u0926\u093f\u0930 \u092e\u093e\u0927\u094d\u092f\u092e\u093f\u0915 \u0935\u093f\u0926\u094d\u092f\u093e\u0932\u092f", "phone": "011-661262"}}, {"type": "node", "id": 10229715407, "lat": 27.6324499, "lon": 85.5204269, "tags": {"amenity": "school", "name": "\u091a\u0948\u0924\u0928\u094d\u092f \u092e\u093e\u0927\u094d\u092f\u092e\u093f\u0915 \u0935\u093f\u0926\u094d\u092f\u093e\u0932\u092f", "name:en": "Chaitanya Secondary School", "name:ne": "\u091a\u0948\u0924\u0928\u094d\u092f \u092e\u093e\u0927\u094d\u092f\u092e\u093f\u0915 \u0935\u093f\u0926\u094d\u092f\u093e\u0932\u092f", "phone": "011-661209"}}, {"type": "node", "id": 10229715408, "lat": 27.6325775, "lon": 85.4965484, "tags": {"addr:street": "Bhaisipati", "amenity": "school", "name": "\u0936\u094d\u0930\u0940\u0938\u0941\u0919\u094d\u0917\u093e\u0935\u093e \u092e\u093e\u0927\u094d\u092f\u092e\u093f\u0915 \u0935\u093f\u0926\u094d\u092f\u093e\u0932\u092f", "name:en": "Shreesungava Secondary Boarding School", "name:ne": "\u0936\u094d\u0930\u0940\u0938\u0941\u0919\u094d\u0917\u093e\u0935\u093e \u092e\u093e\u0927\u094d\u092f\u092e\u093f\u0915 \u0935\u093f\u0926\u094d\u092f\u093e\u0932\u092f"}}, {"type": "node", "id": 10229715409, "lat": 27.6321323, "lon": 85.5112708, "tags": {"addr:street": "Pulbazzar", "amenity": "school", "name": "\u092f\u0941\u0930\u094b\u0915\u093f\u0921\u094d\u0938 \u092a\u094d\u0930\u093f-\u0938\u094d\u0915\u0942\u0932", "name:en": "Eurokids Pre-School", "name:ne": "\u092f\u0941\u0930\u094b\u0915\u093f\u0921\u094d\u0938 \u092a\u094d\u0930\u093f-\u0938\u094d\u0915\u0942\u0932", "phone": "11663282"}}, {"type": "node", "id": 10229715410, "lat": 27.6315526, "lon": 85.516254, "tags": {"addr:street": "Pulbazar", "amenity": "school", "name": "Paradise Training And Driving Centre"}}, {"type": "node", "id": 10229715411, "lat": 27.6353218, "lon": 85.520181, "tags": {"addr:street": "Budda Bihar", "amenity": "school", "name": "\u0915\u093e\u092d\u094d\u0930\u0947 \u092c\u0939\u093f\u0930\u093e \u0935\u093f\u0926\u094d\u092f\u093e\u0932\u092f", "name:en": "Kavre Deaf School", "name:ne": "\u0915\u093e\u092d\u094d\u0930\u0947 \u092c\u0939\u093f\u0930\u093e \u0935\u093f\u0926\u094d\u092f\u093e\u0932\u092f"}}, {"type": "node", "id": 10229715412, "lat": 27.61841, "lon": 85.4604606, "tags": {"addr:street": "Aashapuri", "amenity": "school", "name": "Shree Jagriti Basic School", "opening_hours": "Su-Fr 09:00-16:00"}}, {"type": "node", "id": 10229715413, "lat": 27.6362313, "lon": 85.5302316, "tags": {"amenity": "school", "name": "\u0915\u094d\u0930\u094d\u092f\u093e\u0921\u0932 \u0915\u093f\u0921\u094d\u0938 \u0915\u0947\u092f\u0930 \u0930 \u092a\u094d\u0930\u093f-\u0938\u094d\u0915\u0942\u0932", "name:en": "Craddle Kids Care And Pre-School", "name:ne": "\u0915\u094d\u0930\u094d\u092f\u093e\u0921\u0932 \u0915\u093f\u0921\u094d\u0938 \u0915\u0947\u092f\u0930 \u0930 \u092a\u094d\u0930\u093f-\u0938\u094d\u0915\u0942\u0932", "opening_hours": "Su-Fr 09:30-15:00", "phone": "661297"}}, {"type": "node", "id": 10229715414, "lat": 27.6335729, "lon": 85.516875, "tags": {"addr:street": "Pulbazar", "amenity": "school", "name": "\u092c\u0940. \u090f\u092e. \u0915\u0947. \u0921\u094d\u0930\u093e\u0907\u092d\u093f\u0919 \u0938\u094d\u0915\u0941\u0932", "name:en": "B.M.K. Driving School", "name:ne": "\u092c\u0940. \u090f\u092e. \u0915\u0947. \u0921\u094d\u0930\u093e\u0907\u092d\u093f\u0919 \u0938\u094d\u0915\u0941\u0932", "opening_hours": "Su-Fr 06:00-18:00", "phone": "9843567834"}}, {"type": "node", "id": 10229715415, "lat": 27.6295411, "lon": 85.5206193, "tags": {"addr:street": "Buspark", "amenity": "school", "name": "\u0930\u093e\u092e\u092d\u0915\u094d\u0924 \u0938\u094d\u092e\u093e\u0930\u0915 \u0935\u093f\u0926\u094d\u092f\u093e\u0932\u092f", "name:en": "Ram Bhakta Memorial School", "name:ne": "\u0930\u093e\u092e\u092d\u0915\u094d\u0924 \u0938\u094d\u092e\u093e\u0930\u0915 \u0935\u093f\u0926\u094d\u092f\u093e\u0932\u092f", "opening_hours": "Su-Fr 10:00-17:00", "phone": "11661512"}}, {"type": "node", "id": 10229715416, "lat": 27.6311309, "lon": 85.5220229, "tags": {"amenity": "school", "name": "\u0936\u094d\u0930\u0940 \u0938\u0930\u0938\u094d\u0935\u0924\u0940 \u092a\u094d\u0930\u093e\u0925\u092e\u093f\u0915 \u0935\u093f\u0926\u094d\u092f\u093e\u0932\u092f", "name:en": "Shree Saraswoti Elementary School", "name:ne": "\u0936\u094d\u0930\u0940 \u0938\u0930\u0938\u094d\u0935\u0924\u0940 \u092a\u094d\u0930\u093e\u0925\u092e\u093f\u0915 \u0935\u093f\u0926\u094d\u092f\u093e\u0932\u092f", "opening_hours": "Su-Fr 10:00-17:00"}}, {"type": "node", "id": 10230034817, "lat": 27.6339643, "lon": 85.5189405, "tags": {"amenity": "school", "name": "\u0936\u093f\u0915\u094d\u0937\u093e \u0938\u0926\u0928 \u092e\u093e\u0927\u094d\u092f\u092e\u093f\u0915 \u0935\u093f\u0926\u094d\u092f\u093e\u0932\u092f", "name:en": "Siksha Sadan Secondary School", "name:ne": "\u0936\u093f\u0915\u094d\u0937\u093e \u0938\u0926\u0928 \u092e\u093e\u0927\u094d\u092f\u092e\u093f\u0915 \u0935\u093f\u0926\u094d\u092f\u093e\u0932\u092f", "opening_hours": "Su-Fr 10:00-16:00"}}, {"type": "node", "id": 10230034818, "lat": 27.6299861, "lon": 85.5178126, "tags": {"amenity": "school", "name": "\u091c\u094d\u092f\u094b\u0924\u093f \u090f\u0915\u0947\u0921\u0947\u092e\u0940 \u0905\u0902\u0917\u094d\u0930\u0947\u091c\u0940 \u092e\u093e\u0927\u094d\u092f\u092e\u093f\u0915 \u0935\u093f\u0926\u094d\u092f\u093e\u0932\u092f", "name:en": "Jyoti Academy English Secondary School", "name:ne": "\u091c\u094d\u092f\u094b\u0924\u093f \u090f\u0915\u0947\u0921\u0947\u092e\u0940 \u0905\u0902\u0917\u094d\u0930\u0947\u091c\u0940 \u092e\u093e\u0927\u094d\u092f\u092e\u093f\u0915 \u0935\u093f\u0926\u094d\u092f\u093e\u0932\u092f", "opening_hours": "Su-Fr 10:00-16:00", "phone": "11665317"}}, {"type": "node", "id": 10230034819, "lat": 27.6341547, "lon": 85.5228774, "tags": {"addr:street": "Bholakha Tole", "amenity": "school", "name": "\u092c\u0928\u0947\u092a\u093e \u092a\u094d\u0930\u093e\u0925\u092e\u093f\u0915 \u0935\u093f\u0926\u094d\u092f\u093e\u0932\u092f", "name:en": "Banepa Elementary School", "name:ne": "\u092c\u0928\u0947\u092a\u093e \u092a\u094d\u0930\u093e\u0925\u092e\u093f\u0915 \u0935\u093f\u0926\u094d\u092f\u093e\u0932\u092f", "opening_hours": "Su-Fr 10:00-16:00", "phone": "11665471"}}, {"type": "node", "id": 10230034820, "lat": 27.6328518, "lon": 85.5242702, "tags": {"amenity": "school", "name": "\u091c\u094d\u091e\u093e\u0928 \u0938\u0930\u094b\u0935\u0930 \u0905\u0902\u0917\u094d\u0930\u0947\u091c\u0940 \u092e\u093e\u0927\u094d\u092f\u092e\u093f\u0915 \u0935\u093f\u0926\u094d\u092f\u093e\u0932\u092f", "name:en": "Gyan Sarovar English Secondary School", "name:ne": "\u091c\u094d\u091e\u093e\u0928 \u0938\u0930\u094b\u0935\u0930 \u0905\u0902\u0917\u094d\u0930\u0947\u091c\u0940 \u092e\u093e\u0927\u094d\u092f\u092e\u093f\u0915 \u0935\u093f\u0926\u094d\u092f\u093e\u0932\u092f", "opening_hours": "Su-Fr 10:00-16:00", "phone": "11662041"}}, {"type": "node", "id": 10230034821, "lat": 27.6345968, "lon": 85.5274493, "tags": {"addr:street": "\u0918\u094b\u0915\u0947\u091a\u0939\u093e\u0941\u0930", "amenity": "school", "name": "\u0939\u093f\u092e\u093e\u0932\u092f \u092e\u093e\u0927\u094d\u092f\u092e\u093f\u0915 \u0935\u093f\u0926\u094d\u092f\u093e\u0932\u092f", "name:en": "Himalaya Secondary School", "name:ne": "\u0939\u093f\u092e\u093e\u0932\u092f \u092e\u093e\u0927\u094d\u092f\u092e\u093f\u0915 \u0935\u093f\u0926\u094d\u092f\u093e\u0932\u092f", "opening_hours": "Su-Fr 10:00-16:00"}}, {"type": "node", "id": 10230034822, "lat": 27.6364489, "lon": 85.4896466, "tags": {"addr:street": "Bhasiparty", "amenity": "school", "name": "\u092c\u093f\u0915\u091f\u0947\u0936\u094d\u0935\u0930 \u0905\u0902\u0917\u094d\u0930\u0947\u091c\u0940 \u092e\u093e\u0927\u094d\u092f\u092e\u093f\u0915 \u0935\u093f\u0926\u094d\u092f\u093e\u0932\u092f", "name:en": "Bikateshwor English Secondary School", "name:ne": "\u092c\u093f\u0915\u091f\u0947\u0936\u094d\u0935\u0930 \u0905\u0902\u0917\u094d\u0930\u0947\u091c\u0940 \u092e\u093e\u0927\u094d\u092f\u092e\u093f\u0915 \u0935\u093f\u0926\u094d\u092f\u093e\u0932\u092f", "opening_hours": "Su-Fr 10:00-16:00", "phone": "11660975"}}, {"type": "way", "id": 172099678, "nodes": [1830382009, 1830382020, 1830382015, 1830382007, 9612370379, 1830382011, 9612370373, 1830382017, 1830382018, 1830382013, 1830382009], "tags": {"amenity": "school", "building": "yes", "building:levels": "3", "name": "Training Block"}}, {"type": "way", "id": 172477725, "nodes": [1833840673, 1833840652, 3491459592, 1833840679, 9960918473, 1833840687, 1833840729, 1833840789, 1833840806, 2852479348, 2852479349, 1833840756, 9826025028, 1833840673], "tags": {"addr:hamlet": "Chaklakiwa-2", "amenity": "school", "name": "Aazad School", "operator:type": "government"}}, {"type": "way", "id": 172477733, "nodes": [1833839537, 1833839548, 9994915116, 9994915101, 9994915115, 1833839555, 1833839545, 3043771713, 1833839534, 1833839531, 1833839525, 2211134174, 1833839521, 1833839516, 1833839513, 1833839509, 1833839505, 1833839504, 1833839486, 1833839482, 1833839502, 1833839526, 10029707175, 1833839530, 1833839537], "tags": {"amenity": "school", "name": "Baylor International Academy", "opening_hours": "Su- Fr 09:30-16:00", "phone": "11660675"}}, {"type": "way", "id": 172477735, "nodes": [1833839408, 2388166412, 2388166387, 3516111977, 3491913400, 1783174276, 8505624629, 8505624628, 3491913447, 3491913476, 1783174267, 2388166449, 2388166392, 1833839408], "tags": {"addr:hamlet": "Budol-11", "amenity": "school", "name": "Bhakteshor School", "operator:type": "government"}}, {"type": "way", "id": 172477830, "nodes": [1752648277, 2388206361, 2837408599, 1752648282, 2388206298, 2388206329, 2388206280, 1752648286, 1752648281, 1752648280, 2388206317, 1752648276, 8517780352, 2388206333, 2837419746, 2388206339, 2388206353, 1752648285, 1833837591, 1752648279, 1752648278, 1752648277], "tags": {"amenity": "school", "name": "SOS Herman Village School"}}, {"type": "way", "id": 189984534, "nodes": [2005923179, 2005923181, 2005923180, 2005923178, 2005923176, 2005923177, 2005923175, 2005923174, 2005923170, 2005923171, 2005923172, 2005923173, 2005923169, 2005923166, 2005923168, 2005923167, 2005923179], "tags": {"amenity": "school", "building": "school", "name": "Santalum Album H.S. School"}}, {"type": "way", "id": 194900836, "nodes": [2054102719, 2054102734, 2054102726, 2054102751, 2054102708, 2054102698, 2054102712, 2054102682, 2054102685, 2054102680, 2054102687, 2054102717, 2054102716, 2054102730, 2054102737, 2054102692, 2054102719], "tags": {"addr:hamlet": "Dhulikhel-7", "addr:housenumber": "08", "addr:street": "KU road", "amenity": "school", "building": "yes", "building:levels": "6", "name": "Inge Johanshon Engineering Block", "operator": "Kathmandu University", "operator:type": "community"}}, {"type": "way", "id": 194900838, "nodes": [2054102701, 2054102704, 2054102689, 2054102742, 2055383897, 2055383906, 2055383902, 2055383911, 2055383913, 2055383917, 2055383915, 2055383920, 2055383922, 2055383923, 2054102729, 2054102750, 2054102701], "tags": {"addr:hamlet": "Dhulikhel-7", "amenity": "school", "building": "yes", "name": "UMN Science Block", "operator": "Kathmandu University", "operator:type": "community"}}, {"type": "way", "id": 209362831, "nodes": [10087194283, 10087194282, 2195843433, 2195843466, 10087194283], "tags": {"amenity": "school", "building": "yes", "building:levels": "0", "name": "Aadarsha Vidya Mandir School", "roof:material": "tin", "roof:shape": "flat"}}, {"type": "way", "id": 209363402, "nodes": [2195843733, 9990711437, 2195843693, 2195843669, 2195843671, 2195843717, 2195843756, 2195843887, 2195843826, 2195843733], "tags": {"CONS_TYPE": "RCC", "amenity": "school", "building": "school", "building:levels": "3", "building:use": "Mixed", "green_roof": "yes", "name": "Bagmati English Secondary School", "roof:material": "concrete", "roof:shape": "mixed"}}, {"type": "way", "id": 209363478, "nodes": [3507394317, 10086708062, 10086708063, 2195843959, 2195843961, 10086708064, 2195844001, 2195843965, 2195843967, 10086708060, 10086708061, 2195844053, 3507394317], "tags": {"CONS_TYPE": "RCC", "addr:hamlet": "Swaghatole-8", "amenity": "school", "building": "school", "building:levels": "2", "building:use": "educational", "name": "Sawaswoti Lower Secondary School", "operator:type": "government", "roof:material": "tin", "roof:shape": "mixed"}}, {"type": "way", "id": 211108674, "nodes": [2211146605, 2211146606, 2211146608, 2211146607, 2211146605], "tags": {"amenity": "school", "building": "yes", "name": "Gyan Jyoti English Secondary School", "opening_hours": "Su- Fr 09:30-16:00", "phone": "11664417", "roof:material": "tin", "roof:shape": "flat"}}, {"type": "way", "id": 214215288, "nodes": [2238023108, 2238023106, 2238023093, 2238023098, 9929055352, 9929055351, 9929055350, 2238023101, 2238023104, 2238023108], "tags": {"amenity": "school", "name": "Nightingale Higher Secondary School", "roof:material": "concrete", "roof:shape": "flat"}}, {"type": "way", "id": 219636522, "nodes": [2287809603, 2287809584, 2287809581, 2287809570, 2287809568, 2287809566, 5010603221, 2287809574, 2287809593, 2287809601, 2287809603], "tags": {"addr:hamlet": "Ashapureshwore-7", "amenity": "school", "building_count": "3", "isced:level": "lower_secondary", "name": "Jagriti Lower Secondary School", "operator:type": "government", "personnel:count": "10", "source": "OpenDRI survey", "student:count": "130"}}, {"type": "way", "id": 219636527, "nodes": [2287809695, 2287809678, 2287809683, 2287809685, 2287809709, 2287809713, 2287809702, 2287809707, 2287809695], "tags": {"amenity": "school", "building_count": "3", "isced:level": "primary", "name": "Bal Ganesh English School", "operator:type": "private", "personnel:count": "13", "source": "OpenDRI survey", "student:count": "160"}}, {"type": "way", "id": 219639034, "nodes": [2287839075, 2287839069, 2287839072, 2287839080, 2287839078, 2287839075], "tags": {"amenity": "school", "building_count": "1", "isced:level": "primary", "name": "Pancha Kanya School", "oid": "1", "operator:type": "government", "personnel:count": "6", "source": "OpenDRI survey", "student:count": "47"}}, {"type": "way", "id": 220559555, "nodes": [2296694388, 2296694378, 2296694381, 2296694377, 2296694382, 2296694391, 2296694390, 2296694388], "tags": {"amenity": "school", "building_count": "2", "isced:level": "primary", "name": "Dashinkali Primary School", "operator:type": "government", "personnel:count": "2", "source": "OpenDRI survey", "student:count": "4"}}, {"type": "way", "id": 220559556, "nodes": [2296694321, 2296694308, 2296694316, 2296694311, 2296694320, 2296694318, 2296694326, 2296694335, 2296694338, 2296694347, 2296694351, 2296694353, 2296694355, 2296694349, 2296694343, 2296694321], "tags": {"amenity": "school", "building_count": "6", "isced:level": "higher_secondary", "name": "Devi Higher Secondary School", "operator:type": "government", "personnel:count": "60", "source": "OpenDRI survey", "student:count": "900"}}, {"type": "way", "id": 220559557, "nodes": [2296694375, 2296694373, 2296694370, 2296694363, 2296694358, 2296694357, 2296694356, 2296694359, 2296694376, 2296694375], "tags": {"amenity": "school", "building_count": "3", "isced:level": "others", "name": "Tathali Children Home", "operator:type": "private", "personnel:count": "17", "source": "OpenDRI survey", "student:count": "47"}}, {"type": "way", "id": 220560203, "nodes": [2296699446, 2296699436, 2296699434, 2296699430, 2296699423, 2296699428, 3491394156, 3491394159, 2296699446], "tags": {"amenity": "school", "building_count": "1", "isced:level": "lower_secondary", "name": "Roshan English School", "operator:type": "private", "personnel:count": "25", "source": "OpenDRI survey", "student:count": "250"}}, {"type": "way", "id": 220561961, "nodes": [2296716764, 2296716761, 2296716758, 2296716744, 2296716750, 2296716764], "tags": {"amenity": "school", "building_count": "4", "isced:level": "primary", "name": "Thuli Brahmayani Primary School", "operator:type": "government", "personnel:count": "9", "source": "OpenDRI survey", "student:count": "65"}}, {"type": "way", "id": 220561962, "nodes": [2296716795, 2296716791, 2296716788, 2296716787, 2296716790, 2296716795], "tags": {"amenity": "school", "building_count": "1", "isced:level": "primary", "name": "Himbhanu English Boarding School", "operator:type": "private", "personnel:count": "14", "source": "OpenDRI survey", "student:count": "160"}}, {"type": "way", "id": 220561963, "nodes": [2296716782, 2296716786, 2296716785, 2296716765, 2296716769, 2296716771, 2296716775, 2296716782], "tags": {"amenity": "school", "building_count": "3", "isced:level": "higher_secondary", "name": "Shree Mahendra Higher Secondary School", "operator:type": "government", "personnel:count": "25", "source": "OpenDRI survey", "student:count": "260"}}, {"type": "way", "id": 220564421, "nodes": [2296738708, 2296738655, 2296738645, 2296738646, 2296738706, 2296738688, 2296738714, 2296738708], "tags": {"amenity": "school", "building_count": "3", "isced:level": "primary", "name": "Friendship Academy School", "operator:type": "private", "personnel:count": "12", "source": "OpenDRI survey", "student:count": "85"}}, {"type": "way", "id": 220564422, "nodes": [2296738622, 2296738612, 2296738614, 2296738634, 2296738640, 2296738633, 2296738639, 2296738638, 2296738622], "tags": {"amenity": "school", "building_count": "5", "isced:level": "secondary", "name": "Shree Panchyakanya Secondary School", "operator:type": "government", "personnel:count": "19", "source": "OpenDRI survey", "student:count": "290"}}, {"type": "way", "id": 220564423, "nodes": [2296738684, 2296738647, 2296738650, 2296738704, 2296738698, 2296738668, 2296738666, 2296738696, 2296738694, 2296738686, 2296738684], "tags": {"amenity": "school", "building_count": "3", "isced:level": "primary", "name": "Shree Krishna Primary School", "operator:type": "government", "personnel:count": "5", "source": "OpenDRI survey", "student:count": "15"}}, {"type": "way", "id": 221201560, "nodes": [2302563699, 2302563700, 2302563701, 2302563716, 2302563710, 2302563702, 2302563699], "tags": {"amenity": "school", "building_count": "1", "isced:level": "primary", "name": "Shanti Deep Adarsha Vidyasadan", "operator:type": "private", "personnel:count": "6", "source": "OpenDRI survey", "student:count": "75"}}, {"type": "way", "id": 221201885, "nodes": [3396105762, 1670641924, 3491125406, 1670641930, 3491125416, 2302566724, 2302566731, 2302566730, 2302566721, 3396105762], "tags": {"amenity": "school", "building_count": "3", "isced:level": "lower_secondary", "name": "Shree Balmiki Lower Secondary School", "operator:type": "government", "personnel:count": "9", "source": "OpenDRI survey", "student:count": "100"}}, {"type": "way", "id": 221296523, "nodes": [2303329466, 2303329521, 2303329572, 2303329560, 2303329466], "tags": {"amenity": "school", "building_count": "1", "isced:level": "higher_secondary", "name": "Saraswoti Higher Secondary school", "operator:type": "government", "personnel:count": "28", "source": "OpenDRI survey", "student:count": "280"}}, {"type": "way", "id": 221349062, "nodes": [2303782030, 2303782024, 2303782025, 2303782035, 2303782030], "tags": {"amenity": "school", "building_count": "1", "isced:level": "primary", "name": "Deep Jyoti Primary School", "operator:type": "private", "personnel:count": "12", "source": "OpenDRI survey", "student:count": "146"}}, {"type": "way", "id": 221349064, "nodes": [2303782051, 2303782039, 2303782029, 2303782054, 2303782051], "tags": {"amenity": "school", "building_count": "2", "isced:level": "primary", "name": "Say Bangal Primary School", "operator:type": "government", "personnel:count": "4", "source": "OpenDRI survey", "student:count": "5"}}, {"type": "way", "id": 226278232, "nodes": [2351321596, 2351321586, 2351321584, 2351321590, 2351321594, 2351321596], "tags": {"amenity": "school", "building_count": "2", "isced:level": "secondary", "name": "Global Academy", "operator:type": "private", "personnel:count": "17", "source": "OpenDRI survey", "student:count": "180"}}, {"type": "way", "id": 226278233, "nodes": [2351321619, 2351321604, 2351321605, 2351321602, 2351321603, 2351321597, 2351321599, 2351321600, 2351321612, 2351321615, 2351321613, 2351321620, 2351321619], "tags": {"amenity": "school", "building_count": "3", "isced:level": "secondary", "name": "Shree Deuja Gaun Primary School", "operator:type": "government", "personnel:count": "9", "source": "OpenDRI survey", "student:count": "50"}}, {"type": "way", "id": 226278679, "nodes": [2351325450, 2351325446, 2351325440, 3489951958, 2351325437, 2351325449, 2351325450], "tags": {"amenity": "school", "building_count": "2", "isced:level": "secondary", "name": "Bimal Memorial Vidyapeth", "operator:type": "private", "personnel:count": "22", "source": "OpenDRI survey", "student:count": "170"}}, {"type": "way", "id": 226279349, "nodes": [2351329971, 2351329972, 2351329959, 2351329950, 2351329951, 2351329956, 2351329969, 2351329971], "tags": {"amenity": "school", "building_count": "4", "isced:level": "secondary", "name": "Jorpati Secondary school", "operator:type": "government", "personnel:count": "19", "source": "OpenDRI survey", "student:count": "280"}}, {"type": "way", "id": 226279522, "nodes": [2351331173, 2351331157, 2351331153, 2351331164, 2351331181, 2351331173], "tags": {"amenity": "school", "building_count": "2", "isced:level": "primary", "name": "Daha Gaun primary School", "operator:type": "government", "personnel:count": "3", "source": "OpenDRI survey", "student:count": "26"}}, {"type": "way", "id": 226279523, "nodes": [2351331199, 2351331183, 2351331185, 2351331197, 2351331199], "tags": {"amenity": "school", "building_count": "2", "isced:level": "primary", "name": "Devi Primary School", "operator:type": "government", "source": "OpenDRI survey"}}, {"type": "way", "id": 226391030, "nodes": [2352274603, 2352274609, 2352274590, 2352274585, 2352274603], "tags": {"amenity": "school", "building_count": "1", "isced:level": "primary", "name": "Maha Kaleshwor primary school", "operator:type": "government", "personnel:count": "5", "source": "OpenDRI survey", "student:count": "40"}}, {"type": "way", "id": 238393601, "nodes": [2450732327, 2462389833, 2462389834, 2462389835, 2450732327], "tags": {"amenity": "school", "building": "yes"}}, {"type": "way", "id": 253152733, "nodes": [2591274454, 2591274455, 2591274456, 2591274457, 2188370694, 2591274458, 2591274459, 2591274460, 2591274461, 2591274462, 2591274463, 2591274464, 2591274465, 2591274467, 3542124400, 2591274752, 2591274468, 2591274469, 2591274454], "tags": {"addr:hamlet": "Addabazar-2", "amenity": "school", "name": "Sanjiwani Higher Secondary School", "operator": "GoN", "operator:type": "government"}}, {"type": "way", "id": 258727184, "nodes": [2640598538, 9612370377, 2640598534, 4314094143, 2640598539, 2640598543, 2640598545, 2640598547, 2640598550, 2640598553, 2640598557, 2640598552, 2640598548, 9530260116, 2640598544, 2640598542, 2640598540, 2640598530, 9612677394, 2640598525, 2640598524, 9612677389, 3194078584, 2640598514, 2640598515, 2640598512, 2640598513, 2640598516, 2640598517, 2640598519, 2640598521, 3194099168, 9612718743, 4314094139, 2640598528, 2640598538], "tags": {"amenity": "school", "barrier": "wall", "government": "education", "name": "Land Mangement Training Centre", "website": "https://www.lmtc.gov.np/"}}, {"type": "way", "id": 270542235, "nodes": [2755687651, 2755687634, 10050213250, 10050213248, 10050213251, 10045100292, 10045100291, 2755687629, 2755687645, 2755687651], "tags": {"addr:street": "Bus Park", "amenity": "school", "building": "yes", "name": "Ram Bhakta Memorial School", "opening_hours": "Sun- Fr 09:30-16:00", "phone": "11661512", "roof:material": "concrete", "roof:shape": "mixed"}}, {"type": "way", "id": 281266983, "nodes": [2852451518, 2852451517, 10004124589, 10004124588, 10004124587, 2852451520, 2852451518], "tags": {"addr:hamlet": "Rajdasmarga-4", "amenity": "school", "building": "yes", "name": "Deaf School", "operator:type": "government", "roof:material": "concerte", "roof:shape": "flat", "school": "deaf"}}, {"type": "way", "id": 302529125, "nodes": [3067780073, 3067780074, 10050730214, 10050730215, 3067780075, 3507447326, 3507447325, 3067780076, 3067780073], "tags": {"addr:city": "Banepa Municipality", "amenity": "school", "name": "bal batika"}}, {"type": "way", "id": 307743683, "nodes": [3491913865, 3129450033, 10039408043, 3505708301, 10039408044, 3129450034, 3491913914, 3491913908, 3491913922, 3491913865], "tags": {"amenity": "school", "name": "Millenium College"}}, {"type": "way", "id": 307749746, "nodes": [3129511803, 3129511804, 3129511805, 3129511806, 3129511803], "tags": {"addr:street": "Bhimsensthan", "amenity": "school", "name": "Everest Academy", "opening_hours": "sun-fr 09:30-16:00", "phone": "11662127"}}, {"type": "way", "id": 341832736, "nodes": [3489103035, 3489103036, 3489103037, 3489103038, 3489103035], "tags": {"amenity": "school", "name": "jyoti academy block2"}}, {"type": "way", "id": 342216424, "nodes": [3492415101, 3492415099, 3492415104, 3492415103, 3492415088, 3492415094, 3492415101], "tags": {"addr:hamlet": "Dakshutol-5", "amenity": "school", "name": "Shikshya Sadan H.S.S", "operator:type": "government", "roof:material": "concrete", "roof:shape": "flat", "source": "Bing"}}, {"type": "way", "id": 342245065, "nodes": [3492747487, 3492747488, 3492747489, 3492747490, 3492747487], "tags": {"addr:city": "Panauti Municipality", "addr:hamlet": "Chaukot-1", "addr:postcode": "45210", "addr:street": "Krishi Rd", "amenity": "school", "name": "Swet Ganesh Secondary School", "operator:type": "government"}}, {"type": "way", "id": 342880043, "nodes": [3498387229, 3498387230, 3498387231, 3498387232, 6927324220, 3498387233, 3498387234, 3498387235, 3498387236, 3498387237, 6927324217, 6927324216, 3498387238, 6927324219, 6927324218, 3498387229], "tags": {"addr:street": "Punyashwari M.", "amenity": "school", "name": "Vidhya Sagar English Secondary School"}}, {"type": "way", "id": 343067969, "nodes": [3499873719, 3499873720, 3499873721, 3499873722, 3499873719], "tags": {"amenity": "school", "building": "yes", "name": "Mandala Devi Primary School"}}, {"type": "way", "id": 343258435, "nodes": [9091418512, 9091420220, 3501277563, 8903310381, 9091420219, 3501277564, 3501277565, 8903310389, 5021377733, 8903310390, 8903310391, 8903310392, 5021377734, 8903310393, 8903310394, 3501277566, 8903310395, 3501277567, 8903310396, 8903310397, 8903310398, 8903310400, 3489958331, 8903310399, 9091418511, 8903310401, 9091418502, 9091418501, 9091420217, 8903310404, 8903310403, 8903310405, 9091418503, 8903310407, 9091418505, 9091418504, 9091420218, 9091418514, 9091418508, 9091418506, 9091418507, 9091418498, 9091418516, 8903310387, 8903310386, 8903310385, 9091418513, 9091418509, 9091418497, 9091418515, 8903310384, 9091418510, 9091418500, 9091420221, 9091418499, 8903310382, 9091418512], "tags": {"addr:hamlet": "Chaukot-1", "amenity": "school", "boundary": "KU Land", "name": "Kathmandu University School of Medical Sciences", "operator:type": "community"}}, {"type": "way", "id": 343772059, "nodes": [3505995570, 3505995580, 3505995575, 3505995566, 3505995570], "tags": {"amenity": "school", "name": "Everest Academy"}}, {"type": "way", "id": 343772062, "nodes": [3505995588, 3505995581, 3505995572, 3505995584, 3505995588], "tags": {"amenity": "school", "roof:material": "tin", "roof:shape": "flat"}}, {"type": "way", "id": 343772085, "nodes": [3505995559, 3505995567, 3505995562, 3505995557, 3505995559], "tags": {"amenity": "school", "name": "Everest Academy", "roof:material": "tin", "roof:shape": "flat"}}, {"type": "way", "id": 344798723, "nodes": [3515335528, 3515335529, 3515335531, 3515335533, 3515335535, 3515335537, 3515335536, 3515335534, 3515335532, 3515335530, 3515335528], "tags": {"addr:hamlet": "Setidhunga-5", "amenity": "school", "name": "Devitar Ni Ma V", "operator:type": "government"}}, {"type": "way", "id": 428167688, "nodes": [4273017941, 4273017942, 4273017937, 4273017943, 4273017944, 4273017945, 4273017946, 4273017947, 4273017941], "tags": {"addr:city": "ghokechour", "addr:street": "Chandeshwori Marga", "amenity": "school", "name": "Himalaya HSS", "operator:type": "government"}}, {"type": "way", "id": 429592684, "nodes": [3627336700, 3490995816, 4287523768, 4287523769, 4287523770, 4287523771, 3490995818, 3627336700], "tags": {"amenity": "school", "name": "GyanSarovar English Secondary School", "phone": "11662041"}}, {"type": "way", "id": 431547275, "nodes": [4307586110, 9976572076, 4307586112, 4307586113, 4307586114, 4307586115, 4307586110], "tags": {"addr:hamlet": "Chandeshwari-1", "amenity": "school", "name": "Chandeshwori Bal Sadan", "operator:type": "government"}}, {"type": "way", "id": 456506101, "nodes": [4527621965, 4527621966, 4527621967, 4527621968, 2296686723, 4527621969, 4527621965], "tags": {"amenity": "school", "name": "Phaudhoka School"}}, {"type": "way", "id": 510689160, "nodes": [4996455460, 4996455461, 4996455464, 4996455465, 4996455467, 4996455466, 4996455463, 4996455462, 4996455459, 4996455458, 4996455456, 4996455457, 4996455460], "tags": {"addr:hamlet": "Chalnedhunga-11", "amenity": "school", "name": "Shree Gosaikunda Primary School", "operator:type": "government"}}, {"type": "way", "id": 511454893, "nodes": [5002857142, 5002857146, 5002857145, 5002857140, 5002857135, 5002857136, 5002857131, 5002857141, 5002857142], "tags": {"addr:hamlet": "Miyinchap-2", "amenity": "school", "name": "Golma Devi Ni Ma V", "operator:type": "government"}}, {"type": "way", "id": 511455604, "nodes": [5002858949, 5002858951, 5002858953, 5002858952, 5002858955, 5002858956, 5002858957, 5002858954, 5002858950, 5002858948, 5002858947, 5002858945, 5002858946, 5002858949], "tags": {"addr:hamlet": "Lama Tole-7", "amenity": "school", "name": "Shree Devisthan Ni Ma V", "operator:type": "government"}}, {"type": "way", "id": 512295455, "nodes": [5009331840, 5009331844, 5009331846, 5009331851, 5009331854, 5009331853, 5009331849, 5009331850, 5009331847, 5009331848, 5009331852, 5009331845, 5009331843, 5009331842, 5009331841, 5009331839, 5009331835, 5009331837, 5009331832, 5009331830, 5009331829, 5009331834, 5009331833, 5009331831, 5009331836, 5009331838, 5009331840], "tags": {"addr:hamlet": "Dachhutole-4", "amenity": "school", "name": "Mahendra Higher Secondary School", "operator:type": "government"}}, {"type": "way", "id": 512298822, "nodes": [5009354967, 5009354966, 5009354965, 5009354964, 5009354963, 5009354967], "tags": {"addr:hamlet": "Ghimere Gaun - 7", "amenity": "school", "name": "Swet Baraha Uchha Ma Vi", "operator:type": "government"}}, {"type": "way", "id": 512726524, "nodes": [5013239533, 5013239539, 5013239535, 5013239528, 5013239530, 5013239532, 5013239533], "tags": {"addr:hamlet": "Koiralatole-4", "amenity": "school", "name": "Shree Prabhat Primary School", "operator:type": "government"}}, {"type": "way", "id": 1042614585, "nodes": [9597192215, 9597192214, 9597192213, 9597192212, 9597192211, 9597192210, 9597192209, 9597192208, 9597192215], "tags": {"amenity": "school", "name": "shree shrikhandapur primary school"}}, {"type": "node", "id": 2287809566, "lat": 27.6180516, "lon": 85.4604479}, {"type": "node", "id": 2287809568, "lat": 27.6180685, "lon": 85.4603584}, {"type": "node", "id": 2287809570, "lat": 27.6181112, "lon": 85.4601009}, {"type": "node", "id": 2287809574, "lat": 27.6181594, "lon": 85.4605772}, {"type": "node", "id": 2287809581, "lat": 27.6182434, "lon": 85.4600332}, {"type": "node", "id": 2287809584, "lat": 27.6183496, "lon": 85.460038}, {"type": "node", "id": 2287809593, "lat": 27.6183736, "lon": 85.4604431}, {"type": "node", "id": 2287809601, "lat": 27.6184672, "lon": 85.4602723}, {"type": "node", "id": 2287809603, "lat": 27.6184842, "lon": 85.4601056}, {"type": "node", "id": 5010603221, "lat": 27.6180842, "lon": 85.4605495}, {"type": "node", "id": 2287809678, "lat": 27.643477, "lon": 85.4641293}, {"type": "node", "id": 2287809683, "lat": 27.6435335, "lon": 85.4641795}, {"type": "node", "id": 2287809685, "lat": 27.6435335, "lon": 85.4642818}, {"type": "node", "id": 2287809695, "lat": 27.6435933, "lon": 85.4639072}, {"type": "node", "id": 2287809702, "lat": 27.643607, "lon": 85.4640636}, {"type": "node", "id": 2287809707, "lat": 27.643643, "lon": 85.4639497}, {"type": "node", "id": 2287809709, "lat": 27.6436583, "lon": 85.4643378}, {"type": "node", "id": 2287809713, "lat": 27.6437302, "lon": 85.464137}, {"type": "node", "id": 2287839069, "lat": 27.6428371, "lon": 85.4663662}, {"type": "node", "id": 2287839072, "lat": 27.6428828, "lon": 85.4665219}, {"type": "node", "id": 2287839075, "lat": 27.6429804, "lon": 85.4663158}, {"type": "node", "id": 2287839078, "lat": 27.6429896, "lon": 85.4663105}, {"type": "node", "id": 2287839080, "lat": 27.6430292, "lon": 85.466492}, {"type": "node", "id": 5009331829, "lat": 27.6446879, "lon": 85.4775744}, {"type": "node", "id": 5009331830, "lat": 27.6447104, "lon": 85.4777059}, {"type": "node", "id": 5009331831, "lat": 27.644752, "lon": 85.4771104}, {"type": "node", "id": 5009331832, "lat": 27.644758, "lon": 85.4777139}, {"type": "node", "id": 5009331833, "lat": 27.6447603, "lon": 85.4773478}, {"type": "node", "id": 5009331834, "lat": 27.6447603, "lon": 85.4774819}, {"type": "node", "id": 5009331835, "lat": 27.6448031, "lon": 85.4775114}, {"type": "node", "id": 5009331836, "lat": 27.6448174, "lon": 85.4770434}, {"type": "node", "id": 5009331837, "lat": 27.6448411, "lon": 85.4776764}, {"type": "node", "id": 5009331838, "lat": 27.6448708, "lon": 85.4770112}, {"type": "node", "id": 5009331839, "lat": 27.644929, "lon": 85.477502}, {"type": "node", "id": 5009331840, "lat": 27.6449516, "lon": 85.4769991}, {"type": "node", "id": 5009331841, "lat": 27.6449718, "lon": 85.477553}, {"type": "node", "id": 5009331842, "lat": 27.644992, "lon": 85.4776911}, {"type": "node", "id": 5009331843, "lat": 27.645087, "lon": 85.4777086}, {"type": "node", "id": 5009331844, "lat": 27.6450906, "lon": 85.4770286}, {"type": "node", "id": 5009331845, "lat": 27.6451262, "lon": 85.4776791}, {"type": "node", "id": 5009331846, "lat": 27.6451405, "lon": 85.476983}, {"type": "node", "id": 5009331847, "lat": 27.6451547, "lon": 85.4774765}, {"type": "node", "id": 5009331848, "lat": 27.6451619, "lon": 85.4775141}, {"type": "node", "id": 5009331849, "lat": 27.6451666, "lon": 85.4771976}, {"type": "node", "id": 5009331850, "lat": 27.6451678, "lon": 85.4773424}, {"type": "node", "id": 5009331851, "lat": 27.6451821, "lon": 85.4769294}, {"type": "node", "id": 5009331852, "lat": 27.6451975, "lon": 85.4776375}, {"type": "node", "id": 5009331853, "lat": 27.6452094, "lon": 85.4770823}, {"type": "node", "id": 5009331854, "lat": 27.6452676, "lon": 85.4769656}, {"type": "node", "id": 2238023093, "lat": 27.6319459, "lon": 85.5065753}, {"type": "node", "id": 2238023098, "lat": 27.6319543, "lon": 85.5064999}, {"type": "node", "id": 2238023101, "lat": 27.6321561, "lon": 85.5064961}, {"type": "node", "id": 2238023104, "lat": 27.6321615, "lon": 85.5064143}, {"type": "node", "id": 2238023106, "lat": 27.6322288, "lon": 85.5066075}, {"type": "node", "id": 2238023108, "lat": 27.6322432, "lon": 85.5064228}, {"type": "node", "id": 9929055350, "lat": 27.6321443, "lon": 85.5064991}, {"type": "node", "id": 9929055351, "lat": 27.6321357, "lon": 85.5065102}, {"type": "node", "id": 9929055352, "lat": 27.6321301, "lon": 85.5065194}, {"type": "node", "id": 2005923166, "lat": 27.6131628, "lon": 85.5287092}, {"type": "node", "id": 2005923167, "lat": 27.6131514, "lon": 85.5286508}, {"type": "node", "id": 2005923168, "lat": 27.6131743, "lon": 85.5287028}, {"type": "node", "id": 2005923169, "lat": 27.6132036, "lon": 85.528802}, {"type": "node", "id": 2005923170, "lat": 27.6132186, "lon": 85.5286991}, {"type": "node", "id": 2005923171, "lat": 27.6132246, "lon": 85.5287129}, {"type": "node", "id": 2005923172, "lat": 27.6132407, "lon": 85.5287039}, {"type": "node", "id": 2005923173, "lat": 27.6132679, "lon": 85.528766}, {"type": "node", "id": 2005923174, "lat": 27.6133261, "lon": 85.5286389}, {"type": "node", "id": 2005923175, "lat": 27.6133437, "lon": 85.528679}, {"type": "node", "id": 2005923176, "lat": 27.6133763, "lon": 85.5286125}, {"type": "node", "id": 2005923177, "lat": 27.6133934, "lon": 85.5286512}, {"type": "node", "id": 2005923178, "lat": 27.6134697, "lon": 85.5285602}, {"type": "node", "id": 2005923179, "lat": 27.613505, "lon": 85.5284529}, {"type": "node", "id": 2005923180, "lat": 27.6135048, "lon": 85.5286399}, {"type": "node", "id": 2005923181, "lat": 27.613571, "lon": 85.5286029}, {"type": "node", "id": 3492747487, "lat": 27.6097705, "lon": 85.5373681}, {"type": "node", "id": 3492747490, "lat": 27.6094819, "lon": 85.5372938}, {"type": "node", "id": 1752648276, "lat": 27.6144733, "lon": 85.5281516}, {"type": "node", "id": 1752648277, "lat": 27.6158062, "lon": 85.5265896}, {"type": "node", "id": 1752648278, "lat": 27.6163718, "lon": 85.527213}, {"type": "node", "id": 1752648279, "lat": 27.6164384, "lon": 85.5274185}, {"type": "node", "id": 1752648280, "lat": 27.6143655, "lon": 85.5270547}, {"type": "node", "id": 1752648281, "lat": 27.6148399, "lon": 85.5268134}, {"type": "node", "id": 1752648282, "lat": 27.6152358, "lon": 85.5259841}, {"type": "node", "id": 1752648285, "lat": 27.615937, "lon": 85.5280278}, {"type": "node", "id": 1752648286, "lat": 27.6148263, "lon": 85.526473}, {"type": "node", "id": 1833837591, "lat": 27.6162814, "lon": 85.5279007}, {"type": "node", "id": 2388206280, "lat": 27.6144345, "lon": 85.5257889}, {"type": "node", "id": 2388206298, "lat": 27.6148187, "lon": 85.5259032}, {"type": "node", "id": 2388206317, "lat": 27.6143948, "lon": 85.5278878}, {"type": "node", "id": 2388206329, "lat": 27.6145845, "lon": 85.525633}, {"type": "node", "id": 2388206333, "lat": 27.6151188, "lon": 85.5282919}, {"type": "node", "id": 2388206339, "lat": 27.6154983, "lon": 85.5280827}, {"type": "node", "id": 2388206353, "lat": 27.6156056, "lon": 85.5281716}, {"type": "node", "id": 2388206361, "lat": 27.6157738, "lon": 85.5264237}, {"type": "node", "id": 2837408599, "lat": 27.6154465, "lon": 85.5261446}, {"type": "node", "id": 2837419746, "lat": 27.6154053, "lon": 85.528134}, {"type": "node", "id": 8517780352, "lat": 27.6148887, "lon": 85.5282419}, {"type": "node", "id": 9597192208, "lat": 27.6162664, "lon": 85.5348663}, {"type": "node", "id": 9597192209, "lat": 27.6162188, "lon": 85.5349468}, {"type": "node", "id": 9597192210, "lat": 27.6159874, "lon": 85.5348717}, {"type": "node", "id": 9597192211, "lat": 27.6159604, "lon": 85.5347852}, {"type": "node", "id": 9597192212, "lat": 27.6159604, "lon": 85.5346816}, {"type": "node", "id": 9597192213, "lat": 27.615988, "lon": 85.5346189}, {"type": "node", "id": 9597192214, "lat": 27.6160804, "lon": 85.534638}, {"type": "node", "id": 9597192215, "lat": 27.6162723, "lon": 85.5347}, {"type": "node", "id": 3501277565, "lat": 27.6064636, "lon": 85.5499393}, {"type": "node", "id": 3501277566, "lat": 27.6065746, "lon": 85.5481724}, {"type": "node", "id": 3501277567, "lat": 27.6067127, "lon": 85.5476315}, {"type": "node", "id": 5021377733, "lat": 27.6065189, "lon": 85.549456}, {"type": "node", "id": 5021377734, "lat": 27.6067159, "lon": 85.5486565}, {"type": "node", "id": 8903310389, "lat": 27.606581, "lon": 85.5496754}, {"type": "node", "id": 8903310390, "lat": 27.6065028, "lon": 85.5492457}, {"type": "node", "id": 8903310391, "lat": 27.6066788, "lon": 85.5490071}, {"type": "node", "id": 8903310392, "lat": 27.6067617, "lon": 85.5488534}, {"type": "node", "id": 8903310393, "lat": 27.6066434, "lon": 85.5484454}, {"type": "node", "id": 8903310394, "lat": 27.6066041, "lon": 85.5482914}, {"type": "node", "id": 8903310395, "lat": 27.6065464, "lon": 85.5480099}, {"type": "node", "id": 8903310396, "lat": 27.6067074, "lon": 85.5475183}, {"type": "node", "id": 8903310397, "lat": 27.607009, "lon": 85.547451}, {"type": "node", "id": 3492747488, "lat": 27.6097328, "lon": 85.5378353}, {"type": "node", "id": 3492747489, "lat": 27.6093934, "lon": 85.5378139}, {"type": "node", "id": 8903310403, "lat": 27.6076435, "lon": 85.5424064}, {"type": "node", "id": 8903310404, "lat": 27.6074865, "lon": 85.5430301}, {"type": "node", "id": 8903310405, "lat": 27.6076782, "lon": 85.5425184}, {"type": "node", "id": 8903310407, "lat": 27.6079341, "lon": 85.5428919}, {"type": "node", "id": 9091418498, "lat": 27.6088126, "lon": 85.5441199}, {"type": "node", "id": 9091418501, "lat": 27.6073098, "lon": 85.5439719}, {"type": "node", "id": 9091418503, "lat": 27.6080909, "lon": 85.542711}, {"type": "node", "id": 9091418504, "lat": 27.6083568, "lon": 85.543023}, {"type": "node", "id": 9091418505, "lat": 27.6082759, "lon": 85.5429266}, {"type": "node", "id": 9091418506, "lat": 27.6087474, "lon": 85.5436084}, {"type": "node", "id": 9091418507, "lat": 27.6088968, "lon": 85.5438704}, {"type": "node", "id": 9091418508, "lat": 27.6083748, "lon": 85.5433695}, {"type": "node", "id": 9091418514, "lat": 27.6083666, "lon": 85.5433083}, {"type": "node", "id": 9091420217, "lat": 27.6073252, "lon": 85.5435848}, {"type": "node", "id": 9091420218, "lat": 27.6083828, "lon": 85.5431709}, {"type": "node", "id": 3489958331, "lat": 27.6072681, "lon": 85.546576}, {"type": "node", "id": 3501277563, "lat": 27.6081332, "lon": 85.5484363}, {"type": "node", "id": 3501277564, "lat": 27.6070764, "lon": 85.5496083}, {"type": "node", "id": 8903310381, "lat": 27.607576, "lon": 85.5487737}, {"type": "node", "id": 8903310382, "lat": 27.609504, "lon": 85.5474624}, {"type": "node", "id": 8903310384, "lat": 27.6091904, "lon": 85.5466792}, {"type": "node", "id": 8903310385, "lat": 27.6085672, "lon": 85.5453044}, {"type": "node", "id": 8903310386, "lat": 27.6086106, "lon": 85.5447337}, {"type": "node", "id": 8903310387, "lat": 27.6084255, "lon": 85.5445878}, {"type": "node", "id": 8903310398, "lat": 27.6073832, "lon": 85.5470794}, {"type": "node", "id": 8903310399, "lat": 27.607101, "lon": 85.5463192}, {"type": "node", "id": 8903310400, "lat": 27.6073919, "lon": 85.5469702}, {"type": "node", "id": 8903310401, "lat": 27.6075387, "lon": 85.5452643}, {"type": "node", "id": 9091418497, "lat": 27.6091252, "lon": 85.5460458}, {"type": "node", "id": 9091418499, "lat": 27.6096505, "lon": 85.5473869}, {"type": "node", "id": 9091418500, "lat": 27.6094453, "lon": 85.5471386}, {"type": "node", "id": 9091418502, "lat": 27.6072206, "lon": 85.5444566}, {"type": "node", "id": 9091418509, "lat": 27.6089652, "lon": 85.5457632}, {"type": "node", "id": 9091418510, "lat": 27.6094437, "lon": 85.5468746}, {"type": "node", "id": 9091418511, "lat": 27.6073343, "lon": 85.545964}, {"type": "node", "id": 9091418512, "lat": 27.6096408, "lon": 85.547601}, {"type": "node", "id": 9091418513, "lat": 27.6090651, "lon": 85.5454829}, {"type": "node", "id": 9091418515, "lat": 27.6090968, "lon": 85.5463651}, {"type": "node", "id": 9091418516, "lat": 27.6086513, "lon": 85.5443371}, {"type": "node", "id": 9091420219, "lat": 27.6075045, "lon": 85.5492301}, {"type": "node", "id": 9091420220, "lat": 27.608947, "lon": 85.5485951}, {"type": "node", "id": 9091420221, "lat": 27.6095146, "lon": 85.5472435}, {"type": "node", "id": 1830382007, "lat": 27.6195628, "lon": 85.5415111}, {"type": "node", "id": 1830382009, "lat": 27.6197539, "lon": 85.5414784}, {"type": "node", "id": 1830382011, "lat": 27.6194286, "lon": 85.5415698}, {"type": "node", "id": 1830382013, "lat": 27.6195977, "lon": 85.5413548}, {"type": "node", "id": 1830382015, "lat": 27.619602, "lon": 85.5415189}, {"type": "node", "id": 1830382017, "lat": 27.6193253, "lon": 85.5414237}, {"type": "node", "id": 1830382018, "lat": 27.6195182, "lon": 85.5413382}, {"type": "node", "id": 1830382020, "lat": 27.6196865, "lon": 85.5415818}, {"type": "node", "id": 2054102680, "lat": 27.6196704, "lon": 85.5395018}, {"type": "node", "id": 2054102682, "lat": 27.6197602, "lon": 85.5394993}, {"type": "node", "id": 2054102685, "lat": 27.6196948, "lon": 85.5395457}, {"type": "node", "id": 2054102687, "lat": 27.6196253, "lon": 85.5395338}, {"type": "node", "id": 2054102689, "lat": 27.6188719, "lon": 85.5391827}, {"type": "node", "id": 2054102692, "lat": 27.6197614, "lon": 85.5391871}, {"type": "node", "id": 2054102698, "lat": 27.6197884, "lon": 85.5394304}, {"type": "node", "id": 2054102701, "lat": 27.6190888, "lon": 85.5392551}, {"type": "node", "id": 2054102704, "lat": 27.6188958, "lon": 85.5391341}, {"type": "node", "id": 2054102708, "lat": 27.6198053, "lon": 85.5394606}, {"type": "node", "id": 2054102712, "lat": 27.6197407, "lon": 85.5394643}, {"type": "node", "id": 2054102716, "lat": 27.6195981, "lon": 85.5393079}, {"type": "node", "id": 2054102717, "lat": 27.6195274, "lon": 85.5393581}, {"type": "node", "id": 2054102719, "lat": 27.6198034, "lon": 85.5391573}, {"type": "node", "id": 2054102726, "lat": 27.6198521, "lon": 85.5393927}, {"type": "node", "id": 2054102729, "lat": 27.6191124, "lon": 85.5393256}, {"type": "node", "id": 2054102730, "lat": 27.6195839, "lon": 85.5392824}, {"type": "node", "id": 2054102734, "lat": 27.6199113, "lon": 85.5393507}, {"type": "node", "id": 2054102737, "lat": 27.6197491, "lon": 85.5391651}, {"type": "node", "id": 2054102742, "lat": 27.618825, "lon": 85.5391532}, {"type": "node", "id": 2054102750, "lat": 27.6190678, "lon": 85.5392976}, {"type": "node", "id": 2054102751, "lat": 27.619866, "lon": 85.5394175}, {"type": "node", "id": 2055383897, "lat": 27.6187292, "lon": 85.5393479}, {"type": "node", "id": 2055383902, "lat": 27.6187552, "lon": 85.5394109}, {"type": "node", "id": 2055383906, "lat": 27.6187728, "lon": 85.5393752}, {"type": "node", "id": 2055383911, "lat": 27.6188213, "lon": 85.5394524}, {"type": "node", "id": 2055383913, "lat": 27.6188368, "lon": 85.5394209}, {"type": "node", "id": 2055383915, "lat": 27.6188783, "lon": 85.5394856}, {"type": "node", "id": 2055383917, "lat": 27.6188928, "lon": 85.539456}, {"type": "node", "id": 2055383920, "lat": 27.6189437, "lon": 85.5395266}, {"type": "node", "id": 2055383922, "lat": 27.6189737, "lon": 85.5394657}, {"type": "node", "id": 2055383923, "lat": 27.619027, "lon": 85.5394991}, {"type": "node", "id": 2640598512, "lat": 27.6180874, "lon": 85.5425559}, {"type": "node", "id": 2640598513, "lat": 27.61817, "lon": 85.5427693}, {"type": "node", "id": 2640598514, "lat": 27.6182599, "lon": 85.5421125}, {"type": "node", "id": 2640598515, "lat": 27.6183077, "lon": 85.54227}, {"type": "node", "id": 2640598516, "lat": 27.6183591, "lon": 85.5430967}, {"type": "node", "id": 2640598517, "lat": 27.6184931, "lon": 85.5432127}, {"type": "node", "id": 2640598519, "lat": 27.6186601, "lon": 85.5431277}, {"type": "node", "id": 2640598521, "lat": 27.6188621, "lon": 85.5429413}, {"type": "node", "id": 2640598524, "lat": 27.6191011, "lon": 85.5410807}, {"type": "node", "id": 2640598525, "lat": 27.6192292, "lon": 85.541089}, {"type": "node", "id": 2640598528, "lat": 27.619475, "lon": 85.5424317}, {"type": "node", "id": 2640598530, "lat": 27.6196201, "lon": 85.5408919}, {"type": "node", "id": 2640598534, "lat": 27.6197953, "lon": 85.5419916}, {"type": "node", "id": 2640598538, "lat": 27.6197867, "lon": 85.5421645}, {"type": "node", "id": 2640598539, "lat": 27.6198019, "lon": 85.5417578}, {"type": "node", "id": 2640598540, "lat": 27.6198888, "lon": 85.5408114}, {"type": "node", "id": 2640598542, "lat": 27.6199304, "lon": 85.5407073}, {"type": "node", "id": 2640598543, "lat": 27.6199875, "lon": 85.5414823}, {"type": "node", "id": 2640598544, "lat": 27.620007, "lon": 85.5407777}, {"type": "node", "id": 2640598545, "lat": 27.6200589, "lon": 85.5414355}, {"type": "node", "id": 2640598547, "lat": 27.6201199, "lon": 85.5415453}, {"type": "node", "id": 3194078584, "lat": 27.6185133, "lon": 85.5418473}, {"type": "node", "id": 3194099168, "lat": 27.6190059, "lon": 85.5428229}, {"type": "node", "id": 4314094139, "lat": 27.6193388, "lon": 85.542534}, {"type": "node", "id": 4314094143, "lat": 27.6198031, "lon": 85.5418356}, {"type": "node", "id": 9612370373, "lat": 27.6193923, "lon": 85.5415923}, {"type": "node", "id": 9612370377, "lat": 27.6198613, "lon": 85.5421243}, {"type": "node", "id": 9612370379, "lat": 27.6195305, "lon": 85.5415189}, {"type": "node", "id": 9612677389, "lat": 27.6189673, "lon": 85.5412}, {"type": "node", "id": 9612677394, "lat": 27.6196122, "lon": 85.5408959}, {"type": "node", "id": 9612718743, "lat": 27.6191444, "lon": 85.5427061}, {"type": "node", "id": 2188370694, "lat": 27.6172123, "lon": 85.5572211}, {"type": "node", "id": 2591274455, "lat": 27.6169198, "lon": 85.5571092}, {"type": "node", "id": 2591274456, "lat": 27.6170687, "lon": 85.5571045}, {"type": "node", "id": 2591274457, "lat": 27.6171349, "lon": 85.5571232}, {"type": "node", "id": 2591274454, "lat": 27.6165225, "lon": 85.557324}, {"type": "node", "id": 2591274458, "lat": 27.6174246, "lon": 85.5575015}, {"type": "node", "id": 2591274459, "lat": 27.6174867, "lon": 85.5577163}, {"type": "node", "id": 2591274460, "lat": 27.6174287, "lon": 85.5578611}, {"type": "node", "id": 2591274461, "lat": 27.6172798, "lon": 85.5580199}, {"type": "node", "id": 2591274462, "lat": 27.6170274, "lon": 85.5581366}, {"type": "node", "id": 2591274463, "lat": 27.6168991, "lon": 85.558174}, {"type": "node", "id": 2591274464, "lat": 27.6167874, "lon": 85.558272}, {"type": "node", "id": 2591274465, "lat": 27.6166426, "lon": 85.5583776}, {"type": "node", "id": 2591274467, "lat": 27.6165599, "lon": 85.5582879}, {"type": "node", "id": 2591274468, "lat": 27.6164729, "lon": 85.5579592}, {"type": "node", "id": 2591274469, "lat": 27.6164398, "lon": 85.5576696}, {"type": "node", "id": 2591274752, "lat": 27.6165031, "lon": 85.5581171}, {"type": "node", "id": 3542124400, "lat": 27.6165397, "lon": 85.5582254}, {"type": "node", "id": 3067780073, "lat": 27.6322795, "lon": 85.5176964}, {"type": "node", "id": 3067780076, "lat": 27.6320215, "lon": 85.5177529}, {"type": "node", "id": 3498387229, "lat": 27.6298608, "lon": 85.5161961}, {"type": "node", "id": 3498387230, "lat": 27.6299318, "lon": 85.5164179}, {"type": "node", "id": 3498387231, "lat": 27.6299699, "lon": 85.5165075}, {"type": "node", "id": 3498387232, "lat": 27.6298084, "lon": 85.5167398}, {"type": "node", "id": 3498387233, "lat": 27.6296943, "lon": 85.5168493}, {"type": "node", "id": 3498387234, "lat": 27.6294923, "lon": 85.5167229}, {"type": "node", "id": 3498387235, "lat": 27.6294514, "lon": 85.5167106}, {"type": "node", "id": 3498387236, "lat": 27.6290938, "lon": 85.5161776}, {"type": "node", "id": 3498387237, "lat": 27.62936, "lon": 85.5159626}, {"type": "node", "id": 3498387238, "lat": 27.6295673, "lon": 85.5159686}, {"type": "node", "id": 3507447325, "lat": 27.6320404, "lon": 85.5178624}, {"type": "node", "id": 3507447326, "lat": 27.632107, "lon": 85.5178478}, {"type": "node", "id": 6927324216, "lat": 27.6294547, "lon": 85.5160189}, {"type": "node", "id": 6927324217, "lat": 27.6293996, "lon": 85.5159978}, {"type": "node", "id": 6927324218, "lat": 27.6298093, "lon": 85.5161163}, {"type": "node", "id": 6927324219, "lat": 27.629703, "lon": 85.5160235}, {"type": "node", "id": 6927324220, "lat": 27.6297366, "lon": 85.5168626}, {"type": "node", "id": 2195843433, "lat": 27.6308392, "lon": 85.5225887}, {"type": "node", "id": 2195843466, "lat": 27.6309017, "lon": 85.5224645}, {"type": "node", "id": 2195843669, "lat": 27.6312092, "lon": 85.5216843}, {"type": "node", "id": 2195843671, "lat": 27.6312243, "lon": 85.5216262}, {"type": "node", "id": 2195843693, "lat": 27.6312669, "lon": 85.5216862}, {"type": "node", "id": 2195843717, "lat": 27.6313171, "lon": 85.5216406}, {"type": "node", "id": 2195843733, "lat": 27.6313437, "lon": 85.5217057}, {"type": "node", "id": 2195843756, "lat": 27.6313469, "lon": 85.5215846}, {"type": "node", "id": 2195843826, "lat": 27.6314136, "lon": 85.5217328}, {"type": "node", "id": 2195843887, "lat": 27.6314584, "lon": 85.5216528}, {"type": "node", "id": 2195843959, "lat": 27.6314542, "lon": 85.5221192}, {"type": "node", "id": 2195843961, "lat": 27.6314567, "lon": 85.5220651}, {"type": "node", "id": 2195843965, "lat": 27.6314598, "lon": 85.5219912}, {"type": "node", "id": 2195843967, "lat": 27.6314625, "lon": 85.5219324}, {"type": "node", "id": 2195844001, "lat": 27.6314895, "lon": 85.5219929}, {"type": "node", "id": 2195844053, "lat": 27.6315542, "lon": 85.5219339}, {"type": "node", "id": 2211146605, "lat": 27.6286714, "lon": 85.5215882}, {"type": "node", "id": 2211146606, "lat": 27.6287533, "lon": 85.5213665}, {"type": "node", "id": 2211146607, "lat": 27.6288037, "lon": 85.5216607}, {"type": "node", "id": 2211146608, "lat": 27.6288444, "lon": 85.5214277}, {"type": "node", "id": 2755687629, "lat": 27.629353, "lon": 85.5207005}, {"type": "node", "id": 2755687634, "lat": 27.6294059, "lon": 85.5205353}, {"type": "node", "id": 2755687645, "lat": 27.6295018, "lon": 85.5207571}, {"type": "node", "id": 2755687651, "lat": 27.6295492, "lon": 85.5205978}, {"type": "node", "id": 3067780074, "lat": 27.6323577, "lon": 85.5181511}, {"type": "node", "id": 3067780075, "lat": 27.6321799, "lon": 85.5182639}, {"type": "node", "id": 3129450033, "lat": 27.6282437, "lon": 85.5236075}, {"type": "node", "id": 3129450034, "lat": 27.6283559, "lon": 85.5239625}, {"type": "node", "id": 3490995816, "lat": 27.6329748, "lon": 85.5243634}, {"type": "node", "id": 3490995818, "lat": 27.6327624, "lon": 85.5241796}, {"type": "node", "id": 3491913865, "lat": 27.6282705, "lon": 85.5234212}, {"type": "node", "id": 3491913908, "lat": 27.6285033, "lon": 85.5237285}, {"type": "node", "id": 3491913914, "lat": 27.6285154, "lon": 85.52395}, {"type": "node", "id": 3491913922, "lat": 27.6285454, "lon": 85.5235078}, {"type": "node", "id": 3505708301, "lat": 27.6282933, "lon": 85.523772}, {"type": "node", "id": 3507394317, "lat": 27.6315429, "lon": 85.522126}, {"type": "node", "id": 3627336700, "lat": 27.633, "lon": 85.5242424}, {"type": "node", "id": 4287523770, "lat": 27.6326799, "lon": 85.5244363}, {"type": "node", "id": 4287523771, "lat": 27.6327357, "lon": 85.5241702}, {"type": "node", "id": 9990711437, "lat": 27.6313171, "lon": 85.5216975}, {"type": "node", "id": 10039408043, "lat": 27.6282546, "lon": 85.5237038}, {"type": "node", "id": 10039408044, "lat": 27.6282993, "lon": 85.5238132}, {"type": "node", "id": 10045100291, "lat": 27.6293728, "lon": 85.5206343}, {"type": "node", "id": 10045100292, "lat": 27.6294114, "lon": 85.5206489}, {"type": "node", "id": 10050213248, "lat": 27.6294268, "lon": 85.5205975}, {"type": "node", "id": 10050213250, "lat": 27.6293901, "lon": 85.5205835}, {"type": "node", "id": 10050213251, "lat": 27.6294201, "lon": 85.5206196}, {"type": "node", "id": 10050730214, "lat": 27.6322645, "lon": 85.5181716}, {"type": "node", "id": 10050730215, "lat": 27.6322777, "lon": 85.5182484}, {"type": "node", "id": 10086708060, "lat": 27.6314943, "lon": 85.5219343}, {"type": "node", "id": 10086708061, "lat": 27.6314945, "lon": 85.52193}, {"type": "node", "id": 10086708062, "lat": 27.6314821, "lon": 85.5221263}, {"type": "node", "id": 10086708063, "lat": 27.6314819, "lon": 85.5221209}, {"type": "node", "id": 10086708064, "lat": 27.6314861, "lon": 85.5220668}, {"type": "node", "id": 10087194282, "lat": 27.6309053, "lon": 85.5226311}, {"type": "node", "id": 10087194283, "lat": 27.6309679, "lon": 85.5225068}, {"type": "node", "id": 1783174267, "lat": 27.6261712, "lon": 85.5316155}, {"type": "node", "id": 1783174276, "lat": 27.6257315, "lon": 85.5313924}, {"type": "node", "id": 1833839408, "lat": 27.6260994, "lon": 85.5320751}, {"type": "node", "id": 2388166387, "lat": 27.6258851, "lon": 85.5318835}, {"type": "node", "id": 2388166392, "lat": 27.6261676, "lon": 85.5317874}, {"type": "node", "id": 2388166412, "lat": 27.6258638, "lon": 85.5319999}, {"type": "node", "id": 2388166449, "lat": 27.6261391, "lon": 85.5317671}, {"type": "node", "id": 3491913400, "lat": 27.6256727, "lon": 85.5315486}, {"type": "node", "id": 3491913447, "lat": 27.6259944, "lon": 85.531484}, {"type": "node", "id": 3491913476, "lat": 27.6260962, "lon": 85.5315453}, {"type": "node", "id": 3516111977, "lat": 27.625645, "lon": 85.531743}, {"type": "node", "id": 8505624628, "lat": 27.6259361, "lon": 85.5314714}, {"type": "node", "id": 8505624629, "lat": 27.6258546, "lon": 85.5314442}, {"type": "node", "id": 1833839482, "lat": 27.6269662, "lon": 85.5258708}, {"type": "node", "id": 1833839486, "lat": 27.6270143, "lon": 85.5256179}, {"type": "node", "id": 1833839502, "lat": 27.6272418, "lon": 85.5259519}, {"type": "node", "id": 1833839504, "lat": 27.6272095, "lon": 85.5255972}, {"type": "node", "id": 1833839505, "lat": 27.6272481, "lon": 85.5255356}, {"type": "node", "id": 1833839509, "lat": 27.627254, "lon": 85.5254027}, {"type": "node", "id": 1833839513, "lat": 27.6272932, "lon": 85.5251607}, {"type": "node", "id": 1833839516, "lat": 27.6274424, "lon": 85.5251104}, {"type": "node", "id": 1833839521, "lat": 27.6275178, "lon": 85.5252291}, {"type": "node", "id": 1833839525, "lat": 27.6276178, "lon": 85.5252687}, {"type": "node", "id": 1833839526, "lat": 27.6274419, "lon": 85.526008}, {"type": "node", "id": 1833839530, "lat": 27.6276423, "lon": 85.526065}, {"type": "node", "id": 1833839531, "lat": 27.6276614, "lon": 85.5252671}, {"type": "node", "id": 1833839534, "lat": 27.6277367, "lon": 85.5252196}, {"type": "node", "id": 1833839537, "lat": 27.627692, "lon": 85.5257858}, {"type": "node", "id": 1833839545, "lat": 27.6279369, "lon": 85.5252434}, {"type": "node", "id": 1833839548, "lat": 27.6278365, "lon": 85.5258261}, {"type": "node", "id": 1833839555, "lat": 27.6278897, "lon": 85.5253981}, {"type": "node", "id": 2211134174, "lat": 27.6275894, "lon": 85.5252847}, {"type": "node", "id": 3043771713, "lat": 27.627939, "lon": 85.5252128}, {"type": "node", "id": 3129511803, "lat": 27.6312382, "lon": 85.527204}, {"type": "node", "id": 3129511804, "lat": 27.6311615, "lon": 85.5275148}, {"type": "node", "id": 3129511805, "lat": 27.6309349, "lon": 85.5274354}, {"type": "node", "id": 3129511806, "lat": 27.6309569, "lon": 85.5271157}, {"type": "node", "id": 3489103035, "lat": 27.6332384, "lon": 85.5258322}, {"type": "node", "id": 3489103036, "lat": 27.6331631, "lon": 85.5259048}, {"type": "node", "id": 3489103037, "lat": 27.6332423, "lon": 85.5260307}, {"type": "node", "id": 3505995557, "lat": 27.6309711, "lon": 85.5274011}, {"type": "node", "id": 3505995559, "lat": 27.6309877, "lon": 85.527302}, {"type": "node", "id": 3505995562, "lat": 27.6310064, "lon": 85.5274087}, {"type": "node", "id": 3505995566, "lat": 27.6310148, "lon": 85.5274055}, {"type": "node", "id": 3505995567, "lat": 27.6310231, "lon": 85.5273095}, {"type": "node", "id": 3505995570, "lat": 27.6310299, "lon": 85.527293}, {"type": "node", "id": 3505995572, "lat": 27.6310649, "lon": 85.5274575}, {"type": "node", "id": 3505995575, "lat": 27.6310751, "lon": 85.5274158}, {"type": "node", "id": 3505995580, "lat": 27.6310902, "lon": 85.5273033}, {"type": "node", "id": 3505995581, "lat": 27.631125, "lon": 85.5274786}, {"type": "node", "id": 3505995584, "lat": 27.6311417, "lon": 85.5271778}, {"type": "node", "id": 3505995588, "lat": 27.6312018, "lon": 85.5271988}, {"type": "node", "id": 4287523768, "lat": 27.6329655, "lon": 85.5245388}, {"type": "node", "id": 4287523769, "lat": 27.6326935, "lon": 85.5245023}, {"type": "node", "id": 9994915101, "lat": 27.6278767, "lon": 85.5255787}, {"type": "node", "id": 9994915115, "lat": 27.6278985, "lon": 85.5254202}, {"type": "node", "id": 9994915116, "lat": 27.6278747, "lon": 85.5255932}, {"type": "node", "id": 10029707175, "lat": 27.6275454, "lon": 85.5260374}, {"type": "node", "id": 1833840652, "lat": 27.6350684, "lon": 85.5225411}, {"type": "node", "id": 1833840673, "lat": 27.6351184, "lon": 85.5226576}, {"type": "node", "id": 1833840679, "lat": 27.6351107, "lon": 85.5223168}, {"type": "node", "id": 1833840687, "lat": 27.6351624, "lon": 85.5222054}, {"type": "node", "id": 1833840729, "lat": 27.6354448, "lon": 85.5222246}, {"type": "node", "id": 1833840756, "lat": 27.6360917, "lon": 85.52318}, {"type": "node", "id": 1833840789, "lat": 27.6358975, "lon": 85.5224529}, {"type": "node", "id": 1833840806, "lat": 27.6360013, "lon": 85.5226214}, {"type": "node", "id": 2852451517, "lat": 27.6351791, "lon": 85.5198589}, {"type": "node", "id": 2852451518, "lat": 27.6352699, "lon": 85.5197998}, {"type": "node", "id": 2852451520, "lat": 27.6354219, "lon": 85.5200971}, {"type": "node", "id": 2852479348, "lat": 27.6360271, "lon": 85.5228403}, {"type": "node", "id": 2852479349, "lat": 27.6359461, "lon": 85.5229902}, {"type": "node", "id": 3491459592, "lat": 27.6350699, "lon": 85.5224845}, {"type": "node", "id": 3492415088, "lat": 27.6333863, "lon": 85.5193134}, {"type": "node", "id": 3492415094, "lat": 27.6334278, "lon": 85.5191027}, {"type": "node", "id": 3492415099, "lat": 27.6334799, "lon": 85.5192685}, {"type": "node", "id": 3492415101, "lat": 27.6335086, "lon": 85.5191229}, {"type": "node", "id": 3492415103, "lat": 27.6334902, "lon": 85.5193395}, {"type": "node", "id": 3492415104, "lat": 27.633503, "lon": 85.5192743}, {"type": "node", "id": 9826025028, "lat": 27.6359704, "lon": 85.5232497}, {"type": "node", "id": 9960918473, "lat": 27.635116, "lon": 85.5222341}, {"type": "node", "id": 10004124587, "lat": 27.6353729, "lon": 85.520129}, {"type": "node", "id": 10004124588, "lat": 27.6352473, "lon": 85.5198834}, {"type": "node", "id": 10004124589, "lat": 27.6352056, "lon": 85.5199105}, {"type": "node", "id": 3489103038, "lat": 27.6333246, "lon": 85.5259579}, {"type": "node", "id": 4273017937, "lat": 27.634337, "lon": 85.5273564}, {"type": "node", "id": 4273017941, "lat": 27.6347359, "lon": 85.5273361}, {"type": "node", "id": 4273017942, "lat": 27.6343918, "lon": 85.5272188}, {"type": "node", "id": 4273017943, "lat": 27.6344136, "lon": 85.5273798}, {"type": "node", "id": 4273017944, "lat": 27.6344415, "lon": 85.5273117}, {"type": "node", "id": 4273017945, "lat": 27.6346666, "lon": 85.527394}, {"type": "node", "id": 4273017946, "lat": 27.6346441, "lon": 85.5274621}, {"type": "node", "id": 4273017947, "lat": 27.6346918, "lon": 85.5274794}, {"type": "node", "id": 4307586110, "lat": 27.6380868, "lon": 85.5317677}, {"type": "node", "id": 4307586112, "lat": 27.6379782, "lon": 85.5319305}, {"type": "node", "id": 4307586113, "lat": 27.6379878, "lon": 85.5317406}, {"type": "node", "id": 4307586114, "lat": 27.6380521, "lon": 85.5317448}, {"type": "node", "id": 4307586115, "lat": 27.6380511, "lon": 85.5317654}, {"type": "node", "id": 9976572076, "lat": 27.6380781, "lon": 85.531937}, {"type": "node", "id": 2640598548, "lat": 27.6202212, "lon": 85.5407132}, {"type": "node", "id": 2640598550, "lat": 27.6202523, "lon": 85.5414399}, {"type": "node", "id": 2640598552, "lat": 27.6202848, "lon": 85.540785}, {"type": "node", "id": 2640598553, "lat": 27.620299, "lon": 85.5413329}, {"type": "node", "id": 2640598557, "lat": 27.6203639, "lon": 85.5411175}, {"type": "node", "id": 9530260116, "lat": 27.6202009, "lon": 85.5407193}, {"type": "node", "id": 4996455456, "lat": 27.6297466, "lon": 85.5423946}, {"type": "node", "id": 4996455457, "lat": 27.6297846, "lon": 85.5422363}, {"type": "node", "id": 4996455458, "lat": 27.6298167, "lon": 85.5424791}, {"type": "node", "id": 4996455459, "lat": 27.6298986, "lon": 85.54264}, {"type": "node", "id": 4996455460, "lat": 27.6299177, "lon": 85.5421022}, {"type": "node", "id": 4996455461, "lat": 27.6300353, "lon": 85.5420379}, {"type": "node", "id": 4996455462, "lat": 27.6300507, "lon": 85.5427312}, {"type": "node", "id": 4996455463, "lat": 27.6301482, "lon": 85.5427822}, {"type": "node", "id": 4996455464, "lat": 27.6301814, "lon": 85.5421317}, {"type": "node", "id": 4996455465, "lat": 27.6301886, "lon": 85.5423892}, {"type": "node", "id": 4996455466, "lat": 27.6302575, "lon": 85.5427795}, {"type": "node", "id": 4996455467, "lat": 27.6302598, "lon": 85.5426722}, {"type": "node", "id": 3499873719, "lat": 27.6350109, "lon": 85.5468737}, {"type": "node", "id": 3499873720, "lat": 27.6351558, "lon": 85.5470069}, {"type": "node", "id": 3499873721, "lat": 27.6352125, "lon": 85.5469284}, {"type": "node", "id": 3499873722, "lat": 27.6350676, "lon": 85.5467952}, {"type": "node", "id": 5013239528, "lat": 27.6452146, "lon": 85.5603623}, {"type": "node", "id": 5013239530, "lat": 27.6452538, "lon": 85.5598929}, {"type": "node", "id": 5013239532, "lat": 27.645312, "lon": 85.5598299}, {"type": "node", "id": 5013239533, "lat": 27.6453762, "lon": 85.5598366}, {"type": "node", "id": 5013239535, "lat": 27.645432, "lon": 85.5604079}, {"type": "node", "id": 5013239539, "lat": 27.6455437, "lon": 85.5602912}, {"type": "node", "id": 2351325437, "lat": 27.65137, "lon": 85.4614912}, {"type": "node", "id": 2351325440, "lat": 27.6514747, "lon": 85.4613948}, {"type": "node", "id": 2351325446, "lat": 27.651551, "lon": 85.4615039}, {"type": "node", "id": 2351325449, "lat": 27.6516109, "lon": 85.4617815}, {"type": "node", "id": 2351325450, "lat": 27.6516917, "lon": 85.4616916}, {"type": "node", "id": 2351329950, "lat": 27.6488714, "lon": 85.4644754}, {"type": "node", "id": 2351329951, "lat": 27.6489187, "lon": 85.4643561}, {"type": "node", "id": 2351329956, "lat": 27.649131, "lon": 85.4643683}, {"type": "node", "id": 2351329959, "lat": 27.6491856, "lon": 85.464447}, {"type": "node", "id": 2351329969, "lat": 27.6494931, "lon": 85.4640909}, {"type": "node", "id": 2351329971, "lat": 27.6495611, "lon": 85.464089}, {"type": "node", "id": 2351329972, "lat": 27.6495975, "lon": 85.4641721}, {"type": "node", "id": 3489951958, "lat": 27.6514215, "lon": 85.4614429}, {"type": "node", "id": 2351331183, "lat": 27.652527, "lon": 85.4681164}, {"type": "node", "id": 2351331185, "lat": 27.6525394, "lon": 85.4682831}, {"type": "node", "id": 2351331197, "lat": 27.6526622, "lon": 85.4683095}, {"type": "node", "id": 2351331199, "lat": 27.6526847, "lon": 85.4681253}, {"type": "node", "id": 2351321584, "lat": 27.6555104, "lon": 85.4604547}, {"type": "node", "id": 2351321586, "lat": 27.65557, "lon": 85.4603447}, {"type": "node", "id": 2351321590, "lat": 27.6555886, "lon": 85.4604681}, {"type": "node", "id": 2351321594, "lat": 27.6556482, "lon": 85.4604988}, {"type": "node", "id": 2351321596, "lat": 27.6556781, "lon": 85.4604068}, {"type": "node", "id": 2351321597, "lat": 27.6571577, "lon": 85.4628615}, {"type": "node", "id": 2351321599, "lat": 27.6571623, "lon": 85.4629259}, {"type": "node", "id": 2351321600, "lat": 27.6571882, "lon": 85.4629835}, {"type": "node", "id": 2351321602, "lat": 27.6572346, "lon": 85.4627755}, {"type": "node", "id": 2351321603, "lat": 27.6572293, "lon": 85.46286}, {"type": "node", "id": 2351321604, "lat": 27.6572558, "lon": 85.4627036}, {"type": "node", "id": 2351321605, "lat": 27.6572551, "lon": 85.4627725}, {"type": "node", "id": 2351321612, "lat": 27.6573201, "lon": 85.4629311}, {"type": "node", "id": 2351321613, "lat": 27.6573552, "lon": 85.4627785}, {"type": "node", "id": 2351321615, "lat": 27.6573526, "lon": 85.4628735}, {"type": "node", "id": 2351321619, "lat": 27.6573917, "lon": 85.4626924}, {"type": "node", "id": 2351321620, "lat": 27.6573963, "lon": 85.4627762}, {"type": "node", "id": 2351331153, "lat": 27.6514846, "lon": 85.4748587}, {"type": "node", "id": 2351331157, "lat": 27.6514977, "lon": 85.474793}, {"type": "node", "id": 2351331164, "lat": 27.651538, "lon": 85.4749116}, {"type": "node", "id": 2351331173, "lat": 27.6516345, "lon": 85.4747338}, {"type": "node", "id": 2351331181, "lat": 27.6516758, "lon": 85.4748449}, {"type": "node", "id": 2352274585, "lat": 27.6536535, "lon": 85.4796897}, {"type": "node", "id": 2352274590, "lat": 27.6536816, "lon": 85.479827}, {"type": "node", "id": 2352274603, "lat": 27.6539061, "lon": 85.4796238}, {"type": "node", "id": 2352274609, "lat": 27.6539342, "lon": 85.4797612}, {"type": "node", "id": 2296694308, "lat": 27.6628936, "lon": 85.4685747}, {"type": "node", "id": 2296694311, "lat": 27.6629142, "lon": 85.4690393}, {"type": "node", "id": 2296694316, "lat": 27.6629773, "lon": 85.4687252}, {"type": "node", "id": 2296694318, "lat": 27.6629804, "lon": 85.4693945}, {"type": "node", "id": 2296694320, "lat": 27.662997, "lon": 85.4692766}, {"type": "node", "id": 2296694321, "lat": 27.6630025, "lon": 85.4684669}, {"type": "node", "id": 2296694326, "lat": 27.6630301, "lon": 85.4694204}, {"type": "node", "id": 2296694335, "lat": 27.6630887, "lon": 85.4694276}, {"type": "node", "id": 2296694338, "lat": 27.6631106, "lon": 85.4691626}, {"type": "node", "id": 2296694343, "lat": 27.6631343, "lon": 85.468621}, {"type": "node", "id": 2296694347, "lat": 27.6631736, "lon": 85.4691753}, {"type": "node", "id": 2296694349, "lat": 27.663205, "lon": 85.4687331}, {"type": "node", "id": 2296694351, "lat": 27.6632061, "lon": 85.4689794}, {"type": "node", "id": 2296694353, "lat": 27.6632311, "lon": 85.4689875}, {"type": "node", "id": 2296694355, "lat": 27.6632928, "lon": 85.4687691}, {"type": "node", "id": 2296694356, "lat": 27.6649023, "lon": 85.4671366}, {"type": "node", "id": 2296694357, "lat": 27.6649265, "lon": 85.4672329}, {"type": "node", "id": 2296694358, "lat": 27.6652276, "lon": 85.4673759}, {"type": "node", "id": 2296694359, "lat": 27.6653036, "lon": 85.4667835}, {"type": "node", "id": 2296694363, "lat": 27.6655014, "lon": 85.4675944}, {"type": "node", "id": 2296694370, "lat": 27.6657025, "lon": 85.4677226}, {"type": "node", "id": 2296694373, "lat": 27.6657674, "lon": 85.4676651}, {"type": "node", "id": 2296694375, "lat": 27.6658273, "lon": 85.4674278}, {"type": "node", "id": 2296694376, "lat": 27.6659347, "lon": 85.4672045}, {"type": "node", "id": 2296686723, "lat": 27.6693641, "lon": 85.4646103}, {"type": "node", "id": 4527621965, "lat": 27.670016, "lon": 85.4654974}, {"type": "node", "id": 4527621968, "lat": 27.6692103, "lon": 85.4653373}, {"type": "node", "id": 4527621969, "lat": 27.6696486, "lon": 85.4647479}, {"type": "node", "id": 2296694377, "lat": 27.6666534, "lon": 85.4709314}, {"type": "node", "id": 2296694378, "lat": 27.6666687, "lon": 85.470786}, {"type": "node", "id": 2296694381, "lat": 27.6666931, "lon": 85.4708806}, {"type": "node", "id": 2296694382, "lat": 27.6667069, "lon": 85.4709873}, {"type": "node", "id": 2296694388, "lat": 27.6668191, "lon": 85.4706234}, {"type": "node", "id": 2296694390, "lat": 27.6668661, "lon": 85.4706842}, {"type": "node", "id": 2296694391, "lat": 27.666954, "lon": 85.4707539}, {"type": "node", "id": 4527621966, "lat": 27.6697324, "lon": 85.465683}, {"type": "node", "id": 4527621967, "lat": 27.6696679, "lon": 85.4657376}, {"type": "node", "id": 2296699423, "lat": 27.6645866, "lon": 85.4827981}, {"type": "node", "id": 2296699428, "lat": 27.6645957, "lon": 85.4830049}, {"type": "node", "id": 2296699430, "lat": 27.664646, "lon": 85.4826476}, {"type": "node", "id": 2296699434, "lat": 27.6647, "lon": 85.4826497}, {"type": "node", "id": 2296699436, "lat": 27.6648423, "lon": 85.4827818}, {"type": "node", "id": 2296699446, "lat": 27.6649648, "lon": 85.4828571}, {"type": "node", "id": 3491394156, "lat": 27.6648542, "lon": 85.4831221}, {"type": "node", "id": 3491394159, "lat": 27.6649242, "lon": 85.4830868}, {"type": "node", "id": 2450732327, "lat": 27.6523337, "lon": 85.5100998}, {"type": "node", "id": 2462389833, "lat": 27.6522607, "lon": 85.5100881}, {"type": "node", "id": 2462389834, "lat": 27.6522348, "lon": 85.5102741}, {"type": "node", "id": 2462389835, "lat": 27.652307, "lon": 85.5102888}, {"type": "node", "id": 2296716765, "lat": 27.6781567, "lon": 85.473508}, {"type": "node", "id": 2296716769, "lat": 27.678178, "lon": 85.4732891}, {"type": "node", "id": 2296716771, "lat": 27.6782383, "lon": 85.4733064}, {"type": "node", "id": 2296716775, "lat": 27.6782664, "lon": 85.4731816}, {"type": "node", "id": 2296716782, "lat": 27.6783282, "lon": 85.4732091}, {"type": "node", "id": 2296716785, "lat": 27.6783923, "lon": 85.4735373}, {"type": "node", "id": 2296716786, "lat": 27.6784456, "lon": 85.4735109}, {"type": "node", "id": 2296716787, "lat": 27.6788168, "lon": 85.4766701}, {"type": "node", "id": 2296716788, "lat": 27.6788361, "lon": 85.4765551}, {"type": "node", "id": 2296716790, "lat": 27.6789018, "lon": 85.4767769}, {"type": "node", "id": 2296716791, "lat": 27.6789104, "lon": 85.4763894}, {"type": "node", "id": 2296716795, "lat": 27.679034, "lon": 85.4764603}, {"type": "node", "id": 2296716744, "lat": 27.6777941, "lon": 85.4813244}, {"type": "node", "id": 2296716750, "lat": 27.6778588, "lon": 85.4815849}, {"type": "node", "id": 2296716758, "lat": 27.6779871, "lon": 85.4812121}, {"type": "node", "id": 2296716761, "lat": 27.678019, "lon": 85.481284}, {"type": "node", "id": 2296716764, "lat": 27.6780759, "lon": 85.4815009}, {"type": "node", "id": 2303782024, "lat": 27.6874688, "lon": 85.4646161}, {"type": "node", "id": 2303782025, "lat": 27.687474, "lon": 85.4648491}, {"type": "node", "id": 2303782030, "lat": 27.6876272, "lon": 85.4645997}, {"type": "node", "id": 2303782035, "lat": 27.687646, "lon": 85.4648607}, {"type": "node", "id": 2303782029, "lat": 27.6876135, "lon": 85.4657148}, {"type": "node", "id": 2303782039, "lat": 27.6877067, "lon": 85.4655202}, {"type": "node", "id": 2303782051, "lat": 27.6877906, "lon": 85.4655255}, {"type": "node", "id": 2303782054, "lat": 27.6877956, "lon": 85.4657632}, {"type": "node", "id": 1670641924, "lat": 27.6918529, "lon": 85.4753558}, {"type": "node", "id": 1670641930, "lat": 27.6919255, "lon": 85.4756201}, {"type": "node", "id": 2302566721, "lat": 27.6919899, "lon": 85.4751583}, {"type": "node", "id": 2302566724, "lat": 27.6919936, "lon": 85.4756854}, {"type": "node", "id": 2302566730, "lat": 27.6921391, "lon": 85.4752969}, {"type": "node", "id": 2302566731, "lat": 27.6921415, "lon": 85.4755231}, {"type": "node", "id": 3396105762, "lat": 27.6918393, "lon": 85.4751832}, {"type": "node", "id": 3491125406, "lat": 27.6918885, "lon": 85.4754944}, {"type": "node", "id": 3491125416, "lat": 27.6919245, "lon": 85.475678}, {"type": "node", "id": 2296738645, "lat": 27.6862989, "lon": 85.4792279}, {"type": "node", "id": 2296738646, "lat": 27.6863168, "lon": 85.4793026}, {"type": "node", "id": 2296738647, "lat": 27.6863372, "lon": 85.4795477}, {"type": "node", "id": 2296738650, "lat": 27.6863351, "lon": 85.4798278}, {"type": "node", "id": 2296738655, "lat": 27.6864135, "lon": 85.4790392}, {"type": "node", "id": 2296738666, "lat": 27.6864039, "lon": 85.479719}, {"type": "node", "id": 2296738668, "lat": 27.6864035, "lon": 85.4797569}, {"type": "node", "id": 2296738684, "lat": 27.6864099, "lon": 85.4795443}, {"type": "node", "id": 2296738686, "lat": 27.6864094, "lon": 85.4795718}, {"type": "node", "id": 2296738688, "lat": 27.6864937, "lon": 85.4791526}, {"type": "node", "id": 2296738694, "lat": 27.6864651, "lon": 85.4795711}, {"type": "node", "id": 2296738696, "lat": 27.6864633, "lon": 85.4797183}, {"type": "node", "id": 2296738698, "lat": 27.6864662, "lon": 85.4797589}, {"type": "node", "id": 2296738704, "lat": 27.6864671, "lon": 85.4798243}, {"type": "node", "id": 2296738706, "lat": 27.6865004, "lon": 85.4792777}, {"type": "node", "id": 2296738708, "lat": 27.686539, "lon": 85.4790363}, {"type": "node", "id": 2296738714, "lat": 27.6865475, "lon": 85.4791519}, {"type": "node", "id": 2302563699, "lat": 27.6925903, "lon": 85.4776978}, {"type": "node", "id": 2302563700, "lat": 27.6925734, "lon": 85.4778296}, {"type": "node", "id": 2302563701, "lat": 27.6926516, "lon": 85.4779981}, {"type": "node", "id": 2302563702, "lat": 27.6926709, "lon": 85.4777386}, {"type": "node", "id": 2302563710, "lat": 27.6928249, "lon": 85.4777576}, {"type": "node", "id": 2302563716, "lat": 27.6928766, "lon": 85.4779234}, {"type": "node", "id": 2296738612, "lat": 27.6819291, "lon": 85.485445}, {"type": "node", "id": 2296738614, "lat": 27.6819646, "lon": 85.4854941}, {"type": "node", "id": 2296738622, "lat": 27.6821176, "lon": 85.4852349}, {"type": "node", "id": 2296738633, "lat": 27.6822804, "lon": 85.4854868}, {"type": "node", "id": 2296738634, "lat": 27.6822813, "lon": 85.485906}, {"type": "node", "id": 2296738638, "lat": 27.6823409, "lon": 85.4852102}, {"type": "node", "id": 2296738639, "lat": 27.6823513, "lon": 85.4854741}, {"type": "node", "id": 2296738640, "lat": 27.6824353, "lon": 85.4858093}, {"type": "node", "id": 2303329466, "lat": 27.690727, "lon": 85.4905045}, {"type": "node", "id": 2303329521, "lat": 27.6908525, "lon": 85.4907402}, {"type": "node", "id": 2303329560, "lat": 27.691094, "lon": 85.4903168}, {"type": "node", "id": 2303329572, "lat": 27.6911518, "lon": 85.4904294}, {"type": "node", "id": 5002857131, "lat": 27.6577362, "lon": 85.5529456}, {"type": "node", "id": 5002857135, "lat": 27.6577899, "lon": 85.5533285}, {"type": "node", "id": 5002857136, "lat": 27.6578101, "lon": 85.55324}, {"type": "node", "id": 5002857140, "lat": 27.6579075, "lon": 85.5534533}, {"type": "node", "id": 5002857141, "lat": 27.6579191, "lon": 85.5527374}, {"type": "node", "id": 5002857142, "lat": 27.6579764, "lon": 85.5527827}, {"type": "node", "id": 5002857145, "lat": 27.6580786, "lon": 85.5532132}, {"type": "node", "id": 5002857146, "lat": 27.6580869, "lon": 85.5531126}, {"type": "node", "id": 5009354965, "lat": 27.6789029, "lon": 85.5144657}, {"type": "node", "id": 5009354966, "lat": 27.6788453, "lon": 85.5141969}, {"type": "node", "id": 5009354967, "lat": 27.6789755, "lon": 85.5137959}, {"type": "node", "id": 5009354963, "lat": 27.6794754, "lon": 85.5141761}, {"type": "node", "id": 5009354964, "lat": 27.6792664, "lon": 85.514441}, {"type": "node", "id": 3515335528, "lat": 27.6771071, "lon": 85.5527379}, {"type": "node", "id": 3515335529, "lat": 27.6772383, "lon": 85.552535}, {"type": "node", "id": 3515335530, "lat": 27.6773822, "lon": 85.5531015}, {"type": "node", "id": 3515335531, "lat": 27.6773888, "lon": 85.5526418}, {"type": "node", "id": 3515335532, "lat": 27.6774628, "lon": 85.5531494}, {"type": "node", "id": 3515335533, "lat": 27.6775655, "lon": 85.5526758}, {"type": "node", "id": 3515335534, "lat": 27.6774962, "lon": 85.5531349}, {"type": "node", "id": 3515335535, "lat": 27.6776708, "lon": 85.5526774}, {"type": "node", "id": 3515335536, "lat": 27.6776896, "lon": 85.5529028}, {"type": "node", "id": 3515335537, "lat": 27.6777538, "lon": 85.5527397}, {"type": "node", "id": 5002858945, "lat": 27.6632084, "lon": 85.5640886}, {"type": "node", "id": 5002858946, "lat": 27.6632179, "lon": 85.5639988}, {"type": "node", "id": 5002858947, "lat": 27.6632583, "lon": 85.5642683}, {"type": "node", "id": 5002858948, "lat": 27.6633106, "lon": 85.5643837}, {"type": "node", "id": 5002858949, "lat": 27.6633248, "lon": 85.5640041}, {"type": "node", "id": 5002858950, "lat": 27.6634377, "lon": 85.5644467}, {"type": "node", "id": 5002858951, "lat": 27.6635054, "lon": 85.5639894}, {"type": "node", "id": 5002858952, "lat": 27.6635695, "lon": 85.5640765}, {"type": "node", "id": 5002858953, "lat": 27.6635766, "lon": 85.563988}, {"type": "node", "id": 5002858954, "lat": 27.6635814, "lon": 85.5643904}, {"type": "node", "id": 5002858955, "lat": 27.6636598, "lon": 85.5640913}, {"type": "node", "id": 5002858956, "lat": 27.6636847, "lon": 85.5642415}, {"type": "node", "id": 5002858957, "lat": 27.6636859, "lon": 85.5643367}]}