{"version": 0.6, "generator": "Overpass API 0.7.61.5 4133829e", "osm3s": {"timestamp_osm_base": "2023-08-24T15:41:15Z", "copyright": "The data included in this document is from www.openstreetmap.org. The data is made available under ODbL."}, "elements": [{"type": "node", "id": 1764833248, "lat": 27.6316877, "lon": 85.5175643, "tags": {"amenity": "bank", "atm": "no", "name": "ICFC"}}, {"type": "node", "id": 1767319469, "lat": 27.6305229, "lon": 85.5213599, "tags": {"amenity": "bank", "atm": "yes", "name": "Civil Development Bank"}}, {"type": "node", "id": 1767319474, "lat": 27.6314161, "lon": 85.5188994, "tags": {"amenity": "bank", "name": "Annapurna Bkas Bank"}}, {"type": "node", "id": 1833834650, "lat": 27.6297236, "lon": 85.5219071, "tags": {"amenity": "bank", "atm": "yes", "name": "Nic Asia Bank"}}, {"type": "node", "id": 1833834670, "lat": 27.6308016, "lon": 85.5197299, "tags": {"amenity": "bank", "name": "Corporate Development Bank"}}, {"type": "node", "id": 1833834671, "lat": 27.6297323, "lon": 85.5263819, "tags": {"amenity": "bank", "name": "Country Development Bank"}}, {"type": "node", "id": 1833834699, "lat": 27.63041, "lon": 85.5202691, "tags": {"amenity": "bank", "name": "Dibya Energy"}}, {"type": "node", "id": 1833834809, "lat": 27.6312333, "lon": 85.5181541, "tags": {"amenity": "bank", "name": "IFD Bank"}}, {"type": "node", "id": 1833834928, "lat": 27.630147, "lon": 85.5243376, "tags": {"amenity": "bank", "name": "Nepal Bank"}}, {"type": "node", "id": 1833834947, "lat": 27.6293529, "lon": 85.5235723, "tags": {"amenity": "bank", "name": "Rastriya Banijiya Bank"}}, {"type": "node", "id": 3079591727, "lat": 27.6293192, "lon": 85.5235719, "tags": {"amenity": "bank", "name": "Agriculture Development Bank"}}, {"type": "node", "id": 3079591730, "lat": 27.6292763, "lon": 85.5235647, "tags": {"amenity": "bank", "name": "Himalayan Bank"}}, {"type": "node", "id": 3079591731, "lat": 27.6301997, "lon": 85.5240844, "tags": {"amenity": "bank", "name": "Infrastructure Development Bank"}}, {"type": "node", "id": 3156329574, "lat": 27.6306041, "lon": 85.5222878, "tags": {"amenity": "bank", "atm": "yes", "name": "Machhapuchhre Bank"}}, {"type": "node", "id": 3156329575, "lat": 27.6306389, "lon": 85.5207085, "tags": {"amenity": "bank", "atm": "yes", "name": "Prabhu Bank", "sorey": "3"}}, {"type": "node", "id": 3156343837, "lat": 27.6299403, "lon": 85.5254131, "tags": {"amenity": "bank", "name": "Supreme Development Bank"}}, {"type": "node", "id": 3156343838, "lat": 27.6299426, "lon": 85.5254561, "tags": {"amenity": "bank", "name": "Bright Development Bank"}}, {"type": "node", "id": 3560543993, "lat": 27.622491, "lon": 85.5520058, "tags": {"amenity": "bank", "name": "Rastraiya Banijya Bank"}}, {"type": "node", "id": 4513211602, "lat": 27.6463189, "lon": 85.5128241, "tags": {"addr:street": "Bhaktapur-Nala-Banepa road", "amenity": "bank", "name:en": "FORWARD Community Microfinance Bittiya Sanstha Ltd. Nala Branch.", "opening_hours": "Su-Fr 07:30-16:30", "phone": "011663015"}}, {"type": "node", "id": 4516600991, "lat": 27.630652, "lon": 85.5222644, "tags": {"amenity": "bank", "name:en": "Pravu Bank"}}, {"type": "node", "id": 4516600992, "lat": 27.6306111, "lon": 85.5224334, "tags": {"amenity": "bank", "name:en": "Sindhu Bikash Bank"}}, {"type": "node", "id": 4516600993, "lat": 27.6306954, "lon": 85.5223976, "tags": {"amenity": "bank", "name:en": "Global IME Bank"}}, {"type": "node", "id": 4516621992, "lat": 27.6306069, "lon": 85.5223383, "tags": {"amenity": "bank", "name:en": "Machhapucheree Bank"}}, {"type": "node", "id": 4516637490, "lat": 27.6308825, "lon": 85.5190887, "tags": {"amenity": "bank", "name:en": "Agriculture Development Bank"}}, {"type": "node", "id": 4516638289, "lat": 27.6309081, "lon": 85.5190418, "tags": {"amenity": "bank", "name:en": "Himalayan Bank"}}, {"type": "node", "id": 4518965692, "lat": 27.6308266, "lon": 85.5194412, "tags": {"addr:street": "Araniko Highway", "amenity": "bank", "name:en": "Krishi Bikash Bank"}}, {"type": "node", "id": 4519067989, "lat": 27.6307802, "lon": 85.519402, "tags": {"addr:street": "Araniko Highway", "amenity": "bank", "name:en": "Himalayan Bank"}}, {"type": "node", "id": 4520318689, "lat": 27.6324442, "lon": 85.5131346, "tags": {"amenity": "bank", "name:en": "Janamaitri Saccos"}}, {"type": "node", "id": 4533578692, "lat": 27.6319513, "lon": 85.5133686, "tags": {"amenity": "bank", "name:en": "Garud Saccos"}}, {"type": "node", "id": 4533656605, "lat": 27.6319163, "lon": 85.5132948, "tags": {"amenity": "bank", "name:en": "provisional financial institution"}}, {"type": "node", "id": 4533688190, "lat": 27.6323855, "lon": 85.5142308, "tags": {"amenity": "bank", "name:en": "Bhakteshori Nari Saccos"}}, {"type": "node", "id": 4795372227, "lat": 27.6319123, "lon": 85.5136223, "tags": {"amenity": "bank", "name:en": "grukhas financial institute"}}, {"type": "node", "id": 4795376424, "lat": 27.6311683, "lon": 85.5244596, "tags": {"amenity": "bank", "name:en": "Blood bank"}}, {"type": "node", "id": 4906941921, "lat": 27.6174562, "lon": 85.5389408, "tags": {"addr:street": "Staff quarter track", "amenity": "bank", "name:en": "KU Bank", "opening_hours": "Su-Fr 10:30-14:00"}}, {"type": "node", "id": 5128735021, "lat": 27.6301891, "lon": 85.5243585, "tags": {"addr:street": "Araniko Raj Marga", "amenity": "bank", "name:en": "Bank of Kathmandu", "opening_hours": "Su-Fr 10:00-16:00", "phone": "011662465"}}, {"type": "node", "id": 5152860021, "lat": 27.6303251, "lon": 85.5237694, "tags": {"amenity": "bank", "name:en": "Laxmi Bank", "opening_hours": "Su-Th 10:00-17:00; Fr 10:00-14:00", "phone": "011-663425"}}, {"type": "node", "id": 5152860122, "lat": 27.6287948, "lon": 85.528266, "tags": {"amenity": "bank", "name:en": "Rastriya Banijya Bank", "opening_hours": "Su- Fr 09:30-16:00"}}, {"type": "node", "id": 5172224421, "lat": 27.6300282, "lon": 85.5231774, "tags": {"addr:street": "Araniko Highway", "amenity": "bank", "name:en": "National Co-operative bank limited", "opening_hours": "Su-Fr 10:00-17:00", "phone": "011-661063"}}, {"type": "node", "id": 5289234652, "lat": 27.6174554, "lon": 85.5389398, "tags": {"amenity": "bank", "name": "Nepal Investment Bank"}}, {"type": "node", "id": 5387044325, "lat": 27.6207079, "lon": 85.5530456, "tags": {"amenity": "bank", "name:en": "Agricultural development bank ltd.", "opening_hours": "Su-Fr 10:00-16:00"}}, {"type": "node", "id": 5487607132, "lat": 27.6321702, "lon": 85.5154809, "tags": {"addr:street": "ARANIKO HIGHWAY", "amenity": "bank", "name:en": "Sanchit Saccos, \u0938\u0928\u094d\u091a\u093f\u0924 \u0938\u093e\u0915\u094b\u0938", "opening_hours": "Su-Fr 10:00-17:00", "phone": "011-662403"}}, {"type": "node", "id": 5604165721, "lat": 27.6207591, "lon": 85.5526262, "tags": {"amenity": "bank", "name:en": "NIC ASIA BANK"}}, {"type": "node", "id": 5645142637, "lat": 27.6300235, "lon": 85.5229851, "tags": {"addr:street": "Banepa", "amenity": "bank", "name:en": "Everest Bank Limited"}}, {"type": "node", "id": 5661015221, "lat": 27.6310367, "lon": 85.520589, "tags": {"addr:street": "Araniko Highway", "amenity": "bank", "name:en": "Sanima Bank"}}, {"type": "node", "id": 6147288887, "lat": 27.6301755, "lon": 85.5243283, "tags": {"amenity": "bank", "name:en": "Century Bank"}}, {"type": "node", "id": 6517147943, "lat": 27.6313391, "lon": 85.5170394, "tags": {"addr:city": "Banepa, Kavre", "addr:housename": "NMB Bank", "addr:street": "Araniko Highway", "amenity": "bank", "atm": "yes", "name": "NMB Bank"}}, {"type": "node", "id": 6639655886, "lat": 27.6305024, "lon": 85.5188458, "tags": {"addr:street": "Mukti M.(W)", "amenity": "bank", "name:en": "Sandush sacoos", "phone": "011660315"}}, {"type": "node", "id": 6639656385, "lat": 27.6305358, "lon": 85.51898, "tags": {"addr:street": "Mukti M.(W)", "amenity": "bank", "name:en": "Sandush saccos", "phone": "01166315"}}, {"type": "node", "id": 7028077206, "lat": 27.6301253, "lon": 85.5223379, "tags": {"amenity": "bank", "name:en": "Citizen Bank"}}, {"type": "node", "id": 7239742285, "lat": 27.6303174, "lon": 85.5215754, "tags": {"addr:street": "Araniko Highway", "amenity": "bank", "email": "shulachhansaccos@gmail.com", "name:en": "Shulachhan Saccos", "opening_hours": "Su-Fr 10:00-17:30", "phone": "011660224"}}, {"type": "node", "id": 9557617019, "lat": 27.6198733, "lon": 85.5533722, "tags": {"amenity": "bank", "name": "Kumari Bank Limited"}}, {"type": "node", "id": 9557617217, "lat": 27.6296728, "lon": 85.5265934, "tags": {"amenity": "bank", "name": "Prime Bank"}}, {"type": "node", "id": 9557617317, "lat": 27.6301562, "lon": 85.524434, "tags": {"amenity": "bank", "name": "Nepal Bank Limited"}}, {"type": "node", "id": 9784655250, "lat": 27.6303009, "lon": 85.5238408, "tags": {"amenity": "bank", "name:en": "Siddhartha Bank Limited", "service:type": "Commercial", "source": "Field Survey"}}, {"type": "node", "id": 9784655260, "lat": 27.6301302, "lon": 85.5285984, "tags": {"amenity": "bank", "contact:phone": "11660670", "name:en": "Nepali Buddha Saving and Credit Cooperative Ltd", "service:type": "Co-operative", "source": "Field Survey"}}, {"type": "node", "id": 9784655270, "lat": 27.6300762, "lon": 85.5246607, "tags": {"amenity": "bank", "contact:email": "nobelsaccos@gmail.com", "contact:phone": "11661411", "name:en": "Nobel Saving & Credit Cooperative Ltd", "service:type": "Co-operative", "source": "Field Survey"}}, {"type": "node", "id": 9784655285, "lat": 27.6302455, "lon": 85.528645, "tags": {"amenity": "bank", "contact:email": "sasaktasavingbanepa5@gmail.com", "contact:phone": "11665527", "name:en": "Sasakta saving and credit cooperative ltd", "service:type": "cooperative", "source": "Field Survey"}}, {"type": "node", "id": 9784655286, "lat": 27.6303824, "lon": 85.5279923, "tags": {"addr:street": "Bhimsensthan", "amenity": "bank", "contact:phone": "11660002", "name:en": "Shree Jiwan Sudhar Krishi Sahakari sanstha LTD", "office": "financial", "opening_hours": "Su- Fr 09:30-17:00", "service:type": "Co-operative", "source": "Field Survey"}}, {"type": "node", "id": 9960910712, "lat": 27.6313495, "lon": 85.5192304, "tags": {"amenity": "bank", "atm": "yes", "name": "Agriculture Development Bank"}}, {"type": "node", "id": 9960910713, "lat": 27.6313545, "lon": 85.5192357, "tags": {"amenity": "bank", "atm": "yes", "name": "Hamalyan bank"}}, {"type": "node", "id": 9960910714, "lat": 27.6309591, "lon": 85.5205143, "tags": {"amenity": "bank", "atm": "yes", "name": "Sanima Bank banepa branch"}}, {"type": "node", "id": 9960916652, "lat": 27.631089, "lon": 85.5207451, "tags": {"amenity": "bank", "atm": "yes", "name": "kumari bank ltd banepa"}}, {"type": "node", "id": 9960917444, "lat": 27.6295426, "lon": 85.5249736, "tags": {"amenity": "bank", "atm": "yes", "name": "Nepal Commercial Creadit"}}, {"type": "node", "id": 9960926208, "lat": 27.6309434, "lon": 85.5210362, "tags": {"amenity": "bank", "atm": "yes", "name": "NIC asia"}}, {"type": "node", "id": 9960926869, "lat": 27.6296602, "lon": 85.525091, "tags": {"amenity": "bank", "name": "ncc bank", "social_facility": "food_bank"}}, {"type": "node", "id": 9960933596, "lat": 27.6312334, "lon": 85.5191486, "tags": {"amenity": "bank", "atm": "yes", "name": "himalayan bank limited"}}, {"type": "node", "id": 9960933599, "lat": 27.6305805, "lon": 85.522278, "tags": {"amenity": "bank", "atm": "yes", "name": "machhapuchhre bank"}}, {"type": "node", "id": 9960940217, "lat": 27.6309102, "lon": 85.5207163, "tags": {"amenity": "bank", "atm": "yes", "name": "kumari bank banepa branch"}}, {"type": "node", "id": 9960940218, "lat": 27.6308531, "lon": 85.5210167, "tags": {"amenity": "bank", "atm": "yes", "name": "nic bank banepa branch"}}, {"type": "node", "id": 9960940219, "lat": 27.6307201, "lon": 85.5213252, "tags": {"amenity": "bank", "atm": "yes"}}, {"type": "node", "id": 10029638432, "lat": 27.6270693, "lon": 85.5250606, "tags": {"addr:street": "Godam chowk", "amenity": "bank", "name": "Shree Thanapati Saving & Credit Co-Operative Ltd", "nrb_class": "co-operative"}}, {"type": "node", "id": 10198731917, "lat": 27.6292804, "lon": 85.5264124, "tags": {"addr:street": "Tarkari bazzar", "amenity": "bank", "name:en": "Nabil Bank", "opening_hours": "Su-Fr 10:00-16:00"}}, {"type": "node", "id": 10230034994, "lat": 27.6552354, "lon": 85.5052898, "tags": {"addr:street": "Nala", "amenity": "bank", "name": "Punyamati Nari Chetana Sipmulak Sahakari", "name:ne": "\u092a\u0941\u0928\u094d\u092f\u092e\u0924\u0940 \u0928\u093e\u0930\u0940 \u091a\u0947\u0924\u0928\u093e \u0938\u093f\u092a\u092e\u0941\u0932\u0915 \u0938\u0939\u0915\u093e\u0930\u0940 \u0938\u0902\u0938\u094d\u0925\u093e \u0932\u093f\u092e\u093f\u091f\u0947\u0921", "nrb_class": "co-operative"}}, {"type": "node", "id": 10230034995, "lat": 27.657118, "lon": 85.5177557, "tags": {"addr:street": "Sera", "amenity": "bank", "name": "Panchashil Saving And Credit Co-Operative Ltd.", "nrb_class": "co-operative"}}, {"type": "node", "id": 10230034996, "lat": 27.6577112, "lon": 85.5167328, "tags": {"amenity": "bank", "name": "Women Entrepreneur Consumer Co- Operative Society Ltd. (Weccsl)", "nrb_class": "co-operative", "phone": "01-4104136, 9841311784"}}, {"type": "node", "id": 10230034997, "lat": 27.6577035, "lon": 85.5166604, "tags": {"addr:street": "Sera", "amenity": "bank", "name": "Nari Jagaran Saving And Credit Co-Operative Ltd.", "nrb_class": "co-operative", "phone": "011-411188"}}, {"type": "node", "id": 10230034998, "lat": 27.6536209, "lon": 85.5112865, "tags": {"addr:street": "Ugrachandi", "amenity": "bank", "name": "Hamro Sewa Saving And Credit Co-Operative Ltd.", "nrb_class": "co-operative", "phone": "011-411232"}}, {"type": "node", "id": 10230034999, "lat": 27.6537845, "lon": 85.5112843, "tags": {"addr:street": "Ugrachandi", "amenity": "bank", "name": "Shree Ugrachandi Mahila Vikash Bahuudeshiya Sahakari Sanstha Limited", "nrb_class": "co-operative"}}, {"type": "node", "id": 10230035000, "lat": 27.6564815, "lon": 85.5029148, "tags": {"amenity": "bank", "name": "Shree Aakasdevi Agriculture Co-Operative Ltd.", "nrb_class": "co-operative", "phone": "9841808872, 9851282806, 9803299738"}}, {"type": "node", "id": 10230035001, "lat": 27.6539218, "lon": 85.5079215, "tags": {"addr:street": "Mechhen Tole", "amenity": "bank", "name": "Sarbotthan Saving And Credit Co-Operative Ltd.", "nrb_class": "co-operative", "phone": "011-411121, 011-682462"}}, {"type": "node", "id": 10230035002, "lat": 27.6530696, "lon": 85.5102019, "tags": {"addr:street": "Ugrachandi", "amenity": "bank", "name": "Ugrachandi Saving And Credit Co-Operative Ltd.", "nrb_class": "co-operative", "phone": "011-411193"}}, {"type": "node", "id": 10230035003, "lat": 27.6158844, "lon": 85.4930974, "tags": {"addr:street": "Bashdol", "amenity": "bank", "name": "Shree Bandebi Mahila Krisi Sahakari Sanstha", "nrb_class": "co-operative"}}, {"type": "node", "id": 10230035004, "lat": 27.6568344, "lon": 85.5022467, "tags": {"addr:street": "Nala", "amenity": "bank", "name": "Janasakti Jadibutti Sahakari Sanstha Limited", "nrb_class": "co-operative", "phone": "9741018820"}}, {"type": "node", "id": 10230035005, "lat": 27.6552342, "lon": 85.5051722, "tags": {"addr:street": "Nala", "amenity": "bank", "name": "Budol Samudyik Savings And Credit Co-Operative Ltd", "nrb_class": "co-operative", "phone": "11411192"}}, {"type": "node", "id": 10230035006, "lat": 27.6582569, "lon": 85.5162772, "tags": {"addr:street": "Shera", "amenity": "bank", "name": "Chandeshwori Saving And Credit Cooperative Ltd", "nrb_class": "co-operative", "phone": "11662914"}}, {"type": "node", "id": 10230035007, "lat": 27.6536, "lon": 85.5109933, "tags": {"addr:street": "Nala", "amenity": "bank", "name": "Hamro Sewa Saving And Credit Cooperative", "nrb_class": "co-operative", "phone": "114111232"}}, {"type": "node", "id": 10230035008, "lat": 27.6533827, "lon": 85.5087618, "tags": {"addr:street": "Nala", "amenity": "bank", "email": "nala@pfltd.com.np", "name": "Progressive Finance Limited", "nrb_class": "finance"}}, {"type": "node", "id": 10230035009, "lat": 27.6402042, "lon": 85.4810808, "tags": {"addr:street": "Sanga", "amenity": "bank", "name": "Samudayik Lagubitta Bitiya Sanstha Limited", "nrb_class": "finance", "phone": "11662251"}}, {"type": "node", "id": 10230035010, "lat": 27.6407, "lon": 85.4801487, "tags": {"addr:street": "Sanga", "amenity": "bank", "name": "Shree Bhanjyang Multipurpose Co-Operative Society Ltd", "nrb_class": "co-operative"}}, {"type": "node", "id": 10230035011, "lat": 27.6319323, "lon": 85.494616, "tags": {"addr:street": "Bhaisipati", "amenity": "bank", "name": "Basdol Saving And Credit Cooperative Ltd", "nrb_class": "co-operative"}}, {"type": "node", "id": 10230035012, "lat": 27.6318655, "lon": 85.4947336, "tags": {"addr:street": "Bhaisipati", "amenity": "bank", "name": "Wean Nepal Laghubitta", "name:ne": "\u0935\u093f\u0928 \u0928\u0947\u092a\u093e\u0932 \u0932\u0918\u0941\u0935\u093f\u0924\u094d\u0924 \u0935\u093f\u0924\u093f\u090f \u0938\u0902\u0938\u094d\u0925\u093e", "nrb_class": "microfinance"}}, {"type": "node", "id": 10230035013, "lat": 27.6325613, "lon": 85.5100272, "tags": {"addr:street": "Pulbazar", "amenity": "bank", "name": "Sewanung Sacoos", "name:ne": "\u0938\u0947\u0935\u093e\u0928\u0941\u0919 \u0938\u093e\u0915\u094b\u0938", "nrb_class": "co-operative", "phone": "11661433"}}, {"type": "node", "id": 10230035014, "lat": 27.6325124, "lon": 85.5113922, "tags": {"addr:street": "Pulbazar", "amenity": "bank", "name": "Aarambha Chautari Laghubitta", "nrb_class": "microfinance"}}, {"type": "node", "id": 10230035015, "lat": 27.6319901, "lon": 85.5130742, "tags": {"addr:street": "Pulbazar", "amenity": "bank", "name": "Progressive Finance Limited", "nrb_class": "finance", "phone": "11660132"}}, {"type": "node", "id": 10230035016, "lat": 27.6320192, "lon": 85.5131345, "tags": {"addr:street": "Pulbazar", "amenity": "bank", "name": "Siddhadevi Saving And Credit Cooperative", "name:ne": "\u0938\u093f\u0926\u094d\u0927\u0926\u0947\u0935\u0940 \u092c\u091a\u0924 \u0924\u0925\u093e \u090b\u0923 \u0938\u0939\u0915\u093e\u0930\u0940 \u0938\u0902\u0938\u094d\u0925\u093e \u0932\u093f\u092e\u093f\u091f\u0947\u0921", "nrb_class": "co-operative"}}, {"type": "node", "id": 10230035017, "lat": 27.6322042, "lon": 85.5131607, "tags": {"addr:street": "Pulbazar", "amenity": "bank", "name": "Swornim Saving And Credit Cooperative", "nrb_class": "co-operative"}}, {"type": "node", "id": 10230035018, "lat": 27.6324864, "lon": 85.5132159, "tags": {"addr:street": "Pulbazar", "amenity": "bank", "name": "Rupantaran Saving And Credit Cooperative", "nrb_class": "co-operative"}}, {"type": "node", "id": 10230035019, "lat": 27.6219835, "lon": 85.5239133, "tags": {"addr:street": "Dhaneshwor", "amenity": "bank", "email": "shreeswetganesh2022@gmail.com", "name": "Shree Sweet Ganesh Saving And Credit Co-Operative Ltd.", "nrb_class": "co-operative", "phone": "011-665491"}}, {"type": "node", "id": 10230035020, "lat": 27.6255536, "lon": 85.5159514, "tags": {"addr:street": "Sinagal", "amenity": "bank", "email": "sinagalsamudaya@gmail.com", "name": "Shree Sinagal Community Saving And Credit Co-Operative Ltd.", "nrb_class": "co-operative", "phone": "011-660273"}}, {"type": "node", "id": 10230035021, "lat": 27.6229791, "lon": 85.5238489, "tags": {"addr:street": "Dhaneshwor", "amenity": "bank", "name": "Shree Arniko Namuna Saving And Credit Co-Operative Ltd.", "nrb_class": "co-operative", "phone": "011-663976"}}, {"type": "node", "id": 10230035022, "lat": 27.6409693, "lon": 85.4803685, "tags": {"addr:street": "Sanga", "amenity": "bank", "name": "Ganapati Laghubitta Bittiya Sanstha Limited", "nrb_class": "microfinance", "phone": "011-662379", "website": "www.ganapatimicro.com.np"}}, {"type": "node", "id": 10230035023, "lat": 27.640971, "lon": 85.4802504, "tags": {"addr:street": "Sanga", "amenity": "bank", "name": "Mahila Laghubitta Bittiya Sanstha Limited", "nrb_class": "co-operative"}}, {"type": "node", "id": 10230035024, "lat": 27.6409383, "lon": 85.4801717, "tags": {"addr:street": "Sanga", "amenity": "bank", "name": "Surodaya Womi Laghubitta Bittiya Sanstha Limited", "nrb_class": "co-operative", "phone": "011-662275"}}, {"type": "node", "id": 10230035025, "lat": 27.6409173, "lon": 85.4801697, "tags": {"addr:street": "Sanga", "amenity": "bank", "name": "Century Bank"}}, {"type": "node", "id": 10230035026, "lat": 27.6418504, "lon": 85.4802045, "tags": {"addr:street": "Sanga", "amenity": "bank", "name": "Rasteo Utthan Laghubitta Bittiya Sanstha Ltd.", "nrb_class": "microfinance", "phone": "011-660073", "website": "www.rulbsl.com.np"}}, {"type": "node", "id": 10230035027, "lat": 27.6414216, "lon": 85.4805888, "tags": {"addr:street": "Sanga", "amenity": "bank", "name": "Sadhajyoti Saving And Credit Co-Operative Ltd.", "nrb_class": "co-operative"}}, {"type": "node", "id": 10230035028, "lat": 27.6370203, "lon": 85.5137176, "tags": {"amenity": "bank", "name": "Shakti Saving And Credit Co-Operative Ltd.", "nrb_class": "co-operative", "phone": "011-662833"}}, {"type": "node", "id": 10230035029, "lat": 27.6308769, "lon": 85.5200257, "tags": {"amenity": "bank", "name": "Saatthi Saving And Credit Co-Operative Ltd.", "nrb_class": "co-operative", "phone": "011-661248"}}, {"type": "node", "id": 10230035030, "lat": 27.6308635, "lon": 85.5197094, "tags": {"amenity": "bank", "name": "Banepa Saving And Credit Co-Operative Ltd.", "nrb_class": "co-operative", "phone": "011-660462, 691351"}}, {"type": "node", "id": 10230035031, "lat": 27.6308849, "lon": 85.5196356, "tags": {"amenity": "bank", "name": "Hamro Sagarmatha Multipurpose Co-Operative Ltd.", "nrb_class": "co-operative", "phone": "01-2180200"}}, {"type": "node", "id": 10230035032, "lat": 27.6309974, "lon": 85.5195119, "tags": {"amenity": "bank", "name": "Our Standard Saving And Credit Co-Operative Ltd.", "nrb_class": "co-operative", "phone": "011-664415"}}, {"type": "node", "id": 10230035033, "lat": 27.6309414, "lon": 85.5194222, "tags": {"amenity": "bank", "name": "Sakriya Saving And Credit Co-Operative Ltd.", "nrb_class": "co-operative", "phone": "011-663388"}}, {"type": "node", "id": 10230035034, "lat": 27.6320093, "lon": 85.5182643, "tags": {"amenity": "bank", "name": "Anglo Saving And Credit Co-Operative Ltd.", "nrb_class": "co-operative", "phone": "011-660149"}}, {"type": "node", "id": 10230035035, "lat": 27.63153, "lon": 85.5178033, "tags": {"amenity": "bank", "name": "Aadhrasha Aarthik Vikash Saving And Credit Co-Operative Ltd.", "nrb_class": "co-operative", "phone": "011-661076"}}, {"type": "node", "id": 10230035036, "lat": 27.6318175, "lon": 85.5167429, "tags": {"addr:street": "Pulbazzar", "amenity": "bank", "name": "Shree Sambriddhi Jana Utthan Saving And Credit Co-Operative Ltd.", "nrb_class": "co-operative", "phone": "011-665324"}}, {"type": "node", "id": 10230035037, "lat": 27.6322165, "lon": 85.5157061, "tags": {"addr:street": "Pulbazar", "amenity": "bank", "name": "Sanchit Saving And Credit Co-Operative Society Ltd.", "nrb_class": "co-operative", "phone": "011-662403"}}, {"type": "node", "id": 10230035038, "lat": 27.6320991, "lon": 85.5155365, "tags": {"amenity": "bank", "name": "Indreni Saving And Credit Co-Operative Ltd", "nrb_class": "co-operative", "phone": "011-66505"}}, {"type": "node", "id": 10230035039, "lat": 27.6309394, "lon": 85.5191365, "tags": {"amenity": "bank", "name": "Himalayan Bank Ltd", "nrb_class": "development"}}, {"type": "node", "id": 10230035040, "lat": 27.6308038, "lon": 85.5179495, "tags": {"amenity": "bank", "name": "Karuna Saving And Credit Co-Operative Ltd.", "nrb_class": "co-operative", "phone": "011-663655"}}, {"type": "node", "id": 10230035041, "lat": 27.6295724, "lon": 85.5209079, "tags": {"amenity": "bank", "email": "kritisaccos@gmail.com", "name": "Kriti Saving And Credit Co-Operative Ltd.", "nrb_class": "co-operative", "phone": "011-661034"}}, {"type": "node", "id": 10230035042, "lat": 27.6306823, "lon": 85.521207, "tags": {"amenity": "bank", "name": "Jhigu Sahayogi Saving And Credit Co-Operative Ltd.", "nrb_class": "co-operative", "phone": "011-661325"}}, {"type": "node", "id": 10230035043, "lat": 27.6309352, "lon": 85.5204811, "tags": {"amenity": "bank", "name": "Samaya Saving And Credit Co-Operative Ltd", "nrb_class": "co-operative", "phone": "01-663108"}}, {"type": "node", "id": 10230035044, "lat": 27.6333829, "lon": 85.5217028, "tags": {"amenity": "bank", "name": "Shree Ganesh Saving And Credit Co-Operative Ltd.", "nrb_class": "co-operative", "phone": "011-660469"}}, {"type": "node", "id": 10230035045, "lat": 27.6341166, "lon": 85.5181927, "tags": {"addr:street": "Karuna marga", "amenity": "bank", "name": "Shiva Ananda Agriculture Co-Operative Ltd.", "nrb_class": "co-operative", "phone": "011-663203"}}, {"type": "node", "id": 10230035046, "lat": 27.6336488, "lon": 85.5183099, "tags": {"addr:street": "Karuna marga", "amenity": "bank", "name": "Lakhpati Saving And Credit Co-Operative Ltd.", "nrb_class": "co-operative", "phone": "600954745"}}, {"type": "node", "id": 10230035047, "lat": 27.6301573, "lon": 85.5233308, "tags": {"amenity": "bank", "name": "Garima Bikas Bank Limited", "nrb_class": "development", "website": "https://www.garimabank.com.np/"}}, {"type": "node", "id": 10230035048, "lat": 27.6303922, "lon": 85.5223405, "tags": {"amenity": "bank", "name": "Shree Pashupati Saving And Credit Co-Operative Ltd.", "nrb_class": "co-operative", "phone": "011-663418, 6685847"}}, {"type": "node", "id": 10230035049, "lat": 27.6300271, "lon": 85.5219669, "tags": {"amenity": "bank", "name": "Himgiri Saving And Credit Co-Operatives Ltd.", "nrb_class": "co-operative", "phone": "011-665432"}}, {"type": "node", "id": 10230035050, "lat": 27.6295393, "lon": 85.5218779, "tags": {"amenity": "bank", "name": "Aadarsha Saving And Credit Co-Ooerative Ltd.", "nrb_class": "co-operative", "phone": "011-660113"}}, {"type": "node", "id": 10230035051, "lat": 27.6272015, "lon": 85.5228519, "tags": {"addr:street": "Dhaneshwor Road", "amenity": "bank", "name": "Machapuchre Multipurpose Co-Coperative Sanstha Ltd.", "nrb_class": "co-operative"}}, {"type": "node", "id": 10230035052, "lat": 27.6262991, "lon": 85.522963, "tags": {"addr:street": "Dhaneshwor Road", "amenity": "bank", "email": "janaprabhat52@gmail.com", "name": "Shree Janaprabhat Multipurpose Co-Operative Society Limited", "nrb_class": "co-operative", "phone": "011-663186"}}, {"type": "node", "id": 10230035053, "lat": 27.6285867, "lon": 85.5235575, "tags": {"amenity": "bank", "name": "Sahayogi Saving And Credit Co-Operative Ltd.", "nrb_class": "co-operative", "phone": "011-660846"}}, {"type": "node", "id": 10230035054, "lat": 27.6293947, "lon": 85.5237259, "tags": {"amenity": "bank", "name": "Shree Dapcha Janmukhi Bachat Tatha Rin Sahakari Sanstha Limited", "nrb_class": "co-operative", "phone": "011-665004"}}, {"type": "node", "id": 10230035055, "lat": 27.629679, "lon": 85.5242976, "tags": {"amenity": "bank", "name": "Lalima Bachat Tatha Rin Sahakari Sanstha Ltd.", "nrb_class": "co-operative"}}, {"type": "node", "id": 10230035056, "lat": 27.6296995, "lon": 85.5243679, "tags": {"amenity": "bank", "name": "Bagmati Province Federation Of Saving And Credit Co-Operative Union Ltd.", "nrb_class": "co-operative", "phone": "011-665368"}}, {"type": "node", "id": 10230035057, "lat": 27.6408132, "lon": 85.4801788, "tags": {"addr:street": "Sanga", "amenity": "bank", "name": "Vision Saving And Cooperative Ltd", "nrb_class": "co-operative", "phone": "14431900"}}, {"type": "node", "id": 10230035058, "lat": 27.6415526, "lon": 85.4801456, "tags": {"addr:street": "Saga", "amenity": "bank", "name": "Aafnai Biswasilo Agriculture Cooperative", "nrb_class": "co-operative", "phone": "9841245002"}}, {"type": "node", "id": 10230035059, "lat": 27.6314994, "lon": 85.4950165, "tags": {"addr:street": "Nasikasthan", "amenity": "bank", "name": "Shree Yeti", "nrb_class": "co-operative"}}, {"type": "node", "id": 10230035060, "lat": 27.6291067, "lon": 85.5275033, "tags": {"amenity": "bank", "email": "expresssaccos@gmail.com", "name": "Expresssaving And Credit Co-Operatives Ltd.", "nrb_class": "co-operative", "phone": "011-660860, 6991119", "website": "https://expresssaccos.coop.np/"}}, {"type": "node", "id": 10230035061, "lat": 27.6291176, "lon": 85.5274809, "tags": {"amenity": "bank", "name": "Gramin Bikash Laghubitta Bitiya Sanstha Ltd.", "nrb_class": "microfinance"}}, {"type": "node", "id": 10230035062, "lat": 27.6291011, "lon": 85.5274743, "tags": {"amenity": "bank", "name": "Mukul Saving And Credit Co-Operative Ltd.", "nrb_class": "co-operative", "phone": "011-661070"}}, {"type": "node", "id": 10230035063, "lat": 27.6291727, "lon": 85.5281397, "tags": {"amenity": "bank", "name": "Ideal Bachat Tatha Rin Sahakari Sanstha Ltd.", "nrb_class": "co-operative", "phone": "011-660105"}}, {"type": "node", "id": 10230035064, "lat": 27.6293174, "lon": 85.5269713, "tags": {"amenity": "bank", "name": "Aashapuri Bachat Tatha Rin Sahakari Sanstha Ltd.", "nrb_class": "co-operative"}}, {"type": "node", "id": 10230035065, "lat": 27.6295866, "lon": 85.5257384, "tags": {"amenity": "bank", "name": "Radhakrishna Bachat Tatha Rin Sahakari Sanstha Ltd.", "nrb_class": "co-operative", "phone": "011-664642"}}, {"type": "node", "id": 10230035066, "lat": 27.6301514, "lon": 85.5243353, "tags": {"amenity": "bank", "name": "Draupada Saving And Credit Co-Operative Ltd.", "nrb_class": "co-operative"}}, {"type": "node", "id": 10230035067, "lat": 27.6302338, "lon": 85.5242108, "tags": {"amenity": "bank", "name": "New Vision Multipurpose And Co- Operatives", "nrb_class": "co-operative"}}, {"type": "node", "id": 10230035068, "lat": 27.6303045, "lon": 85.5241181, "tags": {"amenity": "bank", "name": "Muktinath Bikash Bank", "nrb_class": "development"}}, {"type": "node", "id": 10230035069, "lat": 27.631072, "lon": 85.5238916, "tags": {"amenity": "bank", "name": "Lumanti Multipurpose And Co-Operatives Ltd.", "nrb_class": "co-operative", "phone": "011-661324"}}, {"type": "node", "id": 10230035070, "lat": 27.6323817, "lon": 85.4963206, "tags": {"addr:street": "Bhaisipati", "amenity": "bank", "name": "Manushi Lagubitta Bitiya Sanstha Limited", "nrb_class": "microfinance"}}, {"type": "node", "id": 10230035071, "lat": 27.6316192, "lon": 85.5049441, "tags": {"addr:street": "Janagal", "amenity": "bank", "name": "Sidyeshwori Krishi Sahakari Sanstha Limited", "nrb_class": "co-operative", "phone": "9869524336"}}, {"type": "node", "id": 10230035072, "lat": 27.6322596, "lon": 85.5111268, "tags": {"addr:street": "Pulbazzar", "amenity": "bank", "name": "Peoples Saving And Credit Co-Operative Ltd", "nrb_class": "co-operative"}}, {"type": "node", "id": 10230035073, "lat": 27.6319555, "lon": 85.5133042, "tags": {"addr:street": "Pulbazzar", "amenity": "bank", "name": "Gurkhas Finance Ltd.", "nrb_class": "finance", "phone": "11663295"}}, {"type": "node", "id": 10230035074, "lat": 27.6319615, "lon": 85.5134084, "tags": {"addr:street": "Pulbazzar", "amenity": "bank", "name:ne": "\u0936\u094d\u0930\u0940 \u0935\u093f\u0915\u0924\u0947\u0936\u094d\u0935\u094b\u0930 \u092c\u0939\u0941\u0909\u0926\u094d\u0926\u0947\u0936\u094d\u092f\u0940\u092f \u0938\u0939\u0915\u093e\u0930\u0940 \u0938\u0902\u0938\u094d\u0925\u093e \u0932\u093f", "nrb_class": "co-operative", "phone": "11665349"}}, {"type": "node", "id": 10230035075, "lat": 27.6319714, "lon": 85.5140983, "tags": {"addr:street": "Pulbazzar", "amenity": "bank", "name": "Rudramakaya Savings And Credit Co-Operative Ltd", "nrb_class": "co-operative"}}, {"type": "node", "id": 10230035076, "lat": 27.6319536, "lon": 85.5139976, "tags": {"addr:street": "Pulbazzar", "amenity": "bank", "name": "National Microfinance Lagubitta Bitiya Sanstha Limited", "nrb_class": "microfinance"}}, {"type": "node", "id": 10230035077, "lat": 27.6323041, "lon": 85.5137722, "tags": {"addr:street": "Pulbazzar", "amenity": "bank", "name": "Garud Savings And Credit Co-Operative Ltd", "nrb_class": "co-operative", "phone": "11662034"}}, {"type": "node", "id": 10230035078, "lat": 27.6323533, "lon": 85.5120779, "tags": {"addr:street": "Pulbazzar", "amenity": "bank", "name": "Shree Dakshikali Savings And Credit Co-Operative Ltd", "nrb_class": "co-operative"}}, {"type": "node", "id": 10230035079, "lat": 27.6326067, "lon": 85.5132587, "tags": {"addr:street": "Pulbazzar", "amenity": "bank", "name": "Um Savings And Credit Co-Operative Ltd", "nrb_class": "co-operative", "phone": "11401091"}}, {"type": "node", "id": 10230035080, "lat": 27.6324958, "lon": 85.5141601, "tags": {"addr:street": "Pulbazzar", "amenity": "bank", "name": "Shusiddhi Savings And Credit Co-Operative Ltd", "nrb_class": "co-operative", "phone": "11691125"}}, {"type": "node", "id": 10230035081, "lat": 27.6317709, "lon": 85.5186303, "tags": {"addr:street": "Tindobato", "amenity": "bank", "name": "Sasradhara Dugdh Utpadak Sahakari Sanstha Ltd", "nrb_class": "co-operative"}}, {"type": "node", "id": 10230035082, "lat": 27.6322234, "lon": 85.5151535, "tags": {"addr:street": "Pulbazar", "amenity": "bank", "name": "Bpw Laghubitta Bittiya Sanstha Ltd", "nrb_class": "microfinance"}}, {"type": "node", "id": 10230035083, "lat": 27.631216, "lon": 85.5178636, "tags": {"addr:street": "Pulbazar", "amenity": "bank", "name": "Nmb Bank", "nrb_class": "development"}}, {"type": "node", "id": 10230035084, "lat": 27.6335284, "lon": 85.5174077, "tags": {"addr:street": "Pulbazar", "amenity": "bank", "name": "Basuki United Consumers Cooperative Ltd", "name:ne": "\u0935\u093e\u0938\u0941\u0915\u0940 \u0909\u092a\u092d\u094b\u0915\u094d\u0924\u093e \u0938\u0939\u0915\u093e\u0930\u0940 ltd", "nrb_class": "co-operative"}}, {"type": "node", "id": 10230035085, "lat": 27.6296965, "lon": 85.5217248, "tags": {"addr:street": "Godamchok", "amenity": "bank", "name:ne": "\u0932\u0938\u0915\u0941\u0938 \u092c\u091a\u0924 \u0924\u0925\u093e \u090b\u0923 \u0938\u0939\u0915\u093e\u0930\u0940 \u0938\u0902\u0938\u094d\u0925\u093e \u0932\u0940.", "nrb_class": "co-operative", "phone": "11661707"}}, {"type": "node", "id": 10230035086, "lat": 27.6277622, "lon": 85.5223921, "tags": {"addr:street": "Godamchok", "amenity": "bank", "name": "Arpan Saving And Credit Cooperative Ltd", "nrb_class": "co-operative"}}, {"type": "node", "id": 10230035087, "lat": 27.6288638, "lon": 85.5286135, "tags": {"amenity": "bank", "name": "Swoheet Saving And Credit Cooperative Ltd", "nrb_class": "co-operative", "phone": "11660211"}}, {"type": "node", "id": 10230035088, "lat": 27.6288812, "lon": 85.5301088, "tags": {"amenity": "bank", "name": "Samridda Kavre Krishi Sahakari Sanstha Ltd", "nrb_class": "co-operative", "phone": "11663375"}}, {"type": "node", "id": 10230035089, "lat": 27.6298851, "lon": 85.5253734, "tags": {"amenity": "bank", "name": "Reliance Finance Limited", "nrb_class": "finance"}}, {"type": "node", "id": 10230035090, "lat": 27.6310243, "lon": 85.5238756, "tags": {"amenity": "bank", "name": "Hitaisi Saving And Credit Cooperative", "nrb_class": "co-operative", "phone": "11691254"}}, {"type": "node", "id": 10230035091, "lat": 27.6317697, "lon": 85.517591, "tags": {"addr:street": "Pulbazzar", "amenity": "bank", "name": "Icfc Finance Limited", "nrb_class": "finance"}}, {"type": "node", "id": 10230035092, "lat": 27.6320678, "lon": 85.5165447, "tags": {"addr:street": "Pulbazzar", "amenity": "bank", "name": "Bishworupa Savings And Credit Co-Operative Ltd", "nrb_class": "co-operative", "phone": "11665514"}}, {"type": "node", "id": 10230035093, "lat": 27.6322218, "lon": 85.5154083, "tags": {"addr:street": "Pulbazzar", "amenity": "bank", "name": "Bajrabahari Savings And Credit Co-Operative Ltd", "nrb_class": "co-operative"}}, {"type": "node", "id": 10230035094, "lat": 27.6310562, "lon": 85.5165024, "tags": {"addr:street": "Punyashwor marga", "amenity": "bank", "name": "Sumarga Savings And Credit Co-Operative Ltd", "nrb_class": "co-operative", "phone": "11663043"}}, {"type": "node", "id": 10230035095, "lat": 27.6311841, "lon": 85.5179399, "tags": {"addr:street": "Teendobato", "amenity": "bank", "name": "Annapurna Savings And Credit Co-Operative Ltd", "nrb_class": "co-operative", "phone": "16636509"}}, {"type": "node", "id": 10230035096, "lat": 27.6311687, "lon": 85.51795, "tags": {"addr:street": "Teendobato", "amenity": "bank", "name": "Peoples Saving And Credit Co-Operative Ltd", "nrb_class": "co-operative", "phone": "11665507"}}, {"type": "node", "id": 10230035097, "lat": 27.6311338, "lon": 85.5181859, "tags": {"addr:street": "Buspark", "amenity": "bank", "name": "Upakar Savings And Credit Co-Operative Ltd", "nrb_class": "co-operative", "phone": "11660865"}}, {"type": "node", "id": 10230035098, "lat": 27.6309182, "lon": 85.5178742, "tags": {"addr:street": "Sinagal", "amenity": "bank", "name": "Agni Savings And Credit Co-Operative Ltd", "nrb_class": "co-operative", "phone": "11663523"}}, {"type": "node", "id": 10230035099, "lat": 27.6307736, "lon": 85.5181424, "tags": {"addr:street": "Sinagal", "amenity": "bank", "name": "Prabhu Savings And Credit Co-Operative Ltd", "nrb_class": "co-operative", "phone": "11665329"}}, {"type": "node", "id": 10230035100, "lat": 27.6294147, "lon": 85.5197445, "tags": {"addr:street": "Buspark", "amenity": "bank", "name": "Millennium Savings And Credit Co-Operative Ltd", "nrb_class": "co-operative", "phone": "11662442"}}, {"type": "node", "id": 10230035101, "lat": 27.6305863, "lon": 85.5210032, "tags": {"addr:street": "Buspark", "amenity": "bank", "name": "Panas Savings And Credit Co-Operative Ltd", "nrb_class": "co-operative", "phone": "11661035"}}, {"type": "node", "id": 10230035102, "lat": 27.6305364, "lon": 85.5210689, "tags": {"addr:street": "Buspark", "amenity": "bank", "name": "Alfa Savings And Credit Co-Operative Ltd", "nrb_class": "co-operative", "phone": "11662734"}}, {"type": "node", "id": 10230035103, "lat": 27.6304135, "lon": 85.5216375, "tags": {"addr:street": "Buspark", "amenity": "bank", "name": "Shiladevi Agriculture Co-Operative Ltd", "nrb_class": "co-operative"}}, {"type": "node", "id": 10230035104, "lat": 27.6310924, "lon": 85.5206658, "tags": {"addr:street": "Chadani Chowk", "amenity": "bank", "name": "Nawa Jaluke Samudyik Bachat Tatha Rid Sahakari Sanstha Limited", "nrb_class": "co-operative", "phone": "11660044"}}, {"type": "node", "id": 10230035105, "lat": 27.6317299, "lon": 85.5203606, "tags": {"addr:street": "Chaitanya road", "amenity": "bank", "name": "Unity Savings And Credit Co-Operative Ltd", "nrb_class": "co-operative"}}, {"type": "node", "id": 10230035106, "lat": 27.6321024, "lon": 85.5204664, "tags": {"addr:street": "Chaitanya road", "amenity": "bank", "name": "Memorial Savings & Credit Co-Operative Ltd", "nrb_class": "co-operative", "phone": "11660648"}}, {"type": "node", "id": 10230035107, "lat": 27.632266, "lon": 85.5204393, "tags": {"addr:street": "Layeku", "amenity": "bank", "name": "Araniko Bachat Tatha Rid Sahakari Sanstha Limited", "nrb_class": "co-operative", "phone": "11664409"}}, {"type": "node", "id": 10230035108, "lat": 27.6363496, "lon": 85.5167071, "tags": {"addr:street": "Naya Basti", "amenity": "bank", "name": "Sangam Nari Chetana Bahuudashya Sahakari Sanstha Limited", "nrb_class": "co-operative"}}, {"type": "node", "id": 10230035109, "lat": 27.6341555, "lon": 85.5180779, "tags": {"addr:street": "Karuna Marga", "amenity": "bank", "name": "Shree Mandan Agriculture Co-Operative Ltd", "nrb_class": "co-operative", "phone": "11660393"}}, {"type": "node", "id": 10230035110, "lat": 27.6338442, "lon": 85.5184533, "tags": {"addr:street": "Karuna Marga", "amenity": "bank", "name": "Saunepadheri Savings And Credit Co-Operative Ltd", "nrb_class": "co-operative", "phone": "11660193"}}, {"type": "node", "id": 10230035111, "lat": 27.6335273, "lon": 85.5184341, "tags": {"addr:street": "\u0915\u0930\u0923\u093e \u092e\u093e\u0930\u094d\u0917", "amenity": "bank", "name:ne": "\u090f\u0915\u0924\u093e \u092c\u091a\u0924 \u0924\u0925\u093e \u090b\u0923 \u0938\u0939\u0915\u093e\u0930\u0940 \u0938\u0902\u0938\u094d\u0925\u093e \u0932\u093f", "nrb_class": "co-operative", "phone": "11664028"}}, {"type": "node", "id": 10230035112, "lat": 27.6335367, "lon": 85.5174645, "tags": {"addr:street": "Pulbazzar", "amenity": "bank", "name": "Star Saving And Credit Co-Operative Ltd.", "nrb_class": "co-operative", "phone": "11660135"}}, {"type": "node", "id": 10230035113, "lat": 27.6318909, "lon": 85.524655, "tags": {"addr:street": "Ghatale", "amenity": "bank", "name": "Samajik Multipurpose Co-Oerative Ltd.", "nrb_class": "co-operative", "phone": "011-665420"}}, {"type": "node", "id": 10230035114, "lat": 27.6313925, "lon": 85.5239088, "tags": {"addr:street": "Woku", "amenity": "bank", "name": "Premier Saving Ans Credit Co-Operative Ltd.", "nrb_class": "co-operative", "phone": "011-660676"}}, {"type": "node", "id": 10230035115, "lat": 27.6310393, "lon": 85.5246118, "tags": {"addr:street": "Woku", "amenity": "bank", "name": "Ime"}}, {"type": "node", "id": 10230035116, "lat": 27.6307731, "lon": 85.5254873, "tags": {"amenity": "bank", "name": "Ugratara Saving And Credit Cooperative Ltd.", "nrb_class": "co-operative", "phone": "11664027"}}, {"type": "node", "id": 10230035117, "lat": 27.6305307, "lon": 85.5274417, "tags": {"addr:street": "Bhimsensthan", "amenity": "bank", "name": "Ajima Sacos", "nrb_class": "co-operative"}}, {"type": "node", "id": 10230035119, "lat": 27.6270462, "lon": 85.5237348, "tags": {"addr:street": "Godam chowk", "amenity": "bank", "name:ne": "\u092d\u0941\u0924\u092a\u0941\u0930\u094d\u0935 \u0938\u0948\u0928\u093f\u0915 \u0938\u0941\u092d\u0915\u093e\u092e\u0928\u093e \u092c\u0939\u0941\u0909\u0926\u094d\u0926\u0947\u0936\u094d\u092f\u0940\u092f \u0938\u0939\u0915\u093e\u0930\u0940 \u0938\u0902\u0938\u094d\u0925\u093e \u0932\u093f", "nrb_class": "co-operative"}}, {"type": "node", "id": 10230035120, "lat": 27.6271945, "lon": 85.5236906, "tags": {"amenity": "bank", "name": "Laxmi Mahila Saving & Credit Co-Operative Society Ltd.", "nrb_class": "co-operative", "phone": "11660060"}}, {"type": "node", "id": 10230035121, "lat": 27.6313634, "lon": 85.5226631, "tags": {"amenity": "bank", "name": "Sunaulo Bihani Saving And Credit Co-Operative Ltd.", "nrb_class": "co-operative"}}, {"type": "node", "id": 10230035122, "lat": 27.6298411, "lon": 85.5235746, "tags": {"addr:street": "Chardobato", "amenity": "bank", "email": "sakshamsaccos@gmail.com", "name": "Saksham Saving And Credit Co-Operative Ltf", "nrb_class": "co-operative", "phone": "11685900"}}, {"type": "node", "id": 10230035123, "lat": 27.6278318, "lon": 85.5223661, "tags": {"addr:street": "Godam Chowk", "amenity": "bank", "name": "Adarsha Laghubitta Bittiya Sanstha Ltd.", "nrb_class": "microfinance"}}, {"type": "node", "id": 10230035124, "lat": 27.6287491, "lon": 85.5223858, "tags": {"amenity": "bank", "name:ne": "\u0939\u093e\u092e\u094d\u0930\u094b \u0906\u092b\u094d\u0928\u0948 \u092c\u0939\u0941\u0909\u0926\u094d\u0926\u0947\u0936\u094d\u092f\u0940\u092f \u0938\u0939\u0915\u093e\u0930\u0940 \u0938\u0902\u0938\u094d\u0925\u093e \u0932\u093f", "nrb_class": "co-operative", "phone": "11663749"}}, {"type": "node", "id": 10230035125, "lat": 27.6280662, "lon": 85.5232624, "tags": {"addr:street": "Godam Chowk", "amenity": "bank", "email": "samriddhabanepa01@gmail.com", "name": "Samriddha Nepal Agricultural Co-Operative Ltd", "nrb_class": "co-operative", "phone": "11421080", "website": "www.samriddhacooperative.com.np"}}, {"type": "node", "id": 10230035126, "lat": 27.6271109, "lon": 85.5238424, "tags": {"addr:street": "Godamchowk", "amenity": "bank", "email": "gaunlesaccos57@gmail.com", "name": "Gaunle Saving & Credit Cooperative Society Ltd", "nrb_class": "co-operative", "phone": "11664117"}}, {"type": "node", "id": 10230035127, "lat": 27.6268975, "lon": 85.5238953, "tags": {"addr:street": "Godamchowk", "amenity": "bank", "name": "Joyti Multi-Purpose Cooperative Society Limited", "nrb_class": "co-operative", "phone": "11660494", "website": "www.joyticoop.com.np"}}, {"type": "node", "id": 10230035128, "lat": 27.6300429, "lon": 85.5285775, "tags": {"amenity": "bank", "name": "Nepal Buddha Bachat Tatha Sahakari Sanstha", "nrb_class": "co-operative", "phone": "11660670"}}, {"type": "node", "id": 10230035129, "lat": 27.6293518, "lon": 85.5285261, "tags": {"addr:street": "Tarkari bazzar", "amenity": "bank", "name": "Upakar Bachat Tatha Sahakari Sanstha", "nrb_class": "co-operative", "phone": "11660793"}}, {"type": "node", "id": 10230035130, "lat": 27.6294785, "lon": 85.5237643, "tags": {"addr:street": "Chardobato", "amenity": "bank", "name": "Mega Bank", "opening_hours": "Su-Fr 09:00-17:00"}}, {"type": "node", "id": 10230035131, "lat": 27.6292169, "lon": 85.527165, "tags": {"addr:street": "Tarkari Bazzar", "amenity": "bank", "email": "info@umsaccos.coop.np", "name": "Um Saving & Credit Co-Operative Ltd.", "nrb_class": "co-operative", "opening_hours": "Su-Fr 09:00-17:00", "phone": "11662758", "website": "www.umsaccos.coop.np"}}, {"type": "node", "id": 10230035132, "lat": 27.629889, "lon": 85.522023, "tags": {"amenity": "bank", "name:ne": "\u092a\u094d\u0930\u092d\u093e\u0924 \u092c\u091a\u0924 \u0924\u0925\u093e \u090b\u0923 \u0938\u0939\u0915\u093e\u0930\u0940 \u0938\u0902\u0938\u094d\u0925\u093e \u0932\u093f", "nrb_class": "co-operative", "opening_hours": "Su-Fr 10:00-21:00"}}, {"type": "node", "id": 10230035133, "lat": 27.6526462, "lon": 85.5103949, "tags": {"addr:street": "Nala", "amenity": "bank", "name": "Dumo Saving And Credit Cooperative Society", "nrb_class": "co-operative", "opening_hours": "Su-Fr 09:00-16:00", "phone": "011-411013"}}, {"type": "node", "id": 10230035134, "lat": 27.6686553, "lon": 85.5106897, "tags": {"addr:street": "Nala", "amenity": "bank", "name": "Shree Swet Adarsha Multipurpose Cooperative Society Limited", "nrb_class": "co-operative", "opening_hours": "Su-Fr 09:00-17:00", "phone": "16213331"}}, {"type": "node", "id": 10230035135, "lat": 27.657311, "lon": 85.5023973, "tags": {"addr:street": "Nala", "amenity": "bank", "name": "Jiwansakti Jadibuti Sahakari Sanstha Limited", "nrb_class": "co-operative", "opening_hours": "Su-Fr 09:00-17:00", "phone": "97410118820"}}, {"type": "node", "id": 10230035136, "lat": 27.6551841, "lon": 85.5052718, "tags": {"addr:street": "Nala", "amenity": "bank", "name": "Budhol Samudyaik Bachat Tathaa Sarkari Sanstha Limited", "nrb_class": "co-operative", "opening_hours": "Su-Fr 09:00-17:00", "phone": "011-411192"}}, {"type": "node", "id": 10230035137, "lat": 27.6545502, "lon": 85.5061213, "tags": {"addr:street": "Nala", "amenity": "bank", "name": "Nagiripur Bachat Tathaa Sarkari Sanstha", "nrb_class": "co-operative", "opening_hours": "Su-Fr 09:00-17:00"}}, {"type": "node", "id": 10230035138, "lat": 27.6573827, "lon": 85.5169783, "tags": {"addr:street": "Nala,Shera", "amenity": "bank", "email": "Info@jyoticoop.np", "name": "Jyoti Bahuudeshihii Sahakari Sanstha Limited", "nrb_class": "co-operative", "opening_hours": "Su-Fr 09:00-16:00", "phone": "011-660494"}}, {"type": "node", "id": 10230035139, "lat": 27.653559, "lon": 85.5110138, "tags": {"addr:street": "Nala", "amenity": "bank", "name": "Shree Bhagwati Bachat Tathaa Sahakari Sanstha", "nrb_class": "co-operative", "opening_hours": "Su-Fr 09:00-16:00"}}, {"type": "node", "id": 10230035140, "lat": 27.6279479, "lon": 85.5234513, "tags": {"addr:street": "Godamchok", "amenity": "bank", "name": "Kavrepalanchok District Multipurpose Cooperative Ltd", "nrb_class": "co-operative", "opening_hours": "Su-Fr 10:00-17:00", "phone": "11660928"}}, {"type": "node", "id": 10230035141, "lat": 27.6277317, "lon": 85.5334348, "tags": {"addr:street": "Budol", "amenity": "bank", "name": "Budol Samudayik Credit And Cooperative", "nrb_class": "co-operative", "opening_hours": "Su-Fr 10:00-17:00", "phone": "011-660564", "website": "Www.budol.coop.np"}}, {"type": "node", "id": 10230035142, "lat": 27.613585, "lon": 85.4930053, "tags": {"addr:street": "Basdol", "amenity": "bank", "name": "Samudayak Bachat Tatha Rin Sahakari Sanstha Ltd", "nrb_class": "co-operative", "opening_hours": "Su-Fr 10:00-17:00", "phone": "011-441216"}}, {"type": "node", "id": 10230035143, "lat": 27.6130593, "lon": 85.4932005, "tags": {"addr:street": "Basdol", "amenity": "bank", "name": "Shree Basdol Samudayik Multipurpose Cooperative Ltd.", "nrb_class": "co-operative", "opening_hours": "Su-Fr 10:00-17:00", "phone": "011-663797"}}, {"type": "node", "id": 10230035144, "lat": 27.6314413, "lon": 85.5184626, "tags": {"addr:street": "Tindobato", "amenity": "bank", "name": "Aabhash Saving And Credit Cooperative Ltd", "nrb_class": "co-operative", "opening_hours": "Su-Fr 10:00-17:00", "phone": "11661120"}}, {"type": "node", "id": 10230035145, "lat": 27.6317273, "lon": 85.5172454, "tags": {"addr:street": "Pulbazar", "amenity": "bank", "name": "Sashwot Saving And Credit Cooperative Ltd", "nrb_class": "co-operative", "opening_hours": "Su-Fr 10:00-17:00", "phone": "11680194"}}, {"type": "node", "id": 10230035146, "lat": 27.6312161, "lon": 85.5197028, "tags": {"amenity": "bank", "name": "Rudrakshya Multipurpose Cooperative Ltd", "nrb_class": "co-operative", "opening_hours": "Su-Fr 10:00-17:00", "phone": "11661990"}}, {"type": "node", "id": 10230035147, "lat": 27.6313818, "lon": 85.5188808, "tags": {"addr:street": "Tindobato", "amenity": "bank", "name": "Namaste Saving And Credit Cooperative Ltd", "nrb_class": "co-operative", "opening_hours": "Su-Fr 10:00-17:00", "phone": "11664755"}}, {"type": "node", "id": 10230035148, "lat": 27.6313258, "lon": 85.5188607, "tags": {"addr:street": "Tindobato", "amenity": "bank", "name": "Shramik Janautthan Saving And Credit Cooperative Ltd", "nrb_class": "co-operative", "opening_hours": "Su-Fr 10:00-17:00"}}, {"type": "node", "id": 10230035149, "lat": 27.6334212, "lon": 85.5182292, "tags": {"addr:street": "Karuna Marga", "amenity": "bank", "name": "Rupantaran Saving And Credit Cooperative Ltd", "nrb_class": "co-operative", "opening_hours": "Su-Fr 10:00-17:00", "phone": "11663076"}}, {"type": "node", "id": 10230035150, "lat": 27.631491, "lon": 85.5184692, "tags": {"addr:street": "Tindobato", "amenity": "bank", "name": "Chadani Saving And Credit Cooperative Ltd", "nrb_class": "co-operative", "opening_hours": "Su-Fr 10:00-17:00"}}, {"type": "node", "id": 10230035151, "lat": 27.6318495, "lon": 85.5166454, "tags": {"addr:street": "Pulbazar", "amenity": "bank", "name": "Mirmire Laghubitta Bittiya Sanstha Ltd", "nrb_class": "microfinance", "opening_hours": "Su-Fr 10:00-17:00", "phone": "11662311"}}, {"type": "node", "id": 10230035152, "lat": 27.6313765, "lon": 85.5172699, "tags": {"addr:street": "Tindobato", "amenity": "bank", "name": "Manjushree Saving And Credit Cooperative Ltd", "nrb_class": "co-operative", "opening_hours": "Su-Fr 10:00-17:00", "phone": "11660635"}}, {"type": "node", "id": 10230035153, "lat": 27.630858, "lon": 85.5178865, "tags": {"addr:street": "Tindobato", "amenity": "bank", "name": "Karuna Saving And Credit Cooperative Ltd", "nrb_class": "co-operative", "opening_hours": "Su-Fr 10:00-17:00", "phone": "11663655"}}, {"type": "node", "id": 10230035154, "lat": 27.6308338, "lon": 85.5178616, "tags": {"addr:street": "Tindobato", "amenity": "bank", "name": "Agni Saving And Credit Coooerative Ltd", "nrb_class": "co-operative", "opening_hours": "Su-Fr 10:00-17:00", "phone": "11663523"}}, {"type": "node", "id": 10230035155, "lat": 27.630391, "lon": 85.5216861, "tags": {"addr:street": "Buspark", "amenity": "bank", "name": "Newa Pucha Saving And Credit Cooperative Ltd", "nrb_class": "co-operative", "opening_hours": "Su-Fr 10:00-17:00", "phone": "11664612"}}, {"type": "node", "id": 10230035156, "lat": 27.6303447, "lon": 85.5216894, "tags": {"addr:street": "Buspark", "amenity": "bank", "name": "Jhigu Bhintuna Saving And Credit Cooperative Ltd", "nrb_class": "co-operative", "opening_hours": "Su-Fr 10:00-17:00", "phone": "11661052"}}, {"type": "node", "id": 10230035157, "lat": 27.6320939, "lon": 85.5204032, "tags": {"addr:street": "Chaitanya Road", "amenity": "bank", "name": "Shree Mandala Saving And Credit Cooperative Ltd", "nrb_class": "co-operative", "opening_hours": "Su-Fr 10:00-17:00", "phone": "11660244"}}, {"type": "node", "id": 10230035158, "lat": 27.6321355, "lon": 85.520371, "tags": {"addr:street": "Chaitanya Road", "amenity": "bank", "name": "Siddhartha Saving And Credit Cooperative Ltd", "nrb_class": "co-operative", "opening_hours": "Su-Fr 10:00-17:00", "phone": "11662309"}}, {"type": "node", "id": 10230035159, "lat": 27.6330757, "lon": 85.5158277, "tags": {"addr:street": "Pulbazar", "amenity": "bank", "name": "Sugandha Saving And Credit Cooperative Ltd", "nrb_class": "co-operative", "opening_hours": "Su-Fr 10:00-17:00", "phone": "11664020"}}, {"type": "node", "id": 10230035160, "lat": 27.6276465, "lon": 85.5233474, "tags": {"addr:street": "Godam Chok", "amenity": "bank", "name": "Jyoi Mirmire Samuhik Saving And Credit Cooperative Ltd", "nrb_class": "co-operative", "opening_hours": "Su-Fr 10:00-17:00", "phone": "11662266"}}, {"type": "node", "id": 10230035161, "lat": 27.6309263, "lon": 85.523115, "tags": {"amenity": "bank", "name": "Shree Swostik Saving And Credit Cooperative Ltd", "nrb_class": "co-operative", "opening_hours": "Su-Fr 10:00-17:00", "phone": "11661577"}}, {"type": "node", "id": 10230035162, "lat": 27.6309768, "lon": 85.5231082, "tags": {"amenity": "bank", "name": "Shree Kathu Ganesh Saving And Credit Cooperative Ltd", "nrb_class": "co-operative", "opening_hours": "Su-Fr 10:00-17:00", "phone": "11661515"}}, {"type": "node", "id": 10230035163, "lat": 27.6310881, "lon": 85.5231048, "tags": {"amenity": "bank", "name": "Ugratara Multipurpose Cooperative Ltd", "nrb_class": "co-operative", "opening_hours": "Su-Fr 10:00-17:00", "phone": "11660439"}}, {"type": "node", "id": 10230035164, "lat": 27.6310084, "lon": 85.5220374, "tags": {"addr:street": "Chadani Chok", "amenity": "bank", "name": "Sumeru Saving And Credit Cooperative Ltd", "nrb_class": "co-operative", "opening_hours": "Su-Fr 10:00-17:00", "phone": "11663006"}}, {"type": "node", "id": 10230035165, "lat": 27.6306726, "lon": 85.5219686, "tags": {"addr:street": "Chadani Chok", "amenity": "bank", "name": "Samudayik Saving And Credit Cooperative Ltd", "nrb_class": "co-operative", "opening_hours": "Su-Fr 10:00-17:00", "phone": "11440286"}}, {"type": "node", "id": 10230035166, "lat": 27.6301351, "lon": 85.5236362, "tags": {"addr:street": "Chardobato", "amenity": "bank", "name": "Sugandha Saving And Credit Cooperative Ltd", "nrb_class": "co-operative", "opening_hours": "Su-Fr 10:00-17:00", "phone": "11411247"}}, {"type": "node", "id": 10230035167, "lat": 27.6301975, "lon": 85.5221125, "tags": {"addr:street": "Buspark", "amenity": "bank", "name": "Reliance Saving And Credit Cooperative Ltd", "nrb_class": "co-operative", "opening_hours": "Su-Fr 10:00-17:00", "phone": "11663418"}}, {"type": "node", "id": 10230035168, "lat": 27.6302047, "lon": 85.5218995, "tags": {"addr:street": "Buspark", "amenity": "bank", "name": "Rojina Saving And Credit Cooperative Ltd", "nrb_class": "co-operative", "opening_hours": "Su-Fr 10:00-17:00", "phone": "11665393"}}, {"type": "node", "id": 10230035169, "lat": 27.6282888, "lon": 85.5233677, "tags": {"addr:street": "Panauti Road", "amenity": "bank", "name": "Himkali Samajsewa Saving And Credit Cooperative Ltd", "nrb_class": "co-operative", "opening_hours": "Su-Fr 10:00-17:00", "phone": "11661031"}}, {"type": "node", "id": 10230035170, "lat": 27.6284735, "lon": 85.5234507, "tags": {"amenity": "bank", "name": "Model Saving And Credit Cooperative Ltd", "nrb_class": "co-operative", "opening_hours": "Su-Fr 10:00-17:00", "phone": "11660866"}}, {"type": "node", "id": 10230035171, "lat": 27.6290741, "lon": 85.5236712, "tags": {"addr:street": "Chardobato", "amenity": "bank", "name": "Bindhabasini Saving And Credit Cooperative Ltd", "nrb_class": "co-operative", "opening_hours": "Su-Fr 10:00-17:00", "phone": "11661955"}}, {"type": "node", "id": 10230035172, "lat": 27.6294939, "lon": 85.5237281, "tags": {"addr:street": "Chardobato", "amenity": "bank", "name": "Budol Samudayik Saving And Credit Cooperative Ltd", "nrb_class": "co-operative", "opening_hours": "Su-Fr 10:00-17:00", "phone": "11660364"}}, {"type": "node", "id": 10230035173, "lat": 27.6296835, "lon": 85.5249011, "tags": {"amenity": "bank", "name": "Kshetrapal Mahankal Multipurpose Cooperative Ltd.", "nrb_class": "co-operative", "opening_hours": "Su-Fr 10:00-17:00", "phone": "11663120"}}, {"type": "node", "id": 10230035174, "lat": 27.6297333, "lon": 85.524916, "tags": {"amenity": "bank", "name": "Jyoti Bikash Bank", "nrb_class": "development", "opening_hours": "Su-Fr 10:00-17:00"}}, {"type": "node", "id": 10230035175, "lat": 27.6296392, "lon": 85.525064, "tags": {"amenity": "bank", "name": "Nepal Credit And Commerce Bank Ltd", "opening_hours": "Su-Fr 10:00-17:00"}}, {"type": "node", "id": 10230035176, "lat": 27.6296304, "lon": 85.5264615, "tags": {"amenity": "bank", "name": "Swarna Laxmi Saving And Credit Cooperative Ltd", "nrb_class": "co-operative", "opening_hours": "Su-Fr 10:00-17:00", "phone": "11661260"}}, {"type": "node", "id": 10230035177, "lat": 27.6313854, "lon": 85.5243536, "tags": {"addr:street": "Ganesthan", "amenity": "bank", "name": "Nitya Chandeswori Multipurpose Cooperative", "nrb_class": "co-operative", "opening_hours": "Su-Fr 10:00-17:00", "phone": "11665485"}}, {"type": "node", "id": 10230035178, "lat": 27.6303851, "lon": 85.5279922, "tags": {"addr:street": "Bhimsenthan", "amenity": "bank", "name": "Shree Jiwan Sudhar Krishi Sahakari Sanstha Ltd", "nrb_class": "co-operative", "opening_hours": "Su-Fr 10:00-17:00", "phone": "11660002"}}, {"type": "node", "id": 10230035179, "lat": 27.6174853, "lon": 85.4930309, "tags": {"addr:street": "Basdol", "amenity": "bank", "name": "Shree Mahendra Jyoti Nari Saving And Credit Cooperative Society Ltd", "nrb_class": "co-operative", "opening_hours": "Su-Fr 10:00-17:00", "phone": "9849013399"}}, {"type": "node", "id": 10230035180, "lat": 27.6411091, "lon": 85.4787474, "tags": {"addr:street": "Sangha", "amenity": "bank", "name": "Aafnai Bishwasilo Agricultural Co- Operative Ltd.", "nrb_class": "co-operative", "opening_hours": "Su-Fr 10:00-17:00"}}, {"type": "node", "id": 10230035181, "lat": 27.6283295, "lon": 85.5325565, "tags": {"addr:street": "Budol", "amenity": "bank", "name": "Panchakumari Multipurpose Co-Operative Ltd.", "nrb_class": "co-operative", "opening_hours": "Su-Fr 10:00-17:00", "phone": "011-661662"}}, {"type": "node", "id": 10230035182, "lat": 27.6080496, "lon": 85.4951344, "tags": {"addr:street": "Basdol", "amenity": "bank", "name": "Shree Jamuni Ganesh Saving& Credit Cooperative Ltd", "nrb_class": "co-operative", "opening_hours": "Su-Fr 10:00-17:00", "phone": "11691150"}}, {"type": "node", "id": 10230035183, "lat": 27.620679, "lon": 85.4910769, "tags": {"addr:street": "Basdol", "amenity": "bank", "name": "Shree Jamuni Ganesh Saving & Credit Co-Operative Ltd", "nrb_class": "co-operative", "opening_hours": "Su-Fr 10:00-17:00", "phone": "011-691150"}}, {"type": "node", "id": 10230035184, "lat": 27.6410168, "lon": 85.4790836, "tags": {"amenity": "bank", "name": "Civil Laghubitta Bittiya Sanastha Limited", "nrb_class": "co-operative", "opening_hours": "Su-Fr 10:00-17:00"}}, {"type": "node", "id": 10230035185, "lat": 27.6408582, "lon": 85.4796064, "tags": {"addr:street": "Sanga", "amenity": "bank", "name": "Suryadaya Womi Lagubitta Bittiya Sanstha Limited", "nrb_class": "co-operative", "opening_hours": "Su-Fr 10:00-17:00", "phone": "011-663719"}}, {"type": "node", "id": 10230035186, "lat": 27.6407216, "lon": 85.4801019, "tags": {"addr:street": "Sanga", "amenity": "bank", "name": "Rasayenik Maal Bikri Kendra", "nrb_class": "co-operative", "opening_hours": "Su-Fr 10:00-17:00", "phone": "11662484"}}, {"type": "node", "id": 10230035187, "lat": 27.6407465, "lon": 85.479804, "tags": {"addr:street": "Sanga", "amenity": "bank", "name": "Shree Bhanjyang Multipurpose Co-Operative Society Ltd", "nrb_class": "co-operative", "opening_hours": "Su-Fr 10:00-17:00", "phone": "011-662458"}}, {"type": "node", "id": 10230035188, "lat": 27.6408693, "lon": 85.4795833, "tags": {"addr:street": "Sagha", "amenity": "bank", "email": "Sakshamsanga@gmail.com", "name": "Saksham Saving And Credit Cooperative Society Ltd", "nrb_class": "co-operative", "opening_hours": "Su-Fr 10:00-17:00", "phone": "11660050"}}, {"type": "node", "id": 10230035189, "lat": 27.6541809, "lon": 85.5070714, "tags": {"addr:street": "Nala", "amenity": "bank", "name": "Century Bank", "nrb_class": "finance", "opening_hours": "Su-Fr 10:00-17:00"}}, {"type": "node", "id": 10230035190, "lat": 27.6560571, "lon": 85.5036721, "tags": {"addr:street": "Nala", "amenity": "bank", "email": "slbsnala@gmail.com", "name": "Samudayik Laghubitta Bittiya Sanstha Limited", "nrb_class": "co-operative", "opening_hours": "Su-Fr 10:00-17:00", "phone": "011 411098", "website": "www.samudayikbank.com.np"}}, {"type": "node", "id": 10230035191, "lat": 27.6614158, "lon": 85.5282594, "tags": {"addr:street": "Chautara", "amenity": "bank", "name": "Shree Gramin Vikas Multipurpose Cooperative Limited", "nrb_class": "co-operative", "opening_hours": "Su-Fr 10:00-16:00", "phone": "011-411100"}}, {"type": "node", "id": 10230035192, "lat": 27.6573395, "lon": 85.5180388, "tags": {"addr:street": "Nala,Shera", "amenity": "bank", "name": "Dynamic Yuwa Bachaat Tathaa Sahakari Sanstha Limited", "nrb_class": "co-operative", "opening_hours": "Su-Fr 10:00-16:00"}}, {"type": "node", "id": 10230035193, "lat": 27.6572367, "lon": 85.5178383, "tags": {"addr:street": "Nala ,Shera", "amenity": "bank", "name": "National Cooperative Bank Limited", "nrb_class": "co-operative", "opening_hours": "Su-Fr 10:00-16:00"}}, {"type": "node", "id": 10230035194, "lat": 27.6572538, "lon": 85.5178315, "tags": {"addr:street": "Shera,Nala", "amenity": "bank", "name": "Shree Mai Ugrachandi Sana Kishan Krishi Sahakari Sanstha Limted", "nrb_class": "co-operative", "opening_hours": "Su-Fr 10:00-16:00"}}, {"type": "node", "id": 10230035195, "lat": 27.6410742, "lon": 85.4788418, "tags": {"amenity": "bank", "name": "Duruganesh Bachat Tatha Rin Sahakari Sanastha Limited", "nrb_class": "co-operative", "opening_hours": "Su-Fr 10:00-17:00", "phone": "11662391"}}, {"type": "node", "id": 10235121939, "lat": 27.6277966, "lon": 85.5290797, "tags": {"addr:street": "Sangam tole", "amenity": "bank", "name": "Samata Gharelu Laghubitta Bitiyya Sanstha", "phone": "011-665436", "website": "www.samata.org.np"}}, {"type": "way", "id": 343761822, "nodes": [3505909329, 3505909325, 3505909326, 3505909330, 3505909329], "tags": {"amenity": "bank", "building": "yes", "name": "ID development bank", "roof:material": "concrete", "roof:shape": "mixed"}}, {"type": "node", "id": 3505909325, "lat": 27.6302253, "lon": 85.524162}, {"type": "node", "id": 3505909326, "lat": 27.6302322, "lon": 85.5240681}, {"type": "node", "id": 3505909329, "lat": 27.6303015, "lon": 85.5241718}, {"type": "node", "id": 3505909330, "lat": 27.6303049, "lon": 85.5240745}]}