{"version": 0.6, "generator": "Overpass API 0.7.61.5 4133829e", "osm3s": {"timestamp_osm_base": "2023-08-24T15:41:15Z", "copyright": "The data included in this document is from www.openstreetmap.org. The data is made available under ODbL."}, "elements": [{"type": "node", "id": 1398437051, "lat": 27.6687379, "lon": 85.5381527, "tags": {"amenity": "cafe", "cuisine": "regional;noodles;snacks;teahouse", "name": "Teahouse", "source": "Garmin Orgeon 450 GPS"}}, {"type": "node", "id": 1769321635, "lat": 27.6301796, "lon": 85.5241651, "tags": {"amenity": "cafe", "name": "New Bhomi Cafe"}}, {"type": "node", "id": 1819665900, "lat": 27.6184434, "lon": 85.5383435, "tags": {"amenity": "cafe", "name": "KU Fast Food Cafe"}}, {"type": "node", "id": 3986718694, "lat": 27.6326628, "lon": 85.5178361, "tags": {"addr:city": "Banepa Municipality", "addr:street": "Aananda M.", "amenity": "cafe", "cuisine": "ice_cream", "internet_access": "wlan", "name": "Everest ice cream", "opening_hours": "09:00-20:00", "phone": "+9779841561750", "smoking": "separated"}}, {"type": "node", "id": 4327779391, "lat": 27.6219014, "lon": 85.5385825, "tags": {"amenity": "cafe", "name": "Durga cafe", "wheelchair": "no"}}, {"type": "node", "id": 4327821992, "lat": 27.6217376, "lon": 85.538214, "tags": {"addr:street": "KU road", "amenity": "cafe", "name": "Junction cafe"}}, {"type": "node", "id": 4343916494, "lat": 27.6171973, "lon": 85.5371807, "tags": {"addr:street": "KUBH Road", "amenity": "cafe", "name": "Downtown Cafe"}}, {"type": "node", "id": 4469793051, "lat": 27.6316374, "lon": 85.5185626, "tags": {"amenity": "cafe", "name:en": "Mr. Bake"}}, {"type": "node", "id": 4516621991, "lat": 27.6308788, "lon": 85.5192036, "tags": {"amenity": "cafe", "name:en": "Timalsina Tea Shop"}}, {"type": "node", "id": 4521110398, "lat": 27.6157262, "lon": 85.5359568, "tags": {"amenity": "cafe", "name:en": "Beijing Tea Shop"}}, {"type": "node", "id": 4730046389, "lat": 27.6215965, "lon": 85.5414132, "tags": {"amenity": "cafe", "name:en": "thapa chiya pasal"}}, {"type": "node", "id": 4757503227, "lat": 27.6225219, "lon": 85.5520306, "tags": {"amenity": "cafe", "cuisine": "local", "internet_access": "wlan", "name:en": "Caucasia Caf\u00e9 and Hotel"}}, {"type": "node", "id": 5174083921, "lat": 27.6271376, "lon": 85.5235423, "tags": {"addr:street": "Shreekhanda M.", "amenity": "cafe", "internet_access": "wlan", "name:en": "Your's cafe"}}, {"type": "node", "id": 5185272223, "lat": 27.6206951, "lon": 85.5527898, "tags": {"addr:street": "Dhulikhel Sindhuli Bhittamod Highway", "amenity": "cafe", "internet_access": "wlan", "name:en": "The Rukh Cafe"}}, {"type": "node", "id": 5188512822, "lat": 27.6182986, "lon": 85.5328721, "tags": {"addr:street": "KU road", "amenity": "cafe", "internet_access": "wlan", "name:en": "SR Futsal and Cafe", "operator": "Suraj KC and Ravi Thapa", "phone": "9851204310"}}, {"type": "node", "id": 5222641926, "lat": 27.6303285, "lon": 85.5278903, "tags": {"amenity": "cafe", "name:en": "Tea Shop"}}, {"type": "node", "id": 5226605522, "lat": 27.6206662, "lon": 85.5529249, "tags": {"addr:postcode": "45200", "amenity": "cafe", "cuisine": "american;asian;breakfast;burger;cake;chicken;coffee_shop", "internet_access": "wlan", "name:en": "The Bamboo Cafe", "opening_hours": "Su-Fr 08:00-20:30; Sa 14:00-20:30", "phone": "+977 11-490259"}}, {"type": "node", "id": 5227832024, "lat": 27.6146641, "lon": 85.5608652, "tags": {"addr:postcode": "011 0977", "amenity": "cafe", "internet_access": "wlan", "name:en": "Bhumi bhojhanalaya", "opening_hours": "24/7"}}, {"type": "node", "id": 5227849325, "lat": 27.6147571, "lon": 85.5608127, "tags": {"addr:housenumber": "0010", "addr:postcode": "011 0977", "addr:street": "devistan", "amenity": "cafe", "internet_access": "wlan", "name:en": "Susil khaja ghr"}}, {"type": "node", "id": 5227855723, "lat": 27.6146366, "lon": 85.5608974, "tags": {"addr:housenumber": "0011", "amenity": "cafe", "name:en": "bhumi", "phone": "011490440"}}, {"type": "node", "id": 5358733221, "lat": 27.6206321, "lon": 85.5535145, "tags": {"amenity": "cafe", "name:en": "coffee house", "opening_hours": "24/7"}}, {"type": "node", "id": 5387099123, "lat": 27.6210588, "lon": 85.5530978, "tags": {"amenity": "cafe", "internet_access": "wlan", "name:en": "Unique Hotel & fastfood cafe", "opening_hours": "Mo-Su 07:00-22:00"}}, {"type": "node", "id": 6147288888, "lat": 27.6440038, "lon": 85.469823, "tags": {"amenity": "cafe", "name:en": "Nescafe View point"}}, {"type": "node", "id": 6689538984, "lat": 27.6304809, "lon": 85.5218512, "tags": {"amenity": "cafe"}}, {"type": "node", "id": 9689666322, "lat": 27.6211704, "lon": 85.5384477, "tags": {"amenity": "cafe", "name": "Hunger kills"}}, {"type": "node", "id": 9689666332, "lat": 27.6209173, "lon": 85.538327, "tags": {"amenity": "cafe", "name": "Manakamana", "opening_hours": "7:00-8:00"}}, {"type": "node", "id": 9692969829, "lat": 27.6246068, "lon": 85.5412178, "tags": {"amenity": "cafe"}}, {"type": "node", "id": 9704461117, "lat": 27.6207628, "lon": 85.5385825, "tags": {"amenity": "cafe"}}, {"type": "node", "id": 10220038288, "lat": 27.6286846, "lon": 85.5305535, "tags": {"addr:street": "Budol", "amenity": "cafe", "name": "Aayushma Khaja Ghar"}}, {"type": "node", "id": 10220038289, "lat": 27.6290381, "lon": 85.533715, "tags": {"addr:street": "Budol", "amenity": "cafe", "name:ne": "\u092a\u0930\u094d\u0915\u0943\u0924\u0940 \u0939\u094b\u091f\u0932 \u090f\u0923\u094d\u0921 \u0916\u093e\u091c\u093e \u0918\u0930", "phone": "9808094265"}}, {"type": "node", "id": 10220038290, "lat": 27.6292117, "lon": 85.5336369, "tags": {"addr:street": "Budol", "amenity": "cafe", "name": "Prakriti Hotel"}}, {"type": "node", "id": 10220038291, "lat": 27.6255005, "lon": 85.5409767, "tags": {"addr:street": "28 kilo", "amenity": "cafe", "name": "Subharambha Khaja Ghar", "phone": "9823141718"}}, {"type": "node", "id": 10220038292, "lat": 27.6572747, "lon": 85.5001432, "tags": {"addr:street": "Tukucha", "amenity": "cafe", "name": "Thakali Restaurant And Bar", "name:ne": "\u0925\u0915\u093e\u0932\u0940 \u0930\u0947\u0938\u094d\u091f\u0941\u0930\u0947\u0928\u094d\u091f \u090f\u0923\u094d\u0921 \u092c\u093e\u0930"}}, {"type": "node", "id": 10220038293, "lat": 27.6552346, "lon": 85.5054227, "tags": {"addr:street": "Karunamaya road", "amenity": "cafe", "name": "Kritika Khaja Ghar", "phone": "9841962190"}}, {"type": "node", "id": 10220038294, "lat": 27.6544353, "lon": 85.5064483, "tags": {"addr:street": "Ugrachandi", "amenity": "cafe", "name": "Newark Khaja Ghar", "phone": "9849317614, 9862568190"}}, {"type": "node", "id": 10220038295, "lat": 27.6544074, "lon": 85.5064092, "tags": {"addr:street": "Ugrachandi", "amenity": "cafe", "name": "Soni Khaja Ghar"}}, {"type": "node", "id": 10220038296, "lat": 27.6543216, "lon": 85.5064523, "tags": {"addr:street": "Ugrachandi", "amenity": "cafe", "name": "Ugrachandi Khaja Ghar"}}, {"type": "node", "id": 10220038297, "lat": 27.6539983, "lon": 85.50773, "tags": {"amenity": "cafe", "name": "Samridhhi Khaja Ghar", "phone": "9869654475"}}, {"type": "node", "id": 10220038298, "lat": 27.6663953, "lon": 85.5086445, "tags": {"addr:street": "Nala", "amenity": "cafe", "name": "Bhai Ko Khaja Ghar"}}, {"type": "node", "id": 10220038299, "lat": 27.6242247, "lon": 85.5234189, "tags": {"addr:street": "Dhaneshwor", "amenity": "cafe", "name": "Musa Halal Food Restaurant"}}, {"type": "node", "id": 10220038300, "lat": 27.6361503, "lon": 85.4876345, "tags": {"addr:street": "Bhaisipati", "amenity": "cafe", "name": "Ugrachandi Vojanalaya And Khaja Ghar", "name:ne": "\u0909\u0917\u094d\u0930\u091a\u0923\u094d\u0921\u0940 \u092d\u094b\u091c\u0928\u093e\u0932\u092f \u090f\u0923\u094d\u0921 \u0916\u093e\u091c\u093e \u0918\u0930", "phone": "9803440651"}}, {"type": "node", "id": 10220038301, "lat": 27.6326072, "lon": 85.4938255, "tags": {"addr:street": "Bhaisipati", "amenity": "cafe", "name": "Sindupalchowk Sekuwa Corner"}}, {"type": "node", "id": 10220038302, "lat": 27.6324587, "lon": 85.5026539, "tags": {"addr:street": "Janagal", "amenity": "cafe", "name": "New Mama'S Cafe", "phone": "011662513"}}, {"type": "node", "id": 10220038303, "lat": 27.6322601, "lon": 85.5138435, "tags": {"addr:street": "Pulbazar", "amenity": "cafe", "name": "Tiktok Lama Hotel And Fast Food", "name:ne": "Tiktok \u0932\u093e\u092e\u093e \u0939\u094b\u091f\u0932 \u090f\u0923\u094d\u0921 \u092b\u093e\u0938\u094d\u091f \u092b\u0941\u0921"}}, {"type": "node", "id": 10220038304, "lat": 27.6319515, "lon": 85.5185994, "tags": {"addr:street": "Tindobato", "amenity": "cafe", "name": "Famous Street Food And Tapari Mo:Mo"}}, {"type": "node", "id": 10220038305, "lat": 27.6303662, "lon": 85.5210192, "tags": {"addr:street": "Buspark", "amenity": "cafe", "name": "Vip Thakali Restaurant", "phone": "011691126"}}, {"type": "node", "id": 10220038306, "lat": 27.6316324, "lon": 85.5186344, "tags": {"addr:street": "Tindobato", "amenity": "cafe", "name": "Gautam Mithai Vandar", "name:ne": "\u0917\u093e\u0948\u0924\u092e \u092e\u093f\u0920\u093e\u0908 \u092d\u0923\u094d\u0921\u093e\u0930", "phone": "011663785"}}, {"type": "node", "id": 10220038307, "lat": 27.6320738, "lon": 85.5157443, "tags": {"addr:street": "Pulbazar", "amenity": "cafe", "name": "Highway Newari Khaja Ghar", "phone": "9841658738"}}, {"type": "node", "id": 10220038308, "lat": 27.6318317, "lon": 85.5151459, "tags": {"addr:street": "Pulbazar", "amenity": "cafe", "name": "Underground Vojanalaya And Khaja Ghar"}}, {"type": "node", "id": 10220038309, "lat": 27.6317357, "lon": 85.5157151, "tags": {"addr:street": "Pulbazar", "amenity": "cafe", "name": "Krishna Newari Khaja Ghar", "name:ne": "\u0915\u0943\u0937\u094d\u0923 \u0928\u0947\u0935\u093e\u0930\u0940 \u0916\u093e\u091c\u093e \u0918\u0930", "phone": "9840207820"}}, {"type": "node", "id": 10220038310, "lat": 27.6317173, "lon": 85.5157537, "tags": {"addr:street": "Pulbazar", "amenity": "cafe", "name": "Ugrachandi Vojanalaya And Khaja Ghar", "name:ne": "\u0909\u0917\u094d\u0930\u091a\u0923\u094d\u0921\u0940 \u092d\u094b\u091c\u0928\u093e\u0932\u092f \u090f\u0923\u094d\u0921 \u0916\u093e\u091c\u093e \u0918\u0930"}}, {"type": "node", "id": 10220038311, "lat": 27.6305854, "lon": 85.5181027, "tags": {"addr:street": "Sinagal", "amenity": "cafe", "name": "Gautam Fast Food And Cafe"}}, {"type": "node", "id": 10220038312, "lat": 27.630753, "lon": 85.5215062, "tags": {"addr:street": "Chadani chowk", "amenity": "cafe", "name": "Unique Food Cafe"}}, {"type": "node", "id": 10220038313, "lat": 27.6324682, "lon": 85.5148553, "tags": {"addr:street": "Pulbazar", "amenity": "cafe", "name": "Daju Bhai Khaja Ghar", "name:ne": "\u0926\u093e\u091c\u0942 \u092d\u093e\u0908 \u0916\u093e\u091c\u093e \u090f\u0923\u094d\u0921 \u0916\u093e\u0928\u093e \u0918\u0930"}}, {"type": "node", "id": 10220038314, "lat": 27.6414932, "lon": 85.514773, "tags": {"addr:street": "Karuna Marga", "amenity": "cafe", "name": "Home Town Cafe", "phone": "9823616923"}}, {"type": "node", "id": 10220038315, "lat": 27.6419356, "lon": 85.4772354, "tags": {"addr:street": "Sangha", "amenity": "cafe", "name": "Burger House", "opening_hours": "Mo-Su 10:00-22:00"}}, {"type": "node", "id": 10220038316, "lat": 27.6277848, "lon": 85.532528, "tags": {"addr:street": "Budol,Banepa", "amenity": "cafe", "name": "The Airport Sekuwa Corner", "opening_hours": "Mo-Su 10:00-21:00", "phone": "9841103010"}}, {"type": "node", "id": 10220062517, "lat": 27.6418086, "lon": 85.4776833, "tags": {"addr:street": "Sanga", "amenity": "cafe", "name": "Jay Bhojanalaya Tatha Khaja Ghar", "opening_hours": "Mo-Su 10:00-20:00"}}, {"type": "node", "id": 10220062518, "lat": 27.6572634, "lon": 85.4998521, "tags": {"addr:street": "Nala", "amenity": "cafe", "name": "Samirani Khaja Ghar", "opening_hours": "Mo-Su 10:00-19:00"}}, {"type": "node", "id": 10220062519, "lat": 27.6619861, "lon": 85.4936701, "tags": {"addr:street": "Nala", "amenity": "cafe", "name": "Nirvana Cafe", "opening_hours": "Mo-Su 10:00-19:00"}}, {"type": "node", "id": 10220062521, "lat": 27.6573391, "lon": 85.5021303, "tags": {"addr:street": "Nala", "amenity": "cafe", "name": "Ugrachandi Sekuwa Corner And Cafe Shop", "opening_hours": "Mo-Su 09:00-19:00", "phone": "9818898143"}}, {"type": "node", "id": 10220062522, "lat": 27.6282508, "lon": 85.5310831, "tags": {"addr:street": "Budol", "amenity": "cafe", "name": "Hexa Restaurant", "opening_hours": "Mo-Su 08:00-20:00"}}, {"type": "node", "id": 10220062523, "lat": 27.6647606, "lon": 85.5074737, "tags": {"addr:street": "Dandamukh", "amenity": "cafe", "name": "Nala Village Resort", "opening_hours": "Mo-Su 08:00-20:00", "phone": "612491861"}}, {"type": "node", "id": 10220062524, "lat": 27.6417396, "lon": 85.4771078, "tags": {"amenity": "cafe", "name": "Sanga Height Restaurant", "opening_hours": "Mo-Su 08:00-20:00", "phone": "9841430356"}}, {"type": "node", "id": 10220062525, "lat": 27.6278272, "lon": 85.5332573, "tags": {"addr:street": "Budol", "amenity": "cafe", "name": "Newari Chulo", "opening_hours": "Mo-Su 08:00-19:00", "phone": "9818975462"}}, {"type": "node", "id": 10220062526, "lat": 27.6277596, "lon": 85.5334194, "tags": {"addr:street": "Budol", "amenity": "cafe", "name": "Dapchali Bhojanalaya And Khaja Ghar", "opening_hours": "Mo-Su 07:00-22:00", "phone": "9813791845"}}, {"type": "node", "id": 10220062527, "lat": 27.6280787, "lon": 85.5322971, "tags": {"addr:street": "Budol", "amenity": "cafe", "name": "Maila Khaja Ghar", "opening_hours": "Mo-Su 07:00-20:00"}}, {"type": "node", "id": 10220062528, "lat": 27.6279898, "lon": 85.5324976, "tags": {"addr:street": "Budol,banepa", "amenity": "cafe", "name": "Staff Bhojnalaya", "opening_hours": "Mo-Su 07:00-20:00"}}, {"type": "node", "id": 10220062529, "lat": 27.6280801, "lon": 85.5321566, "tags": {"addr:street": "Budol,banepa", "amenity": "cafe", "name": "Budol Khaja Ghar", "opening_hours": "Mo-Su 07:00-20:00", "phone": "9841496727"}}, {"type": "node", "id": 10220062530, "lat": 27.6246395, "lon": 85.5411141, "tags": {"addr:street": "28 kilo", "amenity": "cafe", "name": "Kafle Sweet", "opening_hours": "Mo-Su 07:00-20:00", "phone": "9840711661"}}, {"type": "node", "id": 10220062531, "lat": 27.6277561, "lon": 85.5339463, "tags": {"addr:street": "Budol", "amenity": "cafe", "name": "Chandeshowri Rampure Bhojanalaya", "opening_hours": "Mo-Su 07:00-19:00", "phone": "9888006300"}}, {"type": "way", "id": 206055912, "nodes": [2160558621, 2160558619, 2160558615, 2160558617, 2160558621], "tags": {"addr:street": "KU road", "amenity": "cafe", "building": "yes", "cuisine": "coffee_shop", "internet_access": "no", "name": "Mahalaxmi Bakery Cafe", "name:en": "Manakamana Bakery and Cafe", "phone": "+9779849922835"}}, {"type": "way", "id": 219014721, "nodes": [2282198072, 2282198071, 2282198069, 2282198070, 2282198072], "tags": {"amenity": "cafe", "building": "yes", "name": "Junction Cafe"}}, {"type": "way", "id": 342118530, "nodes": [3491459316, 3491459322, 3491459301, 3491459191, 3491459316], "tags": {"amenity": "cafe", "building": "yes"}}, {"type": "way", "id": 391847150, "nodes": [3951063401, 3951063402, 3951063404, 2054102710, 2054102736, 3951063401], "tags": {"amenity": "cafe", "building": "yes", "cuisine": "nepali", "internet_access": "no", "name": "KU Canteen", "opening_hours": "Su-Fr 08:30-16:00", "smoking": "no"}}, {"type": "way", "id": 435441195, "nodes": [4333620909, 4333620910, 4333620911, 4333620912, 4333620909], "tags": {"amenity": "cafe", "building": "yes", "name": "Cafeteria"}}, {"type": "node", "id": 2054102710, "lat": 27.6193577, "lon": 85.5389798}, {"type": "node", "id": 2054102736, "lat": 27.6193442, "lon": 85.5387769}, {"type": "node", "id": 3951063401, "lat": 27.6191686, "lon": 85.5387918}, {"type": "node", "id": 3951063402, "lat": 27.6191796, "lon": 85.5389564}, {"type": "node", "id": 3951063404, "lat": 27.6191821, "lon": 85.5389947}, {"type": "node", "id": 4333620909, "lat": 27.6220313, "lon": 85.5373062}, {"type": "node", "id": 4333620910, "lat": 27.6220133, "lon": 85.5373347}, {"type": "node", "id": 4333620911, "lat": 27.6219719, "lon": 85.5372981}, {"type": "node", "id": 4333620912, "lat": 27.6220061, "lon": 85.5372574}, {"type": "node", "id": 3491459191, "lat": 27.6342747, "lon": 85.5230598}, {"type": "node", "id": 3491459301, "lat": 27.6342876, "lon": 85.5231064}, {"type": "node", "id": 3491459316, "lat": 27.6343212, "lon": 85.5230434}, {"type": "node", "id": 3491459322, "lat": 27.6343341, "lon": 85.5230901}, {"type": "node", "id": 2160558615, "lat": 27.6209733, "lon": 85.5383574}, {"type": "node", "id": 2160558617, "lat": 27.6209509, "lon": 85.5382372}, {"type": "node", "id": 2160558619, "lat": 27.6210307, "lon": 85.5383437}, {"type": "node", "id": 2160558621, "lat": 27.6210083, "lon": 85.5382236}, {"type": "node", "id": 2282198069, "lat": 27.621526, "lon": 85.5412665}, {"type": "node", "id": 2282198070, "lat": 27.6215469, "lon": 85.5411809}, {"type": "node", "id": 2282198071, "lat": 27.6216054, "lon": 85.5412911}, {"type": "node", "id": 2282198072, "lat": 27.6216262, "lon": 85.5412056}]}