{"version": 0.6, "generator": "Overpass API 0.7.61.5 4133829e", "osm3s": {"timestamp_osm_base": "2023-08-24T15:41:15Z", "copyright": "The data included in this document is from www.openstreetmap.org. The data is made available under ODbL."}, "elements": [{"type": "node", "id": 1769321648, "lat": 27.6295151, "lon": 85.5248363, "tags": {"amenity": "restaurant"}}, {"type": "node", "id": 1769321650, "lat": 27.6320815, "lon": 85.5156524, "tags": {"amenity": "restaurant"}}, {"type": "node", "id": 1769321651, "lat": 27.6298139, "lon": 85.5238323, "tags": {"amenity": "restaurant"}}, {"type": "node", "id": 1833834932, "lat": 27.6287337, "lon": 85.5236108, "tags": {"amenity": "restaurant", "name": "Newa Kitchen"}}, {"type": "node", "id": 1833834933, "lat": 27.6299286, "lon": 85.5258609, "tags": {"amenity": "restaurant", "name": "Newari Khaja Ghar"}}, {"type": "node", "id": 1833834987, "lat": 27.6290159, "lon": 85.5275079, "tags": {"amenity": "restaurant", "name": "Welcome"}}, {"type": "node", "id": 1833839881, "lat": 27.630228, "lon": 85.5240209, "tags": {"amenity": "restaurant"}}, {"type": "node", "id": 1833840060, "lat": 27.6312118, "lon": 85.519885, "tags": {"amenity": "restaurant"}}, {"type": "node", "id": 2609135712, "lat": 27.6185695, "lon": 85.5501989, "tags": {"amenity": "restaurant", "name": "kokas resturant and guest house"}}, {"type": "node", "id": 3043772813, "lat": 27.6271182, "lon": 85.5229802, "tags": {"addr:city": "Banepa Municipality", "addr:postcode": "45210", "amenity": "restaurant", "name:en": "R K Newari Khaja Ghar"}}, {"type": "node", "id": 3156329577, "lat": 27.6287236, "lon": 85.529364, "tags": {"amenity": "restaurant", "name": "Hotel Ugrachandi And Restaurant"}}, {"type": "node", "id": 3156329578, "lat": 27.6285963, "lon": 85.531445, "tags": {"amenity": "restaurant", "name": "Black and White Hotel"}}, {"type": "node", "id": 3156329580, "lat": 27.6292749, "lon": 85.5283046, "tags": {"amenity": "restaurant", "name": "Family Food Cafe"}}, {"type": "node", "id": 3156329585, "lat": 27.6289327, "lon": 85.5277869, "tags": {"amenity": "restaurant", "name": "TNC Restaurant"}}, {"type": "node", "id": 4448589790, "lat": 27.6147618, "lon": 85.5636495, "tags": {"addr:street": "Devisthan Road", "amenity": "restaurant", "internet_access": "wlan", "name:en": "1000 steps Cottage", "opening_hours": "Mo-Su 10:00-20:00"}}, {"type": "node", "id": 4469807390, "lat": 27.631433, "lon": 85.5247081, "tags": {"amenity": "restaurant", "description": "Bar/house Sudeep", "name:en": "My Small Kitchen", "source": "survey"}}, {"type": "node", "id": 4490867192, "lat": 27.6319157, "lon": 85.511126, "tags": {"amenity": "restaurant", "name:en": "Banepa Village Resort"}}, {"type": "node", "id": 4516621990, "lat": 27.6427785, "lon": 85.5410768, "tags": {"amenity": "restaurant"}}, {"type": "node", "id": 4520034689, "lat": 27.6319085, "lon": 85.5108673, "tags": {"amenity": "restaurant", "name:en": "Banepa Village Resort."}}, {"type": "node", "id": 4537051690, "lat": 27.6278974, "lon": 85.532512, "tags": {"amenity": "restaurant", "name:en": "Maila Dai ko Khaja Ghar"}}, {"type": "node", "id": 4706188991, "lat": 27.6916437, "lon": 85.4971994, "tags": {"amenity": "restaurant", "email": "bojineenagarkot@gmail.com", "internet_access": "wlan", "name": "Bojinee Nagarkot Resort Pvt Ltd", "name:en": "Bojini Nagarkot Resort", "opening_hours": "24/7", "phone": "+977-1-5145238", "website": "https://www.bojineeresort.com/"}}, {"type": "node", "id": 4765990899, "lat": 27.6676647, "lon": 85.4801551, "tags": {"amenity": "restaurant", "name": "Bala Lunch House"}}, {"type": "node", "id": 4804971621, "lat": 27.6173857, "lon": 85.5548082, "tags": {"addr:street": "sarswati bazar", "amenity": "restaurant", "name:en": "Pizza hub"}}, {"type": "node", "id": 4806940023, "lat": 27.6223091, "lon": 85.5526949, "tags": {"amenity": "restaurant", "name:en": "Shmina bojanalaya & restaurant"}}, {"type": "node", "id": 4886575522, "lat": 27.6880325, "lon": 85.5004958, "tags": {"amenity": "restaurant", "name:en": "RatnaGiri Resort"}}, {"type": "node", "id": 5152860022, "lat": 27.6304648, "lon": 85.520468, "tags": {"amenity": "restaurant", "name": "chandeshwori gift shop", "name:en": "VIP Thakali Vanchha Ghar and Coffee House", "shop": "gift"}}, {"type": "node", "id": 5604165821, "lat": 27.617331, "lon": 85.548311, "tags": {"amenity": "restaurant", "name:en": "Professional"}}, {"type": "node", "id": 5653183522, "lat": 27.6302164, "lon": 85.522953, "tags": {"addr:street": "Araniko Highway", "amenity": "restaurant", "cuisine": "american;asian;chicken;chinese;fish_and_chips;french;german;italian_pizza;sausage;steak_house", "email": "haitsportsbarandlounge@gmail.com", "internet_access": "wlan", "name:en": "H.A.I.T Sports Bar & Lounge", "opening_hours": "Mo-Su 11:00-21:30", "operator": "Badal Baidar, Roshan Shrestha, Niraj K Chundali", "phone": "9851050569", "website": "http://www.haitlounge.com"}}, {"type": "node", "id": 5666339322, "lat": 27.6288968, "lon": 85.5237676, "tags": {"addr:street": "Dhaneshwor Marga", "amenity": "restaurant", "internet_access": "wlan", "name:en": "Kitchen Heart"}}, {"type": "node", "id": 6012680585, "lat": 27.6146798, "lon": 85.5639022, "tags": {"amenity": "restaurant", "name:en": "Saino Restaurant & Guest House"}}, {"type": "node", "id": 6085356086, "lat": 27.6451011, "lon": 85.4659852, "tags": {"amenity": "restaurant", "name:en": "Palase Tower Resort and Lounge"}}, {"type": "node", "id": 6138435385, "lat": 27.6288179, "lon": 85.5222503, "tags": {"addr:street": "Godam chowk", "amenity": "restaurant", "internet_access": "wlan", "name:en": "Banepa city fast food"}}, {"type": "node", "id": 6147288886, "lat": 27.6434083, "lon": 85.4679918, "tags": {"amenity": "restaurant", "name:en": "Three days Resort"}}, {"type": "node", "id": 6147290385, "lat": 27.6439626, "lon": 85.4664031, "tags": {"amenity": "restaurant", "name:en": "Palase Resort"}}, {"type": "node", "id": 6147290785, "lat": 27.6422654, "lon": 85.4771584, "tags": {"amenity": "restaurant", "name:en": "Bintuna Newari Khaja ghar"}}, {"type": "node", "id": 6856886790, "lat": 27.6180452, "lon": 85.5490652, "tags": {"amenity": "restaurant", "name:en": "Hotel Katmandu Restaurant & Lodge"}}, {"type": "node", "id": 7003912887, "lat": 27.6014146, "lon": 85.5634548, "tags": {"amenity": "restaurant", "name:en": "Cheese Shop"}}, {"type": "node", "id": 9372208872, "lat": 27.621922, "lon": 85.5392182, "tags": {"amenity": "restaurant", "name": "Paleti"}}, {"type": "node", "id": 9372256625, "lat": 27.6219214, "lon": 85.538614, "tags": {"amenity": "restaurant", "name": "Bishal Cafe"}}, {"type": "node", "id": 9530414895, "lat": 27.624406, "lon": 85.5411474, "tags": {"amenity": "restaurant", "name": "Shawarma Station"}}, {"type": "node", "id": 9557616819, "lat": 27.628065, "lon": 85.5333949, "tags": {"amenity": "restaurant", "name": "Mandro Restro & Thakali Restaurant"}}, {"type": "node", "id": 9557617417, "lat": 27.6309048, "lon": 85.5210114, "tags": {"amenity": "restaurant", "name": "Chicken Station"}}, {"type": "node", "id": 9597192207, "lat": 27.617116, "lon": 85.5343513, "tags": {"amenity": "restaurant", "name": "thomba pasal"}}, {"type": "node", "id": 9597192729, "lat": 27.6160721, "lon": 85.5397171, "tags": {"amenity": "restaurant", "name": "chamena griha"}}, {"type": "node", "id": 9597204693, "lat": 27.6219606, "lon": 85.5411695, "tags": {"amenity": "restaurant"}}, {"type": "node", "id": 9597209767, "lat": 27.6244583, "lon": 85.5411682, "tags": {"amenity": "restaurant", "name": "mithai pasal"}}, {"type": "node", "id": 9784655278, "lat": 27.6361505, "lon": 85.529597, "tags": {"amenity": "restaurant", "contact:email": "trigunacademy@gmail.com", "contact:phone": "9841907840", "name": "Sopu Hitti Receptions and Events", "name:en": "Sopu Hitti Receptions and Events", "name:ne": "\u0938\u094b\u092a\u0941 \u0939\u093f\u091f\u093f \u0930\u093f\u0938\u0947\u092a\u094d\u0936\u0928 \u0924\u0925\u093e \u0908\u092d\u0947\u0928\u094d\u091f\u0938\u094d", "source": "Field Survey"}}, {"type": "node", "id": 9960908968, "lat": 27.630972, "lon": 85.5209222, "tags": {"amenity": "restaurant", "name": "vip thakali restaurant"}}, {"type": "node", "id": 9960910715, "lat": 27.6309793, "lon": 85.5205172, "tags": {"amenity": "restaurant", "name": "vip thakali returant banepa"}}, {"type": "node", "id": 9960917285, "lat": 27.6333013, "lon": 85.5238411, "tags": {"amenity": "restaurant", "name": "kayastha Party Place", "phone": "9851077910"}}, {"type": "node", "id": 9960922606, "lat": 27.6352991, "lon": 85.5221781, "tags": {"amenity": "restaurant", "name": "sunita khaja ghar"}}, {"type": "node", "id": 9960932619, "lat": 27.6330313, "lon": 85.5182695, "tags": {"amenity": "restaurant", "name": "monlam pizza"}}, {"type": "node", "id": 9960940220, "lat": 27.6306844, "lon": 85.5214807, "tags": {"amenity": "restaurant", "cuisine": "asian", "name": "burger house"}}, {"type": "node", "id": 10005734378, "lat": 27.6323929, "lon": 85.4930044, "tags": {"amenity": "restaurant", "name": "Highway Fishing Resort"}}, {"type": "node", "id": 10884191307, "lat": 27.6159971, "lon": 85.5372431, "tags": {"amenity": "restaurant", "name:en": "Bishal Cafe"}}, {"type": "node", "id": 10889516005, "lat": 27.6202767, "lon": 85.5533939, "tags": {"amenity": "restaurant", "name": "The Burger House & Crunchy Fried Chicken"}}, {"type": "node", "id": 10889516105, "lat": 27.6417839, "lon": 85.4773957, "tags": {"amenity": "restaurant", "name": "The Burger House & Crunchy Fried Chicken"}}, {"type": "node", "id": 10889516205, "lat": 27.6201677, "lon": 85.553375, "tags": {"amenity": "restaurant", "name": "Fire n Wood Pizza"}}, {"type": "node", "id": 10889581105, "lat": 27.6427191, "lon": 85.4697143, "tags": {"amenity": "restaurant", "name": "Daura Chulo"}}, {"type": "node", "id": 10943772558, "lat": 27.6175157, "lon": 85.5383089, "tags": {"amenity": "restaurant", "name": "Anisha bhansa ghar", "opening_hours": "Mo-Su 09:00-21:00"}}, {"type": "node", "id": 11001760907, "lat": 27.6202891, "lon": 85.5525666, "tags": {"amenity": "restaurant"}}, {"type": "way", "id": 255389681, "nodes": [2610832921, 2610832922, 2610832923, 2610832924, 2610832921], "tags": {"amenity": "restaurant", "building": "yes", "name": "chaproma"}}, {"type": "way", "id": 255389683, "nodes": [2610832925, 2610832926, 2610832927, 2610832929, 2610832925], "tags": {"amenity": "restaurant", "building": "yes", "name": "newa khaja ghar"}}, {"type": "way", "id": 258727183, "nodes": [2640598565, 2640598564, 2640598562, 2640598563, 2640598565], "tags": {"amenity": "restaurant", "building": "yes", "name": "Banepa Fast Food"}}, {"type": "way", "id": 300592055, "nodes": [3046690826, 3046690827, 3046690828, 3046690829, 3046690826], "tags": {"amenity": "restaurant", "building": "yes", "green_roof": "yes", "name": "HNK heaven resturant", "roof:material": "concrete", "roof:shape": "mixed"}}, {"type": "way", "id": 341769159, "nodes": [3488663471, 3488663470, 10005704107, 10005704106, 3488663468, 3488663469, 3488663471], "tags": {"amenity": "restaurant", "building": "yes", "name": "Grand Summer Palace Resort"}}, {"type": "way", "id": 342054656, "nodes": [3490995801, 3490995802, 10082461768, 10082461766, 10082461765, 10082461767, 3490995803, 3502825995, 3490995801], "tags": {"amenity": "restaurant", "building": "yes", "name": "KN banquet", "roof:material": "tin", "roof:shape": "flat"}}, {"type": "way", "id": 342213276, "nodes": [3492369385, 3492369384, 3492369382, 3492369383, 3492369385], "tags": {"amenity": "restaurant", "building": "yes", "building:levels": "2", "name": "R. K. Chamena", "wheelchair": "no"}}, {"type": "way", "id": 342316082, "nodes": [3493335910, 3493335911, 3493335912, 3493335913, 3493335910], "tags": {"amenity": "restaurant", "building": "yes", "delivery": "no", "internet_access": "no", "name": "The Station"}}, {"type": "way", "id": 896989073, "nodes": [8337668796, 8337668797, 8337668798, 8337668799, 8337668796], "tags": {"amenity": "restaurant", "building": "yes"}}, {"type": "way", "id": 896989074, "nodes": [8337668800, 8337668801, 8337668802, 8337668803, 8337668800], "tags": {"amenity": "restaurant", "building": "yes"}}, {"type": "way", "id": 1041586868, "nodes": [9589133528, 9589133527, 9589133526, 9589133525, 9589133528], "tags": {"amenity": "restaurant", "name": "BFC"}}, {"type": "way", "id": 1041586869, "nodes": [9589133533, 9589133532, 9589133531, 9589133530, 9589133529, 9589133533], "tags": {"amenity": "restaurant", "name": "janata khaja ghar"}}, {"type": "way", "id": 1041586870, "nodes": [9589133541, 9589133540, 9589133539, 9589133538, 9589133537, 9589133536, 9589133535, 9589133534, 9589133541], "tags": {"amenity": "restaurant", "name": "lotus"}}, {"type": "way", "id": 1042611828, "nodes": [9597192734, 9597192733, 9597192732, 9597192731, 9597192734], "tags": {"amenity": "restaurant", "name": "kanxi dd pasal"}}, {"type": "node", "id": 3488663468, "lat": 27.6303837, "lon": 85.4990564}, {"type": "node", "id": 3488663469, "lat": 27.63033, "lon": 85.498292}, {"type": "node", "id": 3488663470, "lat": 27.6305007, "lon": 85.4986051}, {"type": "node", "id": 3488663471, "lat": 27.6304331, "lon": 85.4982997}, {"type": "node", "id": 10005704106, "lat": 27.6304934, "lon": 85.499004}, {"type": "node", "id": 10005704107, "lat": 27.6305427, "lon": 85.4987999}, {"type": "node", "id": 9597192731, "lat": 27.6174635, "lon": 85.5380468}, {"type": "node", "id": 9597192732, "lat": 27.6174299, "lon": 85.5380667}, {"type": "node", "id": 9597192733, "lat": 27.6174479, "lon": 85.5381053}, {"type": "node", "id": 9597192734, "lat": 27.6174815, "lon": 85.5380854}, {"type": "node", "id": 2610832925, "lat": 27.6197847, "lon": 85.5527716}, {"type": "node", "id": 2610832926, "lat": 27.6197368, "lon": 85.5527406}, {"type": "node", "id": 2610832927, "lat": 27.619789, "lon": 85.5526377}, {"type": "node", "id": 2610832929, "lat": 27.6198369, "lon": 85.5526687}, {"type": "node", "id": 3046690826, "lat": 27.6287821, "lon": 85.5223196}, {"type": "node", "id": 3046690827, "lat": 27.6287678, "lon": 85.5223787}, {"type": "node", "id": 3046690828, "lat": 27.6289362, "lon": 85.5224941}, {"type": "node", "id": 3046690829, "lat": 27.6289565, "lon": 85.5224463}, {"type": "node", "id": 3490995801, "lat": 27.6308877, "lon": 85.5248822}, {"type": "node", "id": 3490995802, "lat": 27.6308994, "lon": 85.5251536}, {"type": "node", "id": 3490995803, "lat": 27.631043, "lon": 85.5251412}, {"type": "node", "id": 3502825995, "lat": 27.6310295, "lon": 85.5248628}, {"type": "node", "id": 10082461765, "lat": 27.6310396, "lon": 85.5251629}, {"type": "node", "id": 10082461766, "lat": 27.6309205, "lon": 85.5251732}, {"type": "node", "id": 10082461767, "lat": 27.6310382, "lon": 85.5251417}, {"type": "node", "id": 10082461768, "lat": 27.6309191, "lon": 85.5251519}, {"type": "node", "id": 2640598562, "lat": 27.6213625, "lon": 85.538479}, {"type": "node", "id": 2640598563, "lat": 27.621375, "lon": 85.5383655}, {"type": "node", "id": 2640598564, "lat": 27.6214502, "lon": 85.5384912}, {"type": "node", "id": 2640598565, "lat": 27.6214627, "lon": 85.5383778}, {"type": "node", "id": 3492369382, "lat": 27.6217968, "lon": 85.5415658}, {"type": "node", "id": 3492369383, "lat": 27.6218349, "lon": 85.5415005}, {"type": "node", "id": 3492369384, "lat": 27.621885, "lon": 85.5416314}, {"type": "node", "id": 3492369385, "lat": 27.6219231, "lon": 85.5415661}, {"type": "node", "id": 3493335910, "lat": 27.6213337, "lon": 85.5384151}, {"type": "node", "id": 3493335911, "lat": 27.6211982, "lon": 85.5384307}, {"type": "node", "id": 3493335912, "lat": 27.6212046, "lon": 85.5385018}, {"type": "node", "id": 3493335913, "lat": 27.6213401, "lon": 85.5384861}, {"type": "node", "id": 8337668796, "lat": 27.6215655, "lon": 85.5381109}, {"type": "node", "id": 8337668797, "lat": 27.6215004, "lon": 85.5381167}, {"type": "node", "id": 8337668798, "lat": 27.6215067, "lon": 85.5382062}, {"type": "node", "id": 8337668799, "lat": 27.6215717, "lon": 85.5382005}, {"type": "node", "id": 8337668800, "lat": 27.6214447, "lon": 85.5381158}, {"type": "node", "id": 8337668801, "lat": 27.6213515, "lon": 85.5381446}, {"type": "node", "id": 8337668802, "lat": 27.6213713, "lon": 85.5382263}, {"type": "node", "id": 8337668803, "lat": 27.6214645, "lon": 85.5381975}, {"type": "node", "id": 9589133525, "lat": 27.6214871, "lon": 85.538671}, {"type": "node", "id": 9589133526, "lat": 27.6214467, "lon": 85.5387012}, {"type": "node", "id": 9589133527, "lat": 27.6214728, "lon": 85.5387454}, {"type": "node", "id": 9589133528, "lat": 27.6215132, "lon": 85.538718}, {"type": "node", "id": 9589133529, "lat": 27.6212589, "lon": 85.5380917}, {"type": "node", "id": 9589133530, "lat": 27.62125, "lon": 85.5381205}, {"type": "node", "id": 9589133531, "lat": 27.6212685, "lon": 85.538146}, {"type": "node", "id": 9589133532, "lat": 27.6213219, "lon": 85.5381272}, {"type": "node", "id": 9589133533, "lat": 27.6213118, "lon": 85.5380749}, {"type": "node", "id": 9589133534, "lat": 27.6205362, "lon": 85.5383486}, {"type": "node", "id": 9589133535, "lat": 27.6204901, "lon": 85.5382962}, {"type": "node", "id": 9589133536, "lat": 27.6203911, "lon": 85.5383879}, {"type": "node", "id": 9589133537, "lat": 27.6203802, "lon": 85.5384082}, {"type": "node", "id": 9589133538, "lat": 27.6204046, "lon": 85.5384625}, {"type": "node", "id": 9589133539, "lat": 27.620442, "lon": 85.5384645}, {"type": "node", "id": 9589133540, "lat": 27.6204652, "lon": 85.5384377}, {"type": "node", "id": 9589133541, "lat": 27.6205252, "lon": 85.5383639}, {"type": "node", "id": 2610832921, "lat": 27.6208638, "lon": 85.5530913}, {"type": "node", "id": 2610832922, "lat": 27.6208255, "lon": 85.5530193}, {"type": "node", "id": 2610832923, "lat": 27.6207979, "lon": 85.5530745}, {"type": "node", "id": 2610832924, "lat": 27.6208447, "lon": 85.5531154}]}