{"version": 0.6, "generator": "Overpass API 0.7.61.5 4133829e", "osm3s": {"timestamp_osm_base": "2023-08-24T15:41:15Z", "copyright": "The data included in this document is from www.openstreetmap.org. The data is made available under ODbL."}, "elements": [{"type": "node", "id": 2282684337, "lat": 27.6215328, "lon": 85.5412305, "tags": {"amenity": "fast_food", "name": "Junction cafe"}}, {"type": "node", "id": 4494205091, "lat": 27.6306079, "lon": 85.5230946, "tags": {"amenity": "fast_food", "name:en": "Century food land"}}, {"type": "node", "id": 4806944521, "lat": 27.621889, "lon": 85.5523236, "tags": {"amenity": "fast_food", "name:en": "Chef fast food"}}, {"type": "node", "id": 5032826875, "lat": 27.6316093, "lon": 85.5187138, "tags": {"addr:street": "Bhaktapur-Nala-Banepa road", "amenity": "fast_food", "name:en": "Gautam Sweets Store", "opening_hours": "Mo-Su 06:00-20:00"}}, {"type": "node", "id": 5064732121, "lat": 27.6208063, "lon": 85.5385267, "tags": {"addr:street": "KU road", "amenity": "fast_food", "name:en": "Laxmi Khaja Ghar", "opening_hours": "Su-Fr 07:00-20:00"}}, {"type": "node", "id": 5227838825, "lat": 27.6148962, "lon": 85.5610577, "tags": {"amenity": "fast_food", "name:en": "kushal khaja ghar", "phone": "9843939755"}}, {"type": "node", "id": 5265262063, "lat": 27.6175135, "lon": 85.5544475, "tags": {"addr:street": "Devisthan Road", "amenity": "fast_food", "name:en": "ghar pachadi newa kitchen", "phone": "9841821783"}}, {"type": "node", "id": 5658214921, "lat": 27.6177677, "lon": 85.5385063, "tags": {"amenity": "fast_food", "internet_access": "wlan", "name:en": "Hill Town Hotel Samira", "opening_hours": "24/7"}}, {"type": "node", "id": 6147290787, "lat": 27.617071, "lon": 85.5368669, "tags": {"amenity": "fast_food", "name:en": "Uptown", "wheelchair": "no"}}, {"type": "node", "id": 6518238788, "lat": 27.6207985, "lon": 85.5381316, "tags": {"amenity": "fast_food", "name": "Junu Bhojanalaya"}}, {"type": "node", "id": 9689666329, "lat": 27.6209839, "lon": 85.5383284, "tags": {"amenity": "fast_food", "name": "Manjil"}}, {"type": "node", "id": 9692969818, "lat": 27.6218168, "lon": 85.5415624, "tags": {"amenity": "fast_food"}}, {"type": "node", "id": 9692969823, "lat": 27.6234513, "lon": 85.5414297, "tags": {"amenity": "fast_food"}}, {"type": "node", "id": 9692969824, "lat": 27.6233408, "lon": 85.5414565, "tags": {"amenity": "fast_food"}}, {"type": "node", "id": 9692969828, "lat": 27.624622, "lon": 85.5412148, "tags": {"amenity": "fast_food"}}, {"type": "node", "id": 9692969831, "lat": 27.6247054, "lon": 85.5410099, "tags": {"amenity": "fast_food"}}, {"type": "node", "id": 9704461119, "lat": 27.6207112, "lon": 85.5383351, "tags": {"amenity": "fast_food"}}, {"type": "node", "id": 9704461122, "lat": 27.6217111, "lon": 85.5393496, "tags": {"amenity": "fast_food"}}, {"type": "node", "id": 9704461131, "lat": 27.6248344, "lon": 85.541311, "tags": {"amenity": "fast_food"}}, {"type": "node", "id": 10126310318, "lat": 27.6280447, "lon": 85.5233243, "tags": {"addr:street": "Banepa Panauti Khopasi Road", "amenity": "fast_food"}}]}