{"version": 0.6, "generator": "Overpass API 0.7.61.5 4133829e", "osm3s": {"timestamp_osm_base": "2023-08-24T15:41:15Z", "copyright": "The data included in this document is from www.openstreetmap.org. The data is made available under ODbL."}, "elements": [{"type": "node", "id": 1833839894, "lat": 27.6302214, "lon": 85.52216, "tags": {"amenity": "pharmacy", "name": "Chandeswori Medical Shop"}}, {"type": "node", "id": 3156329582, "lat": 27.6289042, "lon": 85.5278325, "tags": {"amenity": "pharmacy", "name": "Patanjali Chikitsataya Sewa Kendra"}}, {"type": "node", "id": 4465721389, "lat": 27.6287993, "lon": 85.5284852, "tags": {"addr:street": "Araniko Raj Marga", "amenity": "pharmacy", "name:en": "Patanjali Ayurvedic Seva Kendra"}}, {"type": "node", "id": 4533955690, "lat": 27.6318764, "lon": 85.5138746, "tags": {"amenity": "pharmacy", "name:en": "Shiva ram pharmacy"}}, {"type": "node", "id": 4574490997, "lat": 27.6341098, "lon": 85.5275414, "tags": {"addr:street": "Chandeshwori Marg", "amenity": "pharmacy", "name:en": "Chandi Pharma", "opening_hours": "24/7"}}, {"type": "node", "id": 4707667990, "lat": 27.6306456, "lon": 85.5202001, "tags": {"addr:street": "Bus Park M.", "amenity": "pharmacy", "name:en": "Udaya Medical Hall", "opening_hours": "Mo-Su 07:00-19:00", "phone": "011-661177"}}, {"type": "node", "id": 4741290040, "lat": 27.6699683, "lon": 85.4685939, "tags": {"addr:street": "Bhaktapur-Nala-Banepa road", "amenity": "pharmacy", "name:en": "Ohm Pharmaceuticals"}}, {"type": "node", "id": 9524684241, "lat": 27.6016929, "lon": 85.5286148, "tags": {"addr:municipality": "panauti_municipality", "addr:province": "bagmati", "amenity": "pharmacy", "name:en": "Dhaneshwori Medical Hall"}}, {"type": "node", "id": 9597204692, "lat": 27.624109, "lon": 85.5414461, "tags": {"amenity": "pharmacy"}}, {"type": "node", "id": 9615164957, "lat": 27.6283162, "lon": 85.5323011, "tags": {"addr:postcode": "45210", "amenity": "pharmacy", "dispensing": "yes", "healthcare": "pharmacy", "name": "Trienetra Medical", "opening_hours": "Su-Sa 7AM-8PM", "phone": "9841004318"}}, {"type": "node", "id": 9692969825, "lat": 27.6233425, "lon": 85.5412915, "tags": {"amenity": "pharmacy"}}, {"type": "node", "id": 9784655249, "lat": 27.6303352, "lon": 85.5237534, "tags": {"amenity": "pharmacy", "name:en": "Baldhya Sher Bahadur Memorial pharm", "source": "Field Survey"}}, {"type": "node", "id": 9784655259, "lat": 27.6290175, "lon": 85.5236487, "tags": {"amenity": "pharmacy", "contact:phone": "9841438423", "name:en": "Achutananda jotish Ayurvedic Ausadalaya", "source": "Field Survey"}}, {"type": "node", "id": 9784655280, "lat": 27.631875, "lon": 85.5250933, "tags": {"amenity": "pharmacy", "contact:phone": "9860146243", "name:en": "Smart Medical Hall", "source": "Field Survey"}}, {"type": "node", "id": 9960904377, "lat": 27.6363666, "lon": 85.5196991, "tags": {"amenity": "pharmacy", "name": "bhamashowari pharmacy"}}, {"type": "node", "id": 9960917283, "lat": 27.6316932, "lon": 85.5241723, "tags": {"amenity": "pharmacy", "name": "abc health care"}}, {"type": "node", "id": 9960932621, "lat": 27.6322912, "lon": 85.5227454, "tags": {"amenity": "pharmacy", "name": "Aaurved"}}, {"type": "node", "id": 9960935696, "lat": 27.6336257, "lon": 85.5270725, "tags": {"amenity": "pharmacy"}}, {"type": "node", "id": 9960935697, "lat": 27.6347633, "lon": 85.5279221, "tags": {"amenity": "pharmacy", "shop": "medical_supply"}}, {"type": "node", "id": 10230034891, "lat": 27.6571228, "lon": 85.5171162, "tags": {"addr:street": "Sera", "amenity": "pharmacy", "name": "Ugrachandi Medical", "phone": "9849311400, 9841488342"}}, {"type": "node", "id": 10230034892, "lat": 27.6543382, "lon": 85.5065742, "tags": {"amenity": "pharmacy", "name": "Rural Pharmacy", "phone": "16215466"}}, {"type": "node", "id": 10230034893, "lat": 27.6563512, "lon": 85.5031296, "tags": {"addr:street": "Nala", "amenity": "pharmacy", "name": "Nala Pharmacy"}}, {"type": "node", "id": 10230034894, "lat": 27.6326056, "lon": 85.4938172, "tags": {"addr:street": "Bhaisipati", "amenity": "pharmacy", "name": "Ausadi Pasal", "name:ne": "\u0914\u0937\u0927\u0940 \u092a\u0938\u0932"}}, {"type": "node", "id": 10230034895, "lat": 27.6415501, "lon": 85.4798419, "tags": {"addr:street": "Sanga", "amenity": "pharmacy", "name": "Sanga Medical Center", "phone": "9849174350"}}, {"type": "node", "id": 10230034896, "lat": 27.6415535, "lon": 85.4798353, "tags": {"addr:street": "Sanga", "amenity": "pharmacy", "name": "Ram Medical Hall", "phone": "9841573672"}}, {"type": "node", "id": 10230034897, "lat": 27.6316483, "lon": 85.497885, "tags": {"addr:street": "Janagal", "amenity": "pharmacy", "name": "Curex Pharmaceutical Pvt. Ltd."}}, {"type": "node", "id": 10230034898, "lat": 27.6322205, "lon": 85.5184616, "tags": {"amenity": "pharmacy", "name": "Gautam Pharma", "phone": "9841006896"}}, {"type": "node", "id": 10230034899, "lat": 27.6414766, "lon": 85.4798376, "tags": {"addr:street": "Saga", "amenity": "pharmacy", "name": "Ram Medical Hall", "phone": "9841563672"}}, {"type": "node", "id": 10230034900, "lat": 27.6366965, "lon": 85.4923458, "tags": {"addr:street": "Bhaisipati", "amenity": "pharmacy", "name": "Chamunda Medical Hall", "phone": "9841488295"}}, {"type": "node", "id": 10230034901, "lat": 27.6314702, "lon": 85.5184566, "tags": {"addr:street": "Tindobato", "amenity": "pharmacy", "name": "Aarogyata Medical"}}, {"type": "node", "id": 10230034902, "lat": 27.6426914, "lon": 85.5140125, "tags": {"addr:street": "Karunamarga", "amenity": "pharmacy", "name": "Naya Pharmacy", "name:ne": "\u0928\u092f\u093e\u0901 \u092b\u093e\u0930\u094d\u092e\u0947\u0938\u0940"}}, {"type": "node", "id": 10230034903, "lat": 27.6274268, "lon": 85.5209723, "tags": {"addr:street": "Godamchok", "amenity": "pharmacy", "name": "Mediserve Health Care", "phone": "11665411"}}, {"type": "node", "id": 10230034904, "lat": 27.6291673, "lon": 85.527143, "tags": {"addr:street": "Tarkaribazar", "amenity": "pharmacy", "name": "Xeno Banepa Pharmacy", "phone": "11660932"}}, {"type": "node", "id": 10230034905, "lat": 27.6325746, "lon": 85.5186467, "tags": {"addr:street": "Teendobato", "amenity": "pharmacy", "name": "Seer Imaging & Diagnostic Centre Banepa Pvt. Ltd", "phone": "11665390"}}, {"type": "node", "id": 10230034906, "lat": 27.6335739, "lon": 85.5272134, "tags": {"addr:street": "Ghokechaur", "amenity": "pharmacy", "name": "Namaste Medical Shop", "phone": "9849746614"}}, {"type": "node", "id": 10230034907, "lat": 27.6311808, "lon": 85.5229774, "tags": {"addr:street": "Banepa", "amenity": "pharmacy", "name": "A. Homoeo Pharmacy", "phone": "9808140093"}}, {"type": "node", "id": 10230034908, "lat": 27.6278826, "lon": 85.5227175, "tags": {"addr:street": "Godam Chowk", "amenity": "pharmacy", "name": "Niko Medical Hall", "phone": "11664094"}}, {"type": "node", "id": 10230034909, "lat": 27.6326999, "lon": 85.5220339, "tags": {"addr:street": "Teendhare", "amenity": "pharmacy", "name": "Chirayu Pharmacy", "name:ne": "\u091a\u093f\u0930\u093e\u092f\u0941 \u092b\u093e\u0930\u094d\u092e\u0947\u0938\u0940"}}, {"type": "node", "id": 10230034910, "lat": 27.6317592, "lon": 85.5242469, "tags": {"addr:street": "Chandeswori marga", "amenity": "pharmacy", "name": "Ganesthan Medical Hall", "phone": "9803054862"}}, {"type": "node", "id": 10230034911, "lat": 27.6301839, "lon": 85.5248007, "tags": {"addr:street": "Chardobato", "amenity": "pharmacy", "name": "Samjhana Homeo Pharmacy", "opening_hours": "Mo-Su 09:00-17:00", "phone": "9841321604"}}, {"type": "node", "id": 10230034912, "lat": 27.6317711, "lon": 85.5235195, "tags": {"addr:street": "Woku", "amenity": "pharmacy", "name": "Janta Paharmacy", "opening_hours": "Mo-Su 08:00-20:00", "phone": "9841455876"}}, {"type": "node", "id": 10230034913, "lat": 27.6371783, "lon": 85.5131183, "tags": {"amenity": "pharmacy", "name": "Prayush Pharmacy", "opening_hours": "Mo-Su 08:00-20:00", "phone": "9851167687"}}, {"type": "node", "id": 10230034914, "lat": 27.6347364, "lon": 85.5277451, "tags": {"amenity": "pharmacy", "name": "Bishes Pharmacy", "name:ne": "\u092c\u093f\u0938\u0947\u0938 \u092b\u093e\u0930\u092e\u0947\u0938", "opening_hours": "Mo-Su 07:00-20:00", "phone": "104631838"}}, {"type": "node", "id": 10230034915, "lat": 27.6537322, "lon": 85.5108232, "tags": {"addr:street": "Nala", "amenity": "pharmacy", "name": "Cichi Medical Hall", "opening_hours": "Mo-Su 07:00-20:00", "phone": "011-411082"}}, {"type": "node", "id": 10230034916, "lat": 27.6320231, "lon": 85.513886, "tags": {"addr:street": "Phoolbajar", "amenity": "pharmacy", "name": "Shivam Pharmacy", "opening_hours": "Mo-Su 07:00-20:00", "phone": "9801000086"}}, {"type": "node", "id": 10230034917, "lat": 27.634103, "lon": 85.5232294, "tags": {"addr:street": "Ganeshthan Chowk", "amenity": "pharmacy", "name": "Sahaj Pharmacy", "name:ne": "\u0938\u0939\u091c \u092b\u093e\u0930\u094d\u092e\u0947\u0938\u0940", "opening_hours": "Mo-Su 06:00-21:00", "phone": "11665540"}}, {"type": "node", "id": 10230034918, "lat": 27.6345668, "lon": 85.5176736, "tags": {"addr:street": "Karunamarga", "amenity": "pharmacy", "name": "Subidha Pharmacy", "opening_hours": "Mo-Su 06:00-20:00", "phone": "9841251149"}}, {"type": "node", "id": 10230034919, "lat": 27.6320062, "lon": 85.5007679, "tags": {"addr:street": "Janagal", "amenity": "pharmacy", "name": "Janagal Pharmacy", "phone": "9841708083"}}, {"type": "node", "id": 10230034920, "lat": 27.6275723, "lon": 85.5235337, "tags": {"addr:street": "Godamchok", "amenity": "pharmacy", "name": "Door'S Care Pharmacy", "opening_hours": "Mo-Su 10:00-17:01", "phone": "11662851"}}, {"type": "node", "id": 10230034921, "lat": 27.6417843, "lon": 85.477956, "tags": {"addr:street": "Sanga", "amenity": "pharmacy", "name": "Joshi Medical", "opening_hours": "Mo-Su 10:00-17:00", "phone": "9841331812"}}]}